# 2009 07 19 04 44 30.5  040.78    122.69     10.0  0.0   0.0   0.0   2.130        18
  DL2       33.80   1.000   P
  CN2       66.80   1.000   P
 KSRS       76.80   1.000   P
 USRK      111.40   1.000   P
 FINE      592.50   1.000   P
# 2009 08 05 12 08 12.6  042.35    127.22     10.0  3.8   0.0   0.0   1.890        19
  CN2       36.00   1.000   P
  SNY       43.30   1.000   P
  MDJ       52.40   1.000   P
 USRK       60.10   1.000   P
 KSRS       72.50   1.000   P
  DL2       96.90   1.000   P
  BJI      125.50   1.000   P
  JNU      137.20   1.000   P
 ASAJ      162.20   1.000   P
  NJ2      173.60   1.000   P
 SONM      219.40   1.000   P
  LZH      261.80   1.000   P
 KURB      404.40   1.000   P
 ILAR      541.70   1.000   P
 ARCE      570.50   1.000   P
 FINE      595.50   1.000   P
  WRA      621.10   1.000   P
 ASAR      644.60   1.000   P
# 2009 12 19 13 26 09.0  044.89    131.08     13.0  4.1   0.0   0.0   1.506        20
 USRK       17.50   1.000   P
  MDJ       22.30   1.000   P
 GRTR       26.10   1.000   P
  VLA       32.40   1.000   P
  TEY       64.50   1.000   P
  CN2       65.00   1.000   P
  KLR       57.70   1.000   P
 HABR       72.10   1.000   P
  SNY      117.30   1.000   P
 GRNR      115.10   1.000   P
 KSRS      113.30   1.000   P
 EKMR      112.00   1.000   P
  YSS      116.00   1.000   P
  ZEA      126.60   1.000   P
 KROS      137.00   1.000   P
 BMKR      136.70   1.000   P
  NJ2      229.00   1.000   P
 SONM      239.00   1.000   P
 PETK      261.90   1.000   P
  CD2      328.80   1.000   P
 ZALV      376.90   1.000   P
  QIZ      380.30   1.000   P
 MKAR      399.10   1.000   P
 KURK      412.10   1.000   P
 KURB      412.10   1.000   P
 BVAR      451.60   1.000   P
 ILAR      513.10   1.000   P
 FINE      592.20   1.000   P
  YKA      611.10   1.000   P
 AKAS      627.50   1.000   P
  WRA      636.20   1.000   P
 ASAR      660.30   1.000   P
 NVAR      707.50   1.000   P
 STKA      711.20   1.000   P
 PDAR      712.60   1.000   P
 LPAZ     1183.60   1.000   P
# 2009 12 20 21 31 13.3  044.44    123.16     13.0  4.7   0.0   0.0   1.493        21
  CN2       34.30   1.000   P
  SNY       42.00   1.000   P
  MDJ       70.30   1.000   P
  HIA       77.60   1.000   P
  DL2       83.80   1.000   P
 USRK       94.80   1.000   P
  VLA       98.70   1.000   P
  BJI       98.00   1.000   P
  BJT       97.40   1.000   P
 INCN      108.00   1.000   P
  KLR      108.00   1.000   P
 KSAR      115.60   1.000   P
 KSRS      115.60   1.000   P
  HHC      138.10   1.000   P
  TIA      136.60   1.000   P
  BTO      154.00   1.000   P
  ULN      161.40   1.000   P
 SONM      166.70   1.000   P
  JNU      181.60   1.000   P
  NJ2      180.10   1.000   P
 MJAR      205.70   1.000   P
  ZAK      206.70   1.000   P
  ERM      209.70   1.000   P
  TLY      222.10   1.000   P
  XAN      219.20   1.000   P
  WHN      225.30   1.000   P
  MOY      234.90   1.000   P
  LZH      237.00   1.000   P
  ENH      245.40   1.000   P
  YAK      249.50   1.000   P
  GTA      250.80   1.000   P
  CD2      276.50   1.000   P
  HVS      283.50   1.000   P
  GYA      297.70   1.000   P
 PETK      316.30   1.000   P
  SEY      323.30   1.000   P
  WMQ      326.70   1.000   P
  KMI      327.80   1.000   P
 ZALV      336.20   1.000   P
 TIXI      344.20   1.000   P
  NVS      348.10   1.000   P
  QIZ      346.30   1.000   P
 MK31      353.20   1.000   P
 MKAR      354.40   1.000   P
  LSA      361.30   1.000   P
 KURK      370.10   1.000   P
 CHTO      390.00   1.000   P
 CMAR      392.80   1.000   P
 TAPN      396.90   1.000   P
 ODAN      402.60   1.000   P
 JIRN      403.90   1.000   P
  GUN      403.40   1.000   P
 TKM2      403.80   1.000   P
 RAMN      406.10   1.000   P
  KKN      407.60   1.000   P
  PKI      408.70   1.000   P
 PKIN      409.40   1.000   P
  GKN      409.80   1.000   P
  KSH      415.80   1.000   P
 BVAR      412.70   1.000   P
 DANN      413.60   1.000   P
 BRVK      413.30   1.000   P
 KOLN      418.00   1.000   P
 PYUN      420.20   1.000   P
 KKAR      432.90   1.000   P
  SVE      454.40   1.000   P
  ARU      464.10   1.000   P
  TNA      471.50   1.000   P
  KBL      472.70   1.000   P
 ABKA      473.60   1.000   P
 PRGR      506.10   1.000   P
 COLD      524.70   1.000   P
 SPIT      534.70   1.000   P
 COLA      537.40   1.000   P
 ILAR      539.90   1.000   P
  KEV      535.00   1.000   P
 ARCE      545.30   1.000   P
  JOF      548.80   1.000   P
  DOT      551.80   1.000   P
 MENT      555.70   1.000   P
  OBN      560.00   1.000   P
  KAF      567.50   1.000   P
 FINE      571.70   1.000   P
  KBZ      573.70   1.000   P
  KIV      573.80   1.000   P
  GNI      578.50   1.000   P
  HYT      583.20   1.000   P
  RES      594.70   1.000   P
 AKAS      601.40   1.000   P
 KIEV      604.20   1.000   P
  HFS      611.40   1.000   P
 MALT      612.70   1.000   P
  NB2      614.20   1.000   P
  NOA      614.10   1.000   P
 SUMG      623.30   1.000   P
  SCO      623.90   1.000   P
 BR13      627.90   1.000   P
 BRTR      628.00   1.000   P
 BURA      628.90   1.000   P
  YKA      630.80   1.000   P
  MLR      635.10   1.000   P
 TRPA      637.10   1.000   P
 WRAB      637.40   1.000   P
  WRA      637.70   1.000   P
  GZR      647.40   1.000   P
 KRLC      647.60   1.000   P
  DPC      648.10   1.000   P
  UPC      648.40   1.000   P
  BZS      649.40   1.000   P
  CLL      653.10   1.000   P
  PRU      654.70   1.000   P
 TREC      654.90   1.000   P
  VTS      656.80   1.000   P
 PKSM      656.60   1.000   P
 CONA      660.10   1.000   P
  NKC      660.00   1.000   P
  KHC      661.20   1.000   P
 AS31      660.60   1.000   P
 ASAR      661.30   1.000   P
 GERE      661.50   1.000   P
  KBA      670.90   1.000   P
  EKA      674.50   1.000   P
  EDM      679.80   1.000   P
  BFO      679.90   1.000   P
 DAVA      680.00   1.000   P
  FRB      680.40   1.000   P
 DAVO      681.30   1.000   P
  CDF      685.50   1.000   P
  TUE      684.90   1.000   P
 PAGF      685.10   1.000   P
 HINF      685.50   1.000   P
  HAU      685.90   1.000   P
  FCC      686.20   1.000   P
 SFTF      688.60   1.000   P
  NEW      693.80   1.000   P
 E07A      694.50   1.000   P
 D08A      695.00   1.000   P
 HAWA      696.00   1.000   P
  LOR      695.50   1.000   P
  LPL      696.40   1.000   P
  LPG      696.60   1.000   P
 WALA      698.10   1.000   P
  SSF      697.20   1.000   P
  SMF      698.50   1.000   P
 MBDF      698.90   1.000   P
 BSMT      702.10   1.000   P
 JTMT      702.80   1.000   P
 YBMT      703.70   1.000   P
 SWMT      705.30   1.000   P
  TCF      704.50   1.000   P
 SLMT      707.60   1.000   P
  MSO      708.10   1.000   P
 CHMT      709.80   1.000   P
 STKA      716.80   1.000   P
 MFID      719.20   1.000   P
 HLID      722.00   1.000   P
 DGMT      719.30   1.000   P
  ULM      726.00   1.000   P
 MOOW      729.40   1.000   P
 NVAR      733.80   1.000   P
 SCHQ      732.10   1.000   P
 R11A      741.20   1.000   P
  JLU      734.70   1.000   P
 ESDC      748.00   1.000   P
  PFO      756.70   1.000   P
 TXAR      803.60   1.000   P
 VNDA     1135.50   1.000   P
 SAML     1172.70   1.000   P
 BDFB     1189.80   1.000   P
 LPAZ     1190.60   1.000   P
# 2009 12 22 11 58 49.5  045.21    124.86     10.0  3.6   0.0   0.0   2.018        22
  CN2       28.40   1.000   P
  MDJ       64.80   1.000   P
  SNY       55.60   1.000   P
 USRK       79.80   1.000   P
 KSRS      120.60   1.000   P
  LZH      254.30   1.000   P
 ILAR      530.80   1.000   P
 FINE      573.40   1.000   P
 AKAS      605.90   1.000   P
# 2010 01 11 06 19 22.4  040.62    122.87      7.0  0.0   0.0   0.0   1.041        23
  SNY       25.60   1.000   P
  DL2       37.20   1.000   P
 KSBA       57.30   1.000   P
 KSGA       75.80   1.000   P
 YNCB       77.50   1.000   P
 KSCW       83.40   1.000   P
 SEHB       92.70   1.000   P
 KSRS       77.10   1.000   P
 USRK      112.80   1.000   P
 SONM      194.00   1.000   P
# 2010 01 15 06 18 01.4  041.75    126.91      0.0  2.9   0.0   0.0   0.720        24
 KSRS       67.50   1.000   P
 USRK       70.30   1.000   P
  YKA      641.20   1.000   P
# 2010 03 10 10 54 56.2  046.62    131.63     10.0  4.3   0.0   0.0   1.640        25
 USRK       40.00   1.000   P
  MDJ       40.70   1.000   P
  KLR       38.50   1.000   P
 GRTR       47.10   1.000   P
 KHBR       45.10   1.000   P
  VLA       55.30   1.000   P
  TEY       58.30   1.000   P
  CN2       78.40   1.000   P
 GRNR       77.60   1.000   P
 EKMR       95.00   1.000   P
  SNY      114.00   1.000   P
  ZEA      110.90   1.000   P
 ASAJ      119.00   1.000   P
  JKA      119.00   1.000   P
 BMKR      120.20   1.000   P
  HIA      127.80   1.000   P
  TYV      124.30   1.000   P
  NKL      129.30   1.000   P
 KSRS      144.10   1.000   P
 KSAR      144.10   1.000   P
  BJT      186.40   1.000   P
  YAK      223.20   1.000   P
  BOD      223.10   1.000   P
  ULN      238.60   1.000   P
 SONM      241.20   1.000   P
 PETK      252.90   1.000   P
  PET      259.90   1.000   P
  TLY      261.40   1.000   P
  ZAK      262.80   1.000   P
  SEY      274.40   1.000   P
  MOY      279.60   1.000   P
  GTA      321.90   1.000   P
 TIXI      324.30   1.000   P
  HVS      326.20   1.000   P
  FX1      344.70   1.000   P
 BILL      352.70   1.000   P
 ZALV      371.50   1.000   P
  QIZ      393.10   1.000   P
 MKAR      397.80   1.000   P
 KURK      409.80   1.000   P
 KURB      409.80   1.000   P
  TNA      427.30   1.000   P
 TKM2      449.60   1.000   P
  AAK      456.60   1.000   P
  KSH      462.50   1.000   P
 COLA      497.80   1.000   P
 ILAR      500.90   1.000   P
 ABKA      506.50   1.000   P
 AKTO      511.40   1.000   P
  KBL      518.50   1.000   P
 GEYT      559.00   1.000   P
 FINE      583.90   1.000   P
  YKA      600.30   1.000   P
  KIV      603.00   1.000   P
 AKAS      621.10   1.000   P
 KIEV      621.10   1.000   P
  NB2      621.70   1.000   P
  NOA      622.00   1.000   P
  WRA      647.70   1.000   P
 BRTR      655.80   1.000   P
 ASAR      671.70   1.000   P
 NVAR      701.20   1.000   P
  ULM      700.80   1.000   P
 PDAR      706.40   1.000   P
 STKA      722.10   1.000   P
 BRSD      723.10   1.000   P
 ANMO      747.10   1.000   P
 LPAZ     1178.90   1.000   P
# 2010 05 18 04 08 08.7  042.75    125.97     10.0  0.0   0.0   0.0   1.865        26
  CN2       22.20   1.000   P
  MDJ       60.90   1.000   P
 USRK       71.10   1.000   P
 KSRS      103.50   1.000   P
 MJAR      161.80   1.000   P
# 2010 07 21 01 10 29.8  040.48    122.95     13.0  3.8   0.0   0.0   1.641        27
  SNY       24.30   1.000   P
  DL2       34.80   1.000   P
  CN2       67.60   1.000   P
 KSRS       72.50   1.000   P
  TIA      122.10   1.000   P
 USRK      111.50   1.000   P
  WMQ      335.20   1.000   P
 ILAR      565.00   1.000   P
 FINE      595.40   1.000   P
 BRTR      640.80   1.000   P
  YKA      655.70   1.000   P
# 2010 09 22 14 23 47.1  046.43    131.57     10.0  3.7   0.0   0.0   2.209        28
 USRK       38.90   1.000   P
  KLR       44.50   1.000   P
  TEY       59.70   1.000   P
 GRNR      101.40   1.000   P
 EKMR      100.40   1.000   P
 BMKR      123.80   1.000   P
 SONM      242.40   1.000   P
  SEY      278.30   1.000   P
 ILAR      503.10   1.000   P
 AKAS      623.50   1.000   P
  WRA      647.90   1.000   P
# 2010 10 09 05 45 14.7  042.35    128.39     10.0  0.0   0.0   0.0   1.327        29
  MDJ       44.70   1.000   P
  CN2       48.70   1.000   P
 USRK       50.70   1.000   P
  SNY       66.40   1.000   P
 KSRS       74.00   1.000   P
  CD2      300.50   1.000   P
 ZALV      376.10   1.000   P
 ILAR      539.20   1.000   P
# 2011 01 05 05 46 05.7  041.73    126.97      0.0  2.8   0.0   0.0   1.130        30
 KSRS       66.00   1.000   P
 USRK       69.90   1.000   P
# 2011 02 18 15 25 58.1  041.73    126.89      0.0  3.5   0.0   0.0  47.310        31
 KSRS       67.40   1.000   P
 USRK       70.10   1.000   P
 SONM      227.40   1.000   P
 KURB      405.70   1.000   P
# 2011 03 06 08 58 14.5  042.16    129.55      0.0  2.5   0.0   0.0  17.250        32
 USRK       44.60   1.000   P
 KSRS       74.60   1.000   P
# 2011 05 10 15 26 45.1  041.85    132.16     35.0  4.9   0.0   0.0   0.703        33
 PETK      274.30   1.000   P
  SEY      312.50   1.000   P
 BILL      383.40   1.000   P
 ZALV      394.80   1.000   P
 MK01      412.80   1.000   P
 MK31      414.00   1.000   P
 MKAR      413.70   1.000   P
 NRIK      415.40   1.000   P
 KURB      429.10   1.000   P
  WRA      613.20   1.000   P
# 2011 05 11 05 30 07.7  041.64    127.36      0.0  2.6   0.0   0.0  39.680        34
 KSRS       67.60   1.000   P
 USRK       65.50   1.000   P
# 2011 05 19 09 38 21.6  042.25    129.38      0.0  2.6   0.0   0.0  67.320        35
 USRK       45.00   1.000   P
 KSRS       75.30   1.000   P
# 2011 06 07 09 50 34.7  042.38    129.06      0.0  2.6   0.0   0.0  72.600        36
 USRK       46.40   1.000   P
 KSRS       76.60   1.000   P
# 2011 09 19 03 30 25.2  041.63    127.27      0.0  2.7   0.0   0.0  65.080        37
 KSRS       76.40   1.000   P
 USRK       67.80   1.000   P
# 2011 10 29 07 27 49.6  042.22    129.44      0.0  2.5   0.0   0.0  11.930        38
 USRK       44.90   1.000   P
 KSRS       74.90   1.000   P
# 2011 12 18 05 18 05.3  041.71    127.12      0.0  2.6   0.0   0.0  68.640        39
 KSRS       65.70   1.000   P
 USRK       67.80   1.000   P
  KLR      119.80   1.000   P
# 2011 12 26 13 34 08.6  042.38    127.25      0.0  3.6   0.0   0.0   0.980        40
 USRK       61.40   1.000   P
 KSRS       75.80   1.000   P
  KLR      110.50   1.000   P
  AAK      442.50   1.000   P
 ILAR      542.90   1.000   P
# 2012 01 01 01 11 25.7  042.25    129.29      0.0  2.6   0.0   0.0   5.290        41
 USRK       45.30   1.000   P
 KSRS       75.70   1.000   P
# 2012 01 21 04 51 58.4  041.73    126.97      0.0  2.8   0.0   0.0  55.040        42
 KSRS       65.70   1.000   P
 USRK       68.50   1.000   P
# 2012 01 21 06 19 31.9  041.71    126.99      0.0  2.4   0.0   0.0  52.910        43
 KSRS       65.50   1.000   P
 USRK       79.40   1.000   P
# 2012 01 21 07 54 45.6  042.23    129.37      0.0  2.6   0.0   0.0   0.660        44
 USRK       45.30   1.000   P
 KSRS       74.70   1.000   P
# 2012 02 01 21 16 56.9  040.53    122.44      6.0  4.5   0.0   0.0   2.136        45
  SNY       27.60   1.000   P
  DL2       29.20   1.000   P
  CN2       73.30   1.000   P
 INCN       66.50   1.000   P
  BJI       72.70   1.000   P
  BJT       72.70   1.000   P
 KS01       77.20   1.000   P
 KS15       78.40   1.000   P
 KSAR       78.20   1.000   P
 KSRS       78.10   1.000   P
  TJN       83.80   1.000   P
  TIA       91.50   1.000   P
  MDJ      121.80   1.000   P
 USRK      118.30   1.000   P
  HHC      121.90   1.000   P
  HIA      129.10   1.000   P
  NJ2      133.20   1.000   P
  JNU      143.20   1.000   P
  KLR      158.30   1.000   P
  WHN      174.80   1.000   P
 MAJO      186.40   1.000   P
 MJAR      186.60   1.000   P
  ULN      186.50   1.000   P
 SONM      192.60   1.000   P
 SONA      191.80   1.000   P
  LZH      218.50   1.000   P
  YSS      225.30   1.000   P
  ZAK      232.30   1.000   P
  TLY      243.60   1.000   P
  IRK      242.10   1.000   P
  GTA      244.10   1.000   P
  YUK      248.40   1.000   P
  NKL      248.60   1.000   P
  CD2      247.60   1.000   P
  BOD      252.80   1.000   P
  MOY      258.30   1.000   P
  GYA      266.40   1.000   P
  YAK      291.40   1.000   P
  KMI      300.10   1.000   P
  QIZ      317.10   1.000   P
  WMQ      332.70   1.000   P
 PETK      344.70   1.000   P
  LSA      351.70   1.000   P
 ZAA0      355.40   1.000   P
 ZALV      355.10   1.000   P
  SEY      358.20   1.000   P
 MK01      362.80   1.000   P
 MK31      362.60   1.000   P
 MKAR      362.70   1.000   P
  NVS      364.70   1.000   P
 CMAR      365.80   1.000   P
 TIXI      380.40   1.000   P
 TAPN      385.20   1.000   P
 PDGK      384.50   1.000   P
 KURK      385.20   1.000   P
 KURB      385.90   1.000   P
 ODAN      389.60   1.000   P
 JIRN      393.30   1.000   P
 RAMN      393.80   1.000   P
  GUN      394.20   1.000   P
  PKI      398.80   1.000   P
 PKIN      398.70   1.000   P
  DMN      400.80   1.000   P
 DANN      405.50   1.000   P
 KOLN      408.80   1.000   P
 PYUN      410.90   1.000   P
  AAK      417.80   1.000   P
  SFK      431.90   1.000   P
 BVAR      429.70   1.000   P
 MNAS      431.30   1.000   P
 BRVK      430.30   1.000   P
 SBUM      446.90   1.000   P
  KBL      475.60   1.000   P
  SVE      475.00   1.000   P
  ARU      484.30   1.000   P
 SOKR      487.40   1.000   P
 AKTO      495.90   1.000   P
 GEYT      525.60   1.000   P
 KLMR      549.60   1.000   P
  MAK      565.40   1.000   P
 ILAR      568.00   1.000   P
 ARCE      570.90   1.000   P
  OBN      578.60   1.000   P
  VSR      578.00   1.000   P
  KBZ      587.60   1.000   P
 KVAR      585.60   1.000   P
  KIV      587.70   1.000   P
  GNI      589.30   1.000   P
  INK      592.70   1.000   P
 FINE      593.80   1.000   P
  WRA      613.00   1.000   P
 AKAS      617.80   1.000   P
  RES      623.40   1.000   P
  HFS      633.20   1.000   P
  NB2      635.90   1.000   P
  NOA      635.50   1.000   P
 ASAR      637.40   1.000   P
 AS01      636.90   1.000   P
 BRTR      638.80   1.000   P
 BR23      641.60   1.000   P
  MLR      651.50   1.000   P
  YKA      657.00   1.000   P
  DPC      664.30   1.000   P
  UPC      665.70   1.000   P
 VRAC      667.80   1.000   P
 PVCC      670.20   1.000   P
  BRG      672.60   1.000   P
  CLL      670.90   1.000   P
 TREC      665.70   1.000   P
  PRU      672.00   1.000   P
 CONA      674.80   1.000   P
  KHC      678.10   1.000   P
 GERE      679.00   1.000   P
 ARSA      683.50   1.000   P
 GRFO      682.70   1.000   P
 MYKA      684.90   1.000   P
 ABTA      686.90   1.000   P
 WTTA      689.70   1.000   P
 MOTA      689.30   1.000   P
 FETA      691.80   1.000   P
  EKA      696.70   1.000   P
 DAVA      697.00   1.000   P
  BFO      696.90   1.000   P
 STKA      695.50   1.000   P
 FUOR      696.70   1.000   P
 PDAR      756.30   1.000   P
# 2012 02 01 21 43 32.1  040.45    122.50     10.0  3.9   0.0   0.0   1.878        46
  SNY       26.70   1.000   P
  DL2       28.30   1.000   P
  CN2       71.20   1.000   P
 INCN       68.90   1.000   P
  BJI       73.00   1.000   P
  BJT       73.10   1.000   P
 KSAR       77.50   1.000   P
 KSRS       77.50   1.000   P
  TIA      113.40   1.000   P
  MDJ      123.00   1.000   P
 USRK      115.50   1.000   P
  KLR      158.00   1.000   P
 SONM      195.50   1.000   P
 ZALV      355.60   1.000   P
 MKAR      365.90   1.000   P
 KURK      388.20   1.000   P
 KURB      388.20   1.000   P
  AAK      418.60   1.000   P
 BVAR      428.80   1.000   P
  ARU      483.80   1.000   P
 ILAR      566.70   1.000   P
 FINE      592.70   1.000   P
  WRA      612.90   1.000   P
 AKAS      618.10   1.000   P
  RES      625.70   1.000   P
  HFS      634.70   1.000   P
  NOA      636.70   1.000   P
 ASAR      639.20   1.000   P
 BRTR      641.90   1.000   P
  YKA      656.00   1.000   P
 GERE      680.90   1.000   P
 STKA      696.70   1.000   P
