# 2012 02 14 01 24 51.1  046.23    129.24     10.0  0.0   0.0   0.0   1.891        47
 USRK       50.00   1.000   P
 GRTR       51.30   1.000   P
  KLR       56.00   1.000   P
 KURB      398.00   1.000   P
 FINE      580.60   1.000   P
# 2012 04 03 16 54 52.2  041.54    123.12     10.0  3.7   0.0   0.0   1.815        48
  SNY        8.00   1.000   P
  CN2       43.80   1.000   P
  DL2       51.70   1.000   P
 KSRS       81.80   1.000   P
  MDJ      100.70   1.000   P
 USRK      103.50   1.000   P
  KLR      141.00   1.000   P
  MA2      321.20   1.000   P
  WMQ      335.80   1.000   P
  SEY      347.10   1.000   P
 MKAR      364.80   1.000   P
 KURB      384.70   1.000   P
 ILAR      559.70   1.000   P
 FINE      591.50   1.000   P
  WRA      618.80   1.000   P
 ASAR      644.00   1.000   P
  YKA      649.80   1.000   P
 STKA      700.10   1.000   P
# 2012 06 06 07 04 16.7  042.20    129.41      0.0  2.6   0.0   0.0  63.370        49
 USRK       45.70   1.000   P
 KSRS       74.90   1.000   P
# 2012 07 12 12 21 51.3  040.46    122.28     16.0  4.1   0.0   0.0   2.017        50
  DL2       27.80   1.000   P
  CN2       70.80   1.000   P
 INCN       67.10   1.000   P
  BJI       67.60   1.000   P
  BJT       70.20   1.000   P
 KS01       77.00   1.000   P
 KS15       77.60   1.000   P
 KSAR       77.50   1.000   P
 KSRS       77.50   1.000   P
  TIA       85.60   1.000   P
  MDJ       97.50   1.000   P
 USRK      114.90   1.000   P
  HHC      121.70   1.000   P
 SONA      192.10   1.000   P
 SONM      192.10   1.000   P
  GTA      245.10   1.000   P
  KMI      300.20   1.000   P
  WMQ      331.10   1.000   P
 MK32      362.20   1.000   P
 MKAR      362.20   1.000   P
 TIXI      380.10   1.000   P
 KURK      383.80   1.000   P
 KURB      383.80   1.000   P
 BVAR      427.80   1.000   P
  PSI      478.40   1.000   P
  ARU      482.00   1.000   P
 ABKA      485.40   1.000   P
 ILAR      566.00   1.000   P
 ARA0      570.00   1.000   P
 ARCE      570.00   1.000   P
  INK      590.80   1.000   P
 FIA0      591.70   1.000   P
 FINE      591.70   1.000   P
  WR1      611.40   1.000   P
  WRA      611.40   1.000   P
 AKAS      615.00   1.000   P
  HFS      630.00   1.000   P
 ASAR      635.50   1.000   P
 BR10      636.70   1.000   P
 BRTR      636.70   1.000   P
  YKA      654.90   1.000   P
  CLL      668.80   1.000   P
 STKA      694.00   1.000   P
 I07A      723.50   1.000   P
 NVAR      749.30   1.000   P
 PDAR      754.80   1.000   P
 CARC      758.90   1.000   P
  SBI      763.20   1.000   P
 BBSC      766.40   1.000   P
# 2012 07 15 04 36 49.7  040.51    122.28     10.0  0.0   0.0   0.0   2.156        51
  DL2       28.70   1.000   P
  CN2       72.30   1.000   P
 KSRS       76.70   1.000   P
 USRK      115.80   1.000   P
  WMQ      330.70   1.000   P
 KURB      383.60   1.000   P
 FINE      594.20   1.000   P
# 2012 08 07 10 11 02.3  042.33    129.20      0.0  2.4   0.0   0.0  82.670        52
 USRK       45.10   1.000   P
 KSRS       76.00   1.000   P
# 2012 08 08 18 40 03.2  043.66    123.58      0.0  3.8   0.0   0.0   1.150        53
 USRK       89.40   1.000   P
 KSRS      105.60   1.000   P
 KURB      378.60   1.000   P
 FINE      581.00   1.000   P
# 2013 02 12 02 57 51.5  041.30    129.00      0.0  5.1   0.0   0.0   0.820        54
 MSHR       33.40   1.000   P
  VLA       44.30   1.000   P
  MDJ       53.00   1.000   P
  CN2       57.00   1.000   P
 I45R       57.30   1.000   P
 USA0       56.00   1.000   P
 USRK       56.00   1.000   P
 KS01       60.20   1.000   P
 KSRS       61.20   1.000   P
 KS15       61.30   1.000   P
 KSAR       61.20   1.000   P
  SNY       63.90   1.000   P
  TJN       77.10   1.000   P
  TEY       98.70   1.000   P
  KLR      119.90   1.000   P
  JNU      121.10   1.000   P
 MJB9      125.10   1.000   P
 MAJO      125.10   1.000   P
  MAT      124.40   1.000   P
 MJAR      125.20   1.000   P
  INU      125.70   1.000   P
  BJI      143.30   1.000   P
  BJT      143.30   1.000   P
  HIA      148.80   1.000   P
 ASAJ      147.60   1.000   P
  TIA      153.80   1.000   P
  ERM      154.60   1.000   P
 GRNR      153.80   1.000   P
  YSS      162.20   1.000   P
 JHJ2      171.20   1.000   P
  SSE      171.50   1.000   P
  UGL      176.20   1.000   P
  NJ2      179.60   1.000   P
  ZEA      178.30   1.000   P
  YUK      180.30   1.000   P
  HHC      190.80   1.000   P
  SHO      191.70   1.000   P
  TYV      194.90   1.000   P
  NKL      203.70   1.000   P
  KUR      203.10   1.000   P
  BTO      207.80   1.000   P
  CIT      220.80   1.000   P
  OKH      213.70   1.000   P
  WHN      228.90   1.000   P
 SONA      244.10   1.000   P
 SONM      244.20   1.000   P
 TATO      248.40   1.000   P
  XAN      247.20   1.000   P
  YOJ      246.10   1.000   P
 YHNB      252.00   1.000   P
 NACB      255.20   1.000   P
  QZH      258.40   1.000   P
 SSLB      261.10   1.000   P
 YULB      262.50   1.000   P
  BOD      264.90   1.000   P
  ENH      267.00   1.000   P
 TPUB      266.00   1.000   P
  TWG      268.90   1.000   P
  ZAK      274.80   1.000   P
  IRK      276.70   1.000   P
  TLY      277.60   1.000   P
  LZH      279.10   1.000   P
  YAK      281.40   1.000   P
  SKR      280.70   1.000   P
  MOY      294.60   1.000   P
  GTA      300.30   1.000   P
 PEA0      302.30   1.000   P
 PETK      300.90   1.000   P
 PEA1      300.90   1.000   P
  MA2      301.60   1.000   P
  CD2      304.20   1.000   P
  PET      307.10   1.000   P
 KNGR      313.50   1.000   P
  GYA      311.70   1.000   P
  SEY      330.50   1.000   P
  KMI      344.30   1.000   P
  QIZ      349.70   1.000   P
  DGZ      371.70   1.000   P
  WMQ      374.90   1.000   P
 TIXI      372.50   1.000   P
 ZAA0      386.40   1.000   P
 ZALV      385.90   1.000   P
 ZAA1      385.90   1.000   P
 NONG      388.50   1.000   P
 SKNT      392.40   1.000   P
  LSA      408.50   1.000   P
  NVS      394.70   1.000   P
 BILL      399.40   1.000   P
 MK01      402.40   1.000   P
 MK31      402.60   1.000   P
 MK32      402.40   1.000   P
 MKAR      402.40   1.000   P
 MAKZ      404.30   1.000   P
 UTTA      404.30   1.000   P
 CMMT      405.60   1.000   P
 CHTO      405.40   1.000   P
 CM31      408.30   1.000   P
 CMAR      408.00   1.000   P
 CM01      407.70   1.000   P
 CM05      408.40   1.000   P
  SHL      408.10   1.000   P
 PBKT      409.30   1.000   P
 SUKH      411.20   1.000   P
 NRIK      416.30   1.000   P
 KURK      419.40   1.000   P
 KURB      419.80   1.000   P
 UMPA      424.90   1.000   P
 UTHA      424.60   1.000   P
 PDGK      424.60   1.000   P
 BRDH      425.70   1.000   P
 PATY      435.80   1.000   P
 JIRN      435.00   1.000   P
 RAMN      435.30   1.000   P
  GUN      435.60   1.000   P
 TARG      439.60   1.000   P
  PKI      439.80   1.000   P
 PKIN      439.90   1.000   P
 PHET      441.80   1.000   P
  KDJ      443.30   1.000   P
 GSTR      442.50   1.000   P
 DANN      447.00   1.000   P
 TKM2      450.00   1.000   P
  NRN      451.00   1.000   P
 KOLN      450.60   1.000   P
  KZA      455.10   1.000   P
 PYUN      452.90   1.000   P
  KBK      454.40   1.000   P
  USP      455.20   1.000   P
 FRU1      455.70   1.000   P
  BOK      454.00   1.000   P
  KSH      459.90   1.000   P
  AAK      456.40   1.000   P
 OTUK      456.80   1.000   P
  UCH      458.70   1.000   P
 TNTI      459.00   1.000   P
 BVA0      459.60   1.000   P
 BVAR      460.20   1.000   P
 BRVK      460.80   1.000   P
 GAMB      459.70   1.000   P
  AML      463.70   1.000   P
 MNAS      469.00   1.000   P
 ARSB      469.30   1.000   P
  SFK      469.40   1.000   P
 SBUM      469.70   1.000   P
  DDI      474.00   1.000   P
 TRTT      478.20   1.000   P
 SMLA      476.20   1.000   P
 KK31      478.00   1.000   P
 KKAR      477.90   1.000   P
 DHRM      476.80   1.000   P
 PATS      482.80   1.000   P
  ANM      483.10   1.000   P
  PBA      482.10   1.000   P
  BTK      485.80   1.000   P
  UNV      487.40   1.000   P
 KULM      488.40   1.000   P
 FAKI      489.90   1.000   P
  GAR      490.30   1.000   P
  NIL      491.40   1.000   P
 RDOG      490.90   1.000   P
  IPM      491.60   1.000   P
  SVE      500.30   1.000   P
 CMBY      507.20   1.000   P
 MANU      507.30   1.000   P
 BHPL      507.60   1.000   P
  NGP      506.90   1.000   P
  ARU      509.50   1.000   P
  PSI      511.80   1.000   P
  KBL      512.00   1.000   P
 AB31      518.40   1.000   P
 ABKA      518.40   1.000   P
  IM3      520.70   1.000   P
 SVW2      522.20   1.000   P
 AKTO      524.50   1.000   P
  GSI      527.30   1.000   P
  HYB      529.00   1.000   P
 TOLK      528.90   1.000   P
 COLD      529.70   1.000   P
 CAST      530.50   1.000   P
 PPLA      531.10   1.000   P
  MLY      531.90   1.000   P
 BPAW      532.50   1.000   P
  RSO      533.00   1.000   P
 RABL      536.20   1.000   P
  TRF      536.70   1.000   P
 OHAK      537.20   1.000   P
  SUA      538.10   1.000   P
 KDAK      538.70   1.000   P
  MDM      539.90   1.000   P
  MCK      539.80   1.000   P
  RND      540.80   1.000   P
 TCOL      541.10   1.000   P
 COLA      541.30   1.000   P
  WRH      541.10   1.000   P
 BRLK      541.30   1.000   P
  CCB      541.20   1.000   P
 MDRS      541.20   1.000   P
 POKR      542.10   1.000   P
 KIRV      541.80   1.000   P
 RC01      542.20   1.000   P
 SOEI      541.60   1.000   P
  PMR      543.10   1.000   P
  GHO      544.20   1.000   P
 ILAR      543.50   1.000   P
  ILB      543.70   1.000   P
  IL1      543.40   1.000   P
  HDA      544.00   1.000   P
  FYU      545.90   1.000   P
  SEW      545.10   1.000   P
  SML      545.50   1.000   P
  DHY      545.70   1.000   P
  KNK      546.70   1.000   P
 BATI      545.50   1.000   P
  PRP      547.60   1.000   P
 PRGR      544.10   1.000   P
  SCM      549.30   1.000   P
  POO      549.70   1.000   P
  PAX      552.00   1.000   P
  BHJ      552.90   1.000   P
 RIDG      552.00   1.000   P
  KLU      553.70   1.000   P
 SCRK      554.30   1.000   P
 HARP      555.10   1.000   P
  DOT      554.80   1.000   P
  DIV      556.10   1.000   P
 GEYT      560.80   1.000   P
 GYA0      561.20   1.000   P
  HMT      564.20   1.000   P
  GOA      564.40   1.000   P
 TMCR      563.70   1.000   P
 SPA0      567.10   1.000   P
 SPIT      566.10   1.000   P
 DAWY      568.50   1.000   P
 EPYK      569.60   1.000   P
  APA      568.30   1.000   P
 KLMR      569.40   1.000   P
  INK      571.90   1.000   P
  KEV      577.40   1.000   P
  TRD      582.30   1.000   P
 ARA0      581.20   1.000   P
 ARCE      581.20   1.000   P
 ARE0      581.50   1.000   P
 COEN      583.50   1.000   P
  HYT      585.20   1.000   P
  VRH      591.90   1.000   P
  WHY      594.00   1.000   P
  MOS      591.20   1.000   P
  OUL      597.50   1.000   P
 LPSR      598.00   1.000   P
  OBN      597.70   1.000   P
 BESE      600.20   1.000   P
  VSR      601.40   1.000   P
 FITZ      601.80   1.000   P
 MNCI      602.20   1.000   P
  SIT      604.70   1.000   P
  SUF      603.70   1.000   P
 FIA1      609.00   1.000   P
 FIA0      608.90   1.000   P
 FINE      608.90   1.000   P
  DAG      609.40   1.000   P
  ZEI      609.80   1.000   P
 TBLG      614.10   1.000   P
 WSAR      612.90   1.000   P
  KBZ      612.60   1.000   P
 KVAR      613.20   1.000   P
  KIV      613.70   1.000   P
  RES      611.20   1.000   P
 SHME      614.70   1.000   P
  NEY      615.70   1.000   P
 DLBC      615.60   1.000   P
 WRAB      614.80   1.000   P
  WR1      614.70   1.000   P
  WRA      614.70   1.000   P
 MSFE      617.90   1.000   P
  GNI      618.00   1.000   P
 UOSS      619.50   1.000   P
 HATD      620.10   1.000   P
  VSU      618.20   1.000   P
 ASHO      620.80   1.000   P
 TASB      619.30   1.000   P
 TULE      619.10   1.000   P
 KARS      623.80   1.000   P
 CLDR      626.00   1.000   P
 MHTO      625.10   1.000   P
 BATM      635.50   1.000   P
 MBWA      625.60   1.000   P
 AGRB      628.30   1.000   P
  CTA      628.50   1.000   P
 CTAO      628.60   1.000   P
 KOPR      629.20   1.000   P
 MICG      630.50   1.000   P
  MNK      630.50   1.000   P
 IZAR      630.60   1.000   P
 IDID      630.80   1.000   P
 AKDM      631.90   1.000   P
  ANN      630.50   1.000   P
 ISAL      631.70   1.000   P
 NACG      631.50   1.000   P
 CUKT      632.90   1.000   P
 IIGN      632.20   1.000   P
 GURO      636.00   1.000   P
 SLIT      633.60   1.000   P
 SIRT      637.10   1.000   P
 KULL      635.20   1.000   P
 YKW3      638.40   1.000   P
 SVAN      639.90   1.000   P
  YKA      638.50   1.000   P
 YKB5      638.50   1.000   P
 AKAS      639.00   1.000   P
 AKBB      639.40   1.000   P
 AS31      639.40   1.000   P
 ASAR      639.20   1.000   P
 AS01      639.20   1.000   P
 KIEV      639.40   1.000   P
 AK11      639.50   1.000   P
  SIM      643.10   1.000   P
  SUW      645.90   1.000   P
  HFS      645.80   1.000   P
 NC40      646.50   1.000   P
 NC30      646.90   1.000   P
 SUMG      648.00   1.000   P
 NB20      647.90   1.000   P
 NC20      648.10   1.000   P
  NB2      647.80   1.000   P
 NB20      647.80   1.000   P
  NOA      647.80   1.000   P
 NC60      648.40   1.000   P
 NBO0      649.10   1.000   P
 NAO0      649.40   1.000   P
  SCO      650.70   1.000   P
 KLNR      653.10   1.000   P
  KIS      653.50   1.000   P
  IAS      658.70   1.000   P
 KONO      658.00   1.000   P
 LEOM      659.50   1.000   P
 ILGA      660.20   1.000   P
  LVV      660.40   1.000   P
 TLCR      662.30   1.000   P
  BIR      663.30   1.000   P
  BEL      662.80   1.000   P
 PRAR      663.00   1.000   P
  CFR      664.30   1.000   P
 BR10      664.40   1.000   P
 BR13      664.70   1.000   P
 BRTR      664.40   1.000   P
  BIZ      665.40   1.000   P
 BUR0      665.40   1.000   P
 BURA      665.60   1.000   P
 BUR0      665.40   1.000   P
  KWP      665.80   1.000   P
  BSD      664.40   1.000   P
 ODBI      667.40   1.000   P
 TIRR      665.80   1.000   P
  VRI      667.00   1.000   P
  GKP      666.50   1.000   P
 HARR      667.50   1.000   P
  TLB      667.40   1.000   P
 PLOR      667.80   1.000   P
 ANTO      667.60   1.000   P
 MFTR      667.70   1.000   P
 BR23      667.80   1.000   P
 OZUR      670.10   1.000   P
 AMRR      662.00   1.000   P
  COP      669.20   1.000   P
 ICOR      670.60   1.000   P
 ARCR      671.30   1.000   P
 LLLB      670.10   1.000   P
  ISR      671.50   1.000   P
  BMR      671.40   1.000   P
  UZH      669.60   1.000   P
  MLR      671.00   1.000   P
 DOPR      672.00   1.000   P
 RASA      672.50   1.000   P
 LEHL      672.30   1.000   P
 ILUL      669.60   1.000   P
 TRPA      672.50   1.000   P
  OJC      672.10   1.000   P
 SECR      673.40   1.000   P
 SULR      674.10   1.000   P
  NIE      674.30   1.000   P
  CJR      675.30   1.000   P
 VOIR      674.90   1.000   P
  MUD      673.60   1.000   P
 MTUR      675.30   1.000   P
  ARR      677.00   1.000   P
 DRGR      677.20   1.000   P
 NLWA      677.40   1.000   P
 LANS      678.30   1.000   P
 HUMR      678.00   1.000   P
  LOT      668.80   1.000   P
  OKC      678.80   1.000   P
 D03D      679.10   1.000   P
 B05A      679.20   1.000   P
  LRW      678.20   1.000   P
 MORW      679.00   1.000   P
  ASF      679.40   1.000   P
  KSP      679.70   1.000   P
 B06A      679.40   1.000   P
 ZIMR      680.20   1.000   P
 MORC      680.80   1.000   P
  PSZ      681.10   1.000   P
 KRLC      682.00   1.000   P
  DPC      682.40   1.000   P
  GZR      682.40   1.000   P
 VYHS      682.20   1.000   P
  UPC      682.30   1.000   P
 VLAD      680.90   1.000   P
 SIRR      681.50   1.000   P
 MMAI      682.50   1.000   P
  SRE      683.40   1.000   P
 FORT      683.40   1.000   P
 D05A      683.90   1.000   P
 C06D      684.00   1.000   P
 E04D      684.80   1.000   P
  BZS      684.80   1.000   P
 HERR      684.70   1.000   P
  DZM      686.20   1.000   P
 VRAC      685.40   1.000   P
  BUD      686.10   1.000   P
 SFJD      684.00   1.000   P
 PUNG      686.00   1.000   P
 PVCC      686.30   1.000   P
  LON      685.90   1.000   P
 SMOL      686.60   1.000   P
  BRG      685.90   1.000   P
 KRUC      686.90   1.000   P
  CLL      686.30   1.000   P
 B08A      686.50   1.000   P
 MODS      687.60   1.000   P
 MDVR      687.40   1.000   P
  PRU      688.50   1.000   P
 MANT      688.60   1.000   P
 TREC      688.80   1.000   P
 I02D      690.50   1.000   P
 F05D      690.40   1.000   P
  VTS      691.60   1.000   P
 H04D      692.40   1.000   P
 MLA1      691.20   1.000   P
  SOP      692.60   1.000   P
 C09A      692.60   1.000   P
  NKC      693.00   1.000   P
 H04A      693.40   1.000   P
 CONA      693.60   1.000   P
 I03D      693.90   1.000   P
 J01E      694.00   1.000   P
 D08A      693.60   1.000   P
 G05D      693.80   1.000   P
  NEW      693.80   1.000   P
 HAWA      694.80   1.000   P
  KHC      694.40   1.000   P
 F07A      694.70   1.000   P
 GEC2      694.70   1.000   P
 GERE      694.90   1.000   P
 E08A      695.90   1.000   P
 GEA0      694.70   1.000   P
 STKA      695.00   1.000   P
 I04A      695.80   1.000   P
  SRS      695.70   1.000   P
 DIVS      695.10   1.000   P
 K02D      696.40   1.000   P
  WET      696.60   1.000   P
  EIL      696.40   1.000   P
 ARSA      696.70   1.000   P
 I05D      697.30   1.000   P
  FCC      696.60   1.000   P
  MOA      697.80   1.000   P
 E09A      698.20   1.000   P
  MDO      696.80   1.000   P
 STIP      696.90   1.000   P
 L02E      698.70   1.000   P
  VAY      698.50   1.000   P
 GRA1      698.70   1.000   P
  GRF      698.80   1.000   P
 GRFO      698.80   1.000   P
 MSVF      700.90   1.000   P
 HUMO      699.30   1.000   P
 J04D      699.40   1.000   P
 ARMA      700.40   1.000   P
  FRB      697.80   1.000   P
  KAC      698.30   1.000   P
  EDU      698.70   1.000   P
 PINE      701.30   1.000   P
 PERS      700.30   1.000   P
 G08A      701.10   1.000   P
 SOKA      700.30   1.000   P
  KPL      699.10   1.000   P
 NWAO      699.90   1.000   P
 J05D      702.20   1.000   P
 INVG      700.70   1.000   P
 L04D      702.70   1.000   P
  FFC      701.50   1.000   P
 K04D      702.70   1.000   P
 KRUS      703.10   1.000   P
 F10A      703.30   1.000   P
  YBH      702.80   1.000   P
  KBA      704.40   1.000   P
 I07A      704.40   1.000   P
 M02C      704.50   1.000   P
  EAU      703.00   1.000   P
  EAB      703.00   1.000   P
 VISS      704.10   1.000   P
 BOJS      704.10   1.000   P
 MYKA      703.30   1.000   P
  OHR      705.00   1.000   P
 M04C      705.90   1.000   P
  EKA      704.60   1.000   P
 N02D      706.40   1.000   P
  ESK      704.80   1.000   P
 PGBU      705.30   1.000   P
 JAVS      705.50   1.000   P
  BMO      707.20   1.000   P
 ABTA      706.60   1.000   P
 WATA      707.30   1.000   P
 WTTA      707.50   1.000   P
 BEBN      706.00   1.000   P
  MEM      706.40   1.000   P
  WDC      708.10   1.000   P
  MSO      708.70   1.000   P
 MOTA      708.40   1.000   P
 O02D      709.40   1.000   P
 BSTI      708.30   1.000   P
 SQTA      708.40   1.000   P
 RETA      708.60   1.000   P
 KESW      708.30   1.000   P
  HPK      708.30   1.000   P
 LKLB      709.30   1.000   P
 J08A      709.70   1.000   P
  MOD      710.20   1.000   P
 LVIA      709.40   1.000   P
 GAL1      709.50   1.000   P
 FETA      710.50   1.000   P
  WLF      710.80   1.000   P
 O03E      711.00   1.000   P
  BFO      711.30   1.000   P
 DAMY      715.20   1.000   P
