# 2009 05 10 14 47 44.7  046.75    125.17     16.0  4.5   0.0   0.0   1.371        15
  CN2       56.40   1.000   P
  MDJ       56.70   1.000   P
  HIA       65.50   1.000   P
  SNY       75.50   1.000   P
  KLR       72.60   1.000   P
 USRK       79.60   1.000   P
  VLA       89.40   1.000   P
 HABR       99.10   1.000   P
  DL2      123.40   1.000   P
  BJI      133.60   1.000   P
 KSRS      138.30   1.000   P
 KSAR      138.30   1.000   P
 CLNS      143.00   1.000   P
  YSS      179.30   1.000   P
  ULN      173.80   1.000   P
 SONM      178.70   1.000   P
 MJAR      200.60   1.000   P
  YAK      215.80   1.000   P
  LZH      262.30   1.000   P
  GTA      273.90   1.000   P
  ENH      279.70   1.000   P
  HVS      286.30   1.000   P
 PEA0      291.80   1.000   P
 PETK      292.20   1.000   P
  SEY      296.90   1.000   P
 TIXI      322.50   1.000   P
  WMQ      334.10   1.000   P
 ZALV      336.00   1.000   P
 MKAR      358.20   1.000   P
 BILL      366.10   1.000   P
 KURK      372.80   1.000   P
 KURB      373.80   1.000   P
 TKM2      412.90   1.000   P
 BVAR      412.60   1.000   P
 BRVK      413.40   1.000   P
 CMAR      416.80   1.000   P
  AAK      419.70   1.000   P
 KKAR      437.90   1.000   P
  TNA      449.10   1.000   P
 ABKA      474.90   1.000   P
 AKTO      479.40   1.000   P
 KDAK      521.60   1.000   P
 ARCE      534.90   1.000   P
  INK      544.30   1.000   P
 FINE      563.60   1.000   P
  RES      576.30   1.000   P
 AKAS      596.80   1.000   P
 AK01      598.40   1.000   P
 AK02      598.60   1.000   P
  HFS      603.60   1.000   P
  NB2      605.70   1.000   P
  NOA      605.80   1.000   P
 YKW3      612.30   1.000   P
  YKA      612.60   1.000   P
 BUR0      626.50   1.000   P
 BR13      629.10   1.000   P
 BRTR      628.40   1.000   P
 MORC      641.40   1.000   P
  DPC      643.30   1.000   P
  UPC      643.30   1.000   P
 PVCC      647.10   1.000   P
  BRG      647.80   1.000   P
  CLL      647.50   1.000   P
  PRU      649.90   1.000   P
 TREC      650.40   1.000   P
 NEUB      651.70   1.000   P
  WRA      651.00   1.000   P
  PLN      653.90   1.000   P
 GUNZ      654.30   1.000   P
 WERN      654.70   1.000   P
 ROHR      655.00   1.000   P
  MOX      654.40   1.000   P
  KHC      656.60   1.000   P
 GEC2      657.10   1.000   P
 GERE      657.30   1.000   P
 ROTZ      657.70   1.000   P
  WET      658.50   1.000   P
  GRF      660.70   1.000   P
  BFO      674.40   1.000   P
 AS31      675.60   1.000   P
 ASAR      673.90   1.000   P
 BAIF      676.10   1.000   P
  CDF      676.80   1.000   P
 PAGF      680.00   1.000   P
 HINF      680.30   1.000   P
  HAU      680.80   1.000   P
  LOR      690.20   1.000   P
  LPL      692.10   1.000   P
  LPG      692.20   1.000   P
 CHMT      693.30   1.000   P
  LDF      693.90   1.000   P
  AVF      693.80   1.000   P
 MBDF      694.70   1.000   P
  BGF      696.10   1.000   P
  TCF      699.40   1.000   P
 VIVF      699.80   1.000   P
  LMR      701.90   1.000   P
  MFF      703.30   1.000   P
 MCMT      704.20   1.000   P
  CAF      706.60   1.000   P
  ULM      710.60   1.000   P
 NVAR      717.80   1.000   P
  EPF      718.50   1.000   P
 PDAR      720.30   1.000   P
 ETSF      721.30   1.000   P
 STKA      726.80   1.000   P
 ISCO      743.30   1.000   P
 ESDC      743.60   1.000   P
 TXAR      791.70   1.000   P
 SNAA     1175.20   1.000   P
 VNA2     1180.50   1.000   P
 LPAZ     1184.30   1.000   P
 BDFB     1185.00   1.000   P
# 2009 05 16 16 33 25.1  042.92    123.87      0.0  3.5   0.0   0.0   1.060        16
 USRK       88.40   1.000   P
 KSRS       94.30   1.000   P
 ILAR      550.00   1.000   P
 NVAR      738.50   1.000   P
# 2009 05 25 00 54 42.9  041.29    129.07      0.0  4.8   0.0   0.0   1.036        17
 MSHR       33.90   1.000   P
  VLA       44.50   1.000   P
  MDJ       53.50   1.000   P
 USRK       56.40   1.000   P
  CN2       67.20   1.000   P
 KS01       60.70   1.000   P
 KSRS       61.70   1.000   P
 KSAR       61.70   1.000   P
  SNY       64.50   1.000   P
 INCN       66.10   1.000   P
  TJN       77.60   1.000   P
  DL2       93.00   1.000   P
  TEY       99.20   1.000   P
  JNU      121.70   1.000   P
 HABR      120.20   1.000   P
 MAJO      125.80   1.000   P
  MAT      125.60   1.000   P
 MJAR      126.10   1.000   P
  BJI      144.20   1.000   P
  BJT      143.40   1.000   P
  HIA      149.10   1.000   P
 ASAJ      149.80   1.000   P
  ERM      153.90   1.000   P
  TIA      154.40   1.000   P
  YSS      167.10   1.000   P
  NJ2      180.50   1.000   P
  HHC      189.40   1.000   P
  KPC      203.20   1.000   P
  TUP      204.30   1.000   P
 CLNS      228.50   1.000   P
  ULN      238.40   1.000   P
  CRS      242.80   1.000   P
 SONM      245.30   1.000   P
  UKT      245.40   1.000   P
  XAN      248.00   1.000   P
 NLYR      246.90   1.000   P
 YHNB      250.00   1.000   P
 YLYR      253.30   1.000   P
  KMO      261.50   1.000   P
  BOD      265.70   1.000   P
  ENH      268.20   1.000   P
  NIZ      268.30   1.000   P
  ZAK      275.70   1.000   P
  TLY      279.30   1.000   P
  LZH      280.10   1.000   P
  YAK      281.70   1.000   P
  MOY      295.00   1.000   P
  GTA      300.90   1.000   P
 PETK      303.00   1.000   P
  ORL      305.80   1.000   P
  CD2      304.90   1.000   P
  GYA      313.70   1.000   P
  SEY      333.20   1.000   P
  KMI      345.60   1.000   P
  QIZ      347.40   1.000   P
  WMQ      375.40   1.000   P
 TIXI      373.10   1.000   P
 ZAA0      385.90   1.000   P
 ZALV      387.00   1.000   P
  NVS      395.00   1.000   P
 BILL      399.90   1.000   P
 MK31      402.60   1.000   P
 MKAR      403.10   1.000   P
 CHTO      406.00   1.000   P
 CM31      408.70   1.000   P
 CMAR      408.70   1.000   P
 KURK      419.90   1.000   P
 KURB      420.50   1.000   P
 TAPN      427.50   1.000   P
 ODAN      431.40   1.000   P
  GUN      435.80   1.000   P
  KKN      439.80   1.000   P
  PKI      440.20   1.000   P
 DANN      447.60   1.000   P
 TKM2      450.20   1.000   P
 PYUN      453.10   1.000   P
  KSH      462.10   1.000   P
  AAK      457.50   1.000   P
 VOSK      457.40   1.000   P
 BVA0      460.40   1.000   P
 BVAR      460.20   1.000   P
 BRVK      460.30   1.000   P
 ZRNK      467.70   1.000   P
  ARU      509.80   1.000   P
 AB31      518.80   1.000   P
 AKTO      524.90   1.000   P
 COLD      530.10   1.000   P
 PPLA      531.40   1.000   P
  TRF      536.30   1.000   P
 KDAK      539.10   1.000   P
  MCK      540.80   1.000   P
 COLA      541.40   1.000   P
 ILAR      544.00   1.000   P
  SML      544.80   1.000   P
  DOT      555.10   1.000   P
 EGAK      561.70   1.000   P
 SPIT      567.30   1.000   P
  APA      572.10   1.000   P
  INK      571.90   1.000   P
  KEV      576.80   1.000   P
 ARCE      581.20   1.000   P
  JOF      588.80   1.000   P
 VRHR      592.60   1.000   P
  OBN      597.80   1.000   P
 FITZ      602.60   1.000   P
  VSR      602.20   1.000   P
  PUL      603.90   1.000   P
  KAF      605.20   1.000   P
 FIA1      609.40   1.000   P
 FINE      609.50   1.000   P
  DAG      610.20   1.000   P
  KIV      613.10   1.000   P
 DLBC      614.80   1.000   P
 WRAB      615.20   1.000   P
  WRA      615.30   1.000   P
  VSU      618.50   1.000   P
  CTA      629.10   1.000   P
 IZAR      631.20   1.000   P
 IDID      631.30   1.000   P
  ANN      625.10   1.000   P
 ISAL      632.30   1.000   P
 NACG      630.10   1.000   P
 IIGN      632.80   1.000   P
  YKA      638.90   1.000   P
 AS31      639.70   1.000   P
 ASAR      639.80   1.000   P
 AKAS      639.70   1.000   P
 AK01      640.00   1.000   P
 KIEV      640.10   1.000   P
 AK02      640.00   1.000   P
  MIB      642.90   1.000   P
  SIM      643.70   1.000   P
  RDF      645.10   1.000   P
  NAY      645.40   1.000   P
  RST      645.10   1.000   P
  SUW      646.70   1.000   P
  HFS      646.20   1.000   P
 SUMG      648.30   1.000   P
  NB2      648.20   1.000   P
  NOA      648.30   1.000   P
  BEL      663.30   1.000   P
 TESR      665.20   1.000   P
 BR13      664.80   1.000   P
 BRTR      665.00   1.000   P
 BUR0      665.70   1.000   P
 BURA      666.10   1.000   P
  KWP      666.20   1.000   P
  BSD      664.90   1.000   P
  GKP      667.10   1.000   P
 KOLS      670.10   1.000   P
  COP      669.50   1.000   P
  BMR      671.80   1.000   P
 TRPA      673.10   1.000   P
  OJC      672.60   1.000   P
 CRVS      671.10   1.000   P
  NIE      674.90   1.000   P
 RAYN      674.90   1.000   P
  MUD      674.20   1.000   P
  ARR      676.40   1.000   P
  OKC      679.00   1.000   P
  ASF      680.70   1.000   P
  KSP      680.20   1.000   P
 MORC      680.70   1.000   P
  PSZ      682.10   1.000   P
 VYHS      682.70   1.000   P
 MMAI      683.40   1.000   P
 VRAC      685.90   1.000   P
  LON      686.50   1.000   P
 PVCC      686.60   1.000   P
 SMOL      687.20   1.000   P
  BRG      686.30   1.000   P
  PRA      689.10   1.000   P
  PRU      688.70   1.000   P
  ZST      688.30   1.000   P
 TREC      689.00   1.000   P
  NKC      693.10   1.000   P
 CONA      694.00   1.000   P
  NEW      694.20   1.000   P
 HAWA      695.40   1.000   P
  KHC      694.80   1.000   P
 STKA      695.90   1.000   P
 GEC2      695.70   1.000   P
 GERE      695.60   1.000   P
  WET      696.70   1.000   P
  EIL      697.20   1.000   P
 ARSA      697.20   1.000   P
 B12A      698.00   1.000   P
 C11A      699.20   1.000   P
  MOA      698.80   1.000   P
 A13A      699.10   1.000   P
 MSVF      700.70   1.000   P
 GRFO      698.80   1.000   P
 GROS      700.10   1.000   P
 C12B      701.10   1.000   P
 B13A      701.00   1.000   P
 SOKA      700.70   1.000   P
 A14A      701.40   1.000   P
 NWAO      700.70   1.000   P
 GOLS      701.20   1.000   P
 BSMT      702.40   1.000   P
 A15A      702.90   1.000   P
  YBH      703.90   1.000   P
 C13A      704.10   1.000   P
 PDKS      703.40   1.000   P
 D12A      704.20   1.000   P
 JTMT      704.30   1.000   P
 B14A      704.60   1.000   P
  KBA      704.20   1.000   P
 YBMT      704.00   1.000   P
  LJU      704.60   1.000   P
 VISS      704.30   1.000   P
 MYKA      704.40   1.000   P
 BOJS      704.60   1.000   P
 C14A      705.70   1.000   P
 SWMT      706.00   1.000   P
 A16A      706.10   1.000   P
 D13A      706.30   1.000   P
 B15A      706.20   1.000   P
  EKA      705.40   1.000   P
  CEY      705.60   1.000   P
 JAVS      706.00   1.000   P
  BMO      707.50   1.000   P
 B16A      708.20   1.000   P
 WTTA      707.70   1.000   P
  MEM      707.30   1.000   P
 C15A      708.90   1.000   P
 A17A      708.30   1.000   P
 SKDS      707.50   1.000   P
  MSO      709.00   1.000   P
 D14A      708.80   1.000   P
 MOTA      708.10   1.000   P
 F12A      709.80   1.000   P
 RETA      709.30   1.000   P
 E13A      709.70   1.000   P
  MOD      711.00   1.000   P
 C16A      710.40   1.000   P
 A18A      710.40   1.000   P
 BCLA      711.30   1.000   P
 B17A      710.90   1.000   P
 E14A      711.70   1.000   P
 D15A      711.80   1.000   P
 G12A      711.80   1.000   P
  BFO      711.10   1.000   P
 DAVA      712.20   1.000   P
 WVOR      713.50   1.000   P
 B18A      712.80   1.000   P
 A19A      713.20   1.000   P
  DOU      712.80   1.000   P
 C17A      713.70   1.000   P
 E15A      714.00   1.000   P
 D16A      714.50   1.000   P
 FUOR      714.60   1.000   P
 F14A      714.60   1.000   P
 EGMT      714.80   1.000   P
 DAVO      714.70   1.000   P
 B19A      714.80   1.000   P
 G13A      715.00   1.000   P
 H12A      716.00   1.000   P
 D17A      715.60   1.000   P
 E16A      716.20   1.000   P
 G14A      717.20   1.000   P
 F15A      717.20   1.000   P
  LLS      716.50   1.000   P
 MFID      717.90   1.000   P
  TUE      716.60   1.000   P
 C19A      718.10   1.000   P
 I12A      718.30   1.000   P
 D18A      718.60   1.000   P
 E17A      718.80   1.000   P
 F16A      719.40   1.000   P
 FUSI      718.90   1.000   P
 H14A      719.50   1.000   P
 G15A      720.00   1.000   P
 B21A      720.10   1.000   P
 A22A      720.00   1.000   P
  BOZ      720.20   1.000   P
 MCMT      720.20   1.000   P
 I13A      720.90   1.000   P
 E18A      720.60   1.000   P
 D19A      720.80   1.000   P
 HLID      721.50   1.000   P
 G16A      721.40   1.000   P
 F17A      721.80   1.000   P
 H15A      722.00   1.000   P
 J13A      723.30   1.000   P
 B22A      723.00   1.000   P
 D20A      722.80   1.000   P
  AQU      723.30   1.000   P
 G17A      724.00   1.000   P
 F18A      723.80   1.000   P
 E19A      724.10   1.000   P
 B23A      724.50   1.000   P
 J14A      725.10   1.000   P
 H16A      725.30   1.000   P
  CMB      724.90   1.000   P
 E20A      725.70   1.000   P
 F19A      726.30   1.000   P
 DGMT      726.30   1.000   P
 C23A      726.80   1.000   P
 D22A      727.30   1.000   P
 I16A      729.00   1.000   P
 H17A      730.10   1.000   P
 F20A      728.00   1.000   P
 H18A      729.00   1.000   P
 D23A      729.30   1.000   P
 NVAR      730.30   1.000   P
  ELK      730.90   1.000   P
 H19A      730.70   1.000   P
 LOHW      731.50   1.000   P
 D24A      731.80   1.000   P
 E23A      732.20   1.000   P
 I18A      732.90   1.000   P
 G21A      732.60   1.000   P
 I19A      734.50   1.000   P
 H20A      734.20   1.000   P
 F23A      735.10   1.000   P
 G22A      735.10   1.000   P
  TIN      735.80   1.000   P
  ULM      734.70   1.000   P
 H21A      735.80   1.000   P
 I20A      736.20   1.000   P
 J19A      736.80   1.000   P
 SMMC      736.60   1.000   P
 HWUT      736.80   1.000   P
 F24A      736.80   1.000   P
 PDAR      736.80   1.000   P
  VES      737.10   1.000   P
 G23A      736.90   1.000   P
 H22A      737.60   1.000   P
  CWC      738.30   1.000   P
 GRAC      738.60   1.000   P
 R11A      738.50   1.000   P
 J20A      738.40   1.000   P
 I21A      738.60   1.000   P
 K19A      737.90   1.000   P
  DUG      739.00   1.000   P
 L18A      739.50   1.000   P
 M17A      740.00   1.000   P
  ISA      739.80   1.000   P
 J21A      740.00   1.000   P
 I22A      739.80   1.000   P
 L19A      740.70   1.000   P
 K20A      740.10   1.000   P
 H24A      740.80   1.000   P
 MPMC      742.00   1.000   P
 FURC      742.40   1.000   P
 J22A      741.90   1.000   P
 K21A      743.00   1.000   P
  BLG      744.90   1.000   P
 EDW2      744.50   1.000   P
 I24A      744.80   1.000   P
 RSSD      745.30   1.000   P
 K22A      745.10   1.000   P
 SHOC      746.00   1.000   P
 DECC      745.90   1.000   P
 M20A      746.20   1.000   P
  GSC      746.80   1.000   P
 J24A      746.60   1.000   P
  MSU      747.90   1.000   P
 BFSC      748.10   1.000   P
  FMP      748.80   1.000   P
 P18A      748.50   1.000   P
 O19A      748.20   1.000   P
 N20A      748.80   1.000   P
 Q16A      748.60   1.000   P
  TUQ      748.80   1.000   P
 SCHQ      747.60   1.000   P
  SRU      749.70   1.000   P
 L23A      749.10   1.000   P
 M22A      751.10   1.000   P
 N21A      750.60   1.000   P
 O20A      751.30   1.000   P
 P19A      751.50   1.000   P
 O21A      753.10   1.000   P
 N22A      753.50   1.000   P
 BELC      753.90   1.000   P
 EYMN      752.10   1.000   P
  PFO      753.90   1.000   P
 N23A      754.30   1.000   P
 M24A      754.80   1.000   P
 109C      754.50   1.000   P
 NEE2      754.90   1.000   P
 U15A      756.00   1.000   P
 O22A      755.50   1.000   P
  IRM      756.00   1.000   P
 W13A      755.90   1.000   P
 P21A      756.10   1.000   P
 Q20A      755.60   1.000   P
 M25A      756.00   1.000   P
 S18A      756.70   1.000   P
  BC3      756.70   1.000   P
 O23A      757.40   1.000   P
 N24A      757.00   1.000   P
 P22A      757.20   1.000   P
 PDMC      758.30   1.000   P
 Q21A      758.30   1.000   P
 SMCO      758.70   1.000   P
 PV01      758.40   1.000   P
 R20A      759.00   1.000   P
 N25A      759.10   1.000   P
 Y12C      759.10   1.000   P
 ISCO      759.60   1.000   P
 O24A      759.20   1.000   P
 M27A      759.50   1.000   P
 Q22A      760.10   1.000   P
 R21A      760.50   1.000   P
 S20A      760.80   1.000   P
 P23A      760.90   1.000   P
  GLA      761.20   1.000   P
 KEST      759.30   1.000   P
 WUAZ      761.70   1.000   P
 O25A      761.00   1.000   P
 P24A      761.40   1.000   P
 MVCO      762.40   1.000   P
 Q23A      761.90   1.000   P
 S21A      763.40   1.000   P
 N27A      761.90   1.000   P
 Y14A      762.40   1.000   P
 ECSD      761.10   1.000   P
 OGNE      762.10   1.000   P
 SPMN      762.00   1.000   P
 Q24A      763.40   1.000   P
 P25A      763.50   1.000   P
 S22A      764.80   1.000   P
 113A      764.80   1.000   P
 Z14A      764.90   1.000   P
 R23A      765.20   1.000   P
 X16A      765.90   1.000   P
 U20A      765.60   1.000   P
 T21A      765.90   1.000   P
 P26A      765.40   1.000   P
 N29A      766.30   1.000   P
 R24A      766.80   1.000   P
 T22A      767.70   1.000   P
 U21A      767.50   1.000   P
 SDCO      767.00   1.000   P
 Q26A      768.00   1.000   P
 V20A      767.70   1.000   P
 S24A      768.60   1.000   P
 R25A      768.70   1.000   P
 T23A      769.20   1.000   P
 P28A      768.20   1.000   P
 BGNE      768.60   1.000   P
 U22A      769.90   1.000   P
 W20A      770.30   1.000   P
 R26A      769.80   1.000   P
 Q28A      770.50   1.000   P
 T24A      771.50   1.000   P
 U23A      771.70   1.000   P
 R27A      771.30   1.000   P
 W21A      772.10   1.000   P
 X20A      773.50   1.000   P
 T25A      772.20   1.000   P
 S26A      772.20   1.000   P
 U24A      772.90   1.000   P
 R28A      773.50   1.000   P
 T26A      773.60   1.000   P
 X21A      775.00   1.000   P
 Y20A      775.70   1.000   P
 U25A      775.20   1.000   P
 V24A      776.40   1.000   P
 S28A      776.40   1.000   P
 ESDC      774.60   1.000   P
 U26A      777.10   1.000   P
 V25A      776.80   1.000   P
 Z20A      777.60   1.000   P
 U27A      778.70   1.000   P
 V26A      778.80   1.000   P
 S30A      779.20   1.000   P
 W25A      779.90   1.000   P
 U28A      779.80   1.000   P
 Y23A      781.10   1.000   P
 V27A      780.80   1.000   P
 T30A      781.50   1.000   P
 319A      782.30   1.000   P
 Y25A      783.80   1.000   P
 Z24A      784.90   1.000   P
 222A      784.70   1.000   P
 Y26A      785.80   1.000   P
 Z25A      786.90   1.000   P
 124A      786.90   1.000   P
 223A      786.70   1.000   P
 V31A      787.80   1.000   P
 125A      788.80   1.000   P
 224A      789.30   1.000   P
 Z27A      789.10   1.000   P
 126A      789.90   1.000   P
 Y29A      790.70   1.000   P
 324A      791.10   1.000   P
 X31A      791.90   1.000   P
 226B      791.90   1.000   P
 325A      792.60   1.000   P
 Y30A      792.30   1.000   P
 Z29A      793.40   1.000   P
 WMOK      793.20   1.000   P
 Z30A      793.90   1.000   P
 425A      794.90   1.000   P
 326A      795.20   1.000   P
 130A      796.60   1.000   P
 426A      797.40   1.000   P
 328A      798.20   1.000   P
 229A      797.90   1.000   P
 Z32A      798.00   1.000   P
 329A      798.90   1.000   P
 526A      799.80   1.000   P
 230A      799.40   1.000   P
 ABTX      800.10   1.000   P
 428A      800.90   1.000   P
 626A      801.00   1.000   P
 231A      800.90   1.000   P
 330A      801.00   1.000   P
 528A      802.50   1.000   P
 429A      802.30   1.000   P
 232A      802.90   1.000   P
 TXAR      803.30   1.000   P
 627A      803.50   1.000   P
 430A      803.20   1.000   P
 529A      803.30   1.000   P
 628A      804.20   1.000   P
