# 2006 03 27 09 07 06.3  040.00    122.36      0.0  3.3   0.0   0.0   0.980         1
  JNU      140.40   1.000   P
 SONM      196.30   1.000   P
 MKAR      367.70   1.000   P
 ILAR      572.50   1.000   P
  YKA      661.20   1.000   P
# 2006 03 31 12 23 17.9  044.64    124.15     10.0  4.8   0.0   0.0   0.968         2
  CN2       22.90   1.000   P
  SNY       44.60   1.000   P
  MDJ       60.60   1.000   P
  HIA       80.00   1.000   P
  DL2       88.60   1.000   P
  KLR      117.10   1.000   P
 INCN      137.10   1.000   P
  BJT      138.70   1.000   P
 KS15      113.60   1.000   P
  TIA      143.90   1.000   P
  HHC      145.10   1.000   P
  CIT      144.90   1.000   P
  BTO      161.60   1.000   P
 CLNS      190.10   1.000   P
  ULN      170.10   1.000   P
 SONM      176.40   1.000   P
 ASAJ      189.10   1.000   P
  NJ2      189.60   1.000   P
 MAJO      201.20   1.000   P
  MAT      193.90   1.000   P
 MJAR      190.50   1.000   P
  SSE      196.40   1.000   P
  IRK      209.30   1.000   P
  ZAK      214.90   1.000   P
  XAN      226.90   1.000   P
  WHN      227.60   1.000   P
  MOY      238.40   1.000   P
  LZH      247.40   1.000   P
  YAK      245.90   1.000   P
  JOW      247.90   1.000   P
  ENH      254.90   1.000   P
  GTA      260.10   1.000   P
 YHNB      274.30   1.000   P
  QZH      273.90   1.000   P
 NACB      279.70   1.000   P
  CD2      283.40   1.000   P
  MA2      293.20   1.000   P
 KRAR      301.50   1.000   P
  GYA      302.90   1.000   P
  WMQ      333.60   1.000   P
  KMI      333.50   1.000   P
  ZAL      341.40   1.000   P
 TIXI      343.10   1.000   P
  NVS      349.60   1.000   P
  QIZ      355.60   1.000   P
 MK31      360.30   1.000   P
 MKAR      360.60   1.000   P
  TGY      374.00   1.000   P
 KURK      375.80   1.000   P
 BILL      385.00   1.000   P
  SHL      388.10   1.000   P
 ULHL      409.10   1.000   P
 JIRN      408.90   1.000   P
 TKM2      411.20   1.000   P
  GUN      409.70   1.000   P
  KKN      413.70   1.000   P
  KZA      416.90   1.000   P
  KBK      416.20   1.000   P
 CHMS      415.40   1.000   P
  PKI      413.90   1.000   P
  USP      416.20   1.000   P
 CHKZ      415.40   1.000   P
  FRU      416.10   1.000   P
  DMN      415.40   1.000   P
  GKN      415.90   1.000   P
  AAK      418.50   1.000   P
 BRVK      417.90   1.000   P
  UCH      420.30   1.000   P
 EKS2      422.20   1.000   P
  AML      425.20   1.000   P
 KOLN      423.00   1.000   P
 ZRNK      424.80   1.000   P
  BOK      434.10   1.000   P
  KKM      446.80   1.000   P
  SVE      460.10   1.000   P
  TNA      466.50   1.000   P
  ARU      465.80   1.000   P
 BHPL      482.50   1.000   P
  KAD      531.50   1.000   P
  MCK      534.30   1.000   P
 COLA      533.30   1.000   P
 KLMR      533.70   1.000   P
  APA      533.70   1.000   P
 ILAR      535.70   1.000   P
 KDAK      537.60   1.000   P
  PMR      537.90   1.000   P
  SML      540.30   1.000   P
 ARCE      547.30   1.000   P
  JOF      554.00   1.000   P
 PALK      556.20   1.000   P
 DAWY      559.80   1.000   P
  INK      560.80   1.000   P
  OBN      562.00   1.000   P
 VRSR      566.10   1.000   P
  KAF      570.50   1.000   P
  GOF      571.70   1.000   P
 FINE      574.90   1.000   P
  KIV      578.90   1.000   P
  DAG      584.80   1.000   P
  GNI      584.10   1.000   P
  VSU      584.60   1.000   P
 KAKA      588.80   1.000   P
  SOC      589.40   1.000   P
  RES      592.30   1.000   P
 IDID      596.40   1.000   P
 ISAL      597.50   1.000   P
 IIGN      598.30   1.000   P
 AKAS      604.90   1.000   P
 DLBC      610.20   1.000   P
  UMR      611.00   1.000   P
  MIB      611.50   1.000   P
  QRN      613.30   1.000   P
  RDF      614.20   1.000   P
  NAY      614.20   1.000   P
  NB2      616.00   1.000   P
  NOA      616.30   1.000   P
 MALT      618.70   1.000   P
 FITZ      622.20   1.000   P
  LVV      628.10   1.000   P
 YKW3      627.10   1.000   P
  YKA      627.90   1.000   P
 BURA      633.10   1.000   P
  KWP      632.90   1.000   P
 STHS      638.50   1.000   P
  MLR      639.60   1.000   P
 WRAB      638.90   1.000   P
  WRA      638.30   1.000   P
  OJC      640.00   1.000   P
 CRVS      643.20   1.000   P
 VOIR      642.60   1.000   P
 DRGR      645.60   1.000   P
 KECS      644.90   1.000   P
  OKC      647.40   1.000   P
  KSP      648.50   1.000   P
 MORC      649.60   1.000   P
  PSZ      649.80   1.000   P
  DPC      651.10   1.000   P
 VYHS      651.20   1.000   P
  UPC      651.00   1.000   P
 BSEG      652.10   1.000   P
  BZS      653.50   1.000   P
  BRG      654.70   1.000   P
  CLL      655.40   1.000   P
  CTA      655.10   1.000   P
  ZST      657.60   1.000   P
  PRU      657.60   1.000   P
 TREC      657.80   1.000   P
  VTS      661.10   1.000   P
 PKSM      660.50   1.000   P
  CLZ      658.30   1.000   P
 WERD      661.70   1.000   P
  NKC      662.90   1.000   P
  MOX      662.70   1.000   P
 ASAR      661.80   1.000   P
  KHC      664.40   1.000   P
 MANZ      664.80   1.000   P
 GEC2      664.10   1.000   P
 GERE      664.10   1.000   P
  WET      665.80   1.000   P
 UBBA      667.10   1.000   P
 GRA1      668.50   1.000   P
  GRF      668.50   1.000   P
 GROS      669.10   1.000   P
  BUG      670.50   1.000   P
 OBKA      672.40   1.000   P
  KBA      674.10   1.000   P
 BOJS      673.90   1.000   P
 CADS      674.70   1.000   P
 JAVS      675.60   1.000   P
  EDM      676.30   1.000   P
 WTTA      677.90   1.000   P
  STU      678.40   1.000   P
 MOTA      678.90   1.000   P
 SQTA      679.20   1.000   P
  WLF      682.00   1.000   P
  BFO      681.70   1.000   P
 DAVA      683.00   1.000   P
 GIVF      682.90   1.000   P
  CDF      684.80   1.000   P
  FCC      683.40   1.000   P
 HINF      688.10   1.000   P
  HAU      689.60   1.000   P
  NEW      689.80   1.000   P
 CABF      696.00   1.000   P
  LOR      698.00   1.000   P
  LPL      699.20   1.000   P
  LPG      699.30   1.000   P
  SSF      699.80   1.000   P
  SMF      700.90   1.000   P
  AVF      701.50   1.000   P
 MBDF      701.60   1.000   P
 FORT      701.20   1.000   P
 ORIF      703.70   1.000   P
  SBF      704.70   1.000   P
  MSO      704.90   1.000   P
  BMO      704.90   1.000   P
 CHMT      706.10   1.000   P
  TCF      706.90   1.000   P
 SMRF      708.50   1.000   P
 EGMT      708.80   1.000   P
  HRY      709.90   1.000   P
  MFF      711.20   1.000   P
 WVOR      712.30   1.000   P
 LASF      712.80   1.000   P
  CAF      714.00   1.000   P
 DLMT      714.70   1.000   P
 MCMT      716.40   1.000   P
  LFF      716.90   1.000   P
 STKA      714.90   1.000   P
 HLID      718.50   1.000   P
 DGMT      717.90   1.000   P
 GCMT      719.80   1.000   P
 QLMT      720.10   1.000   P
 MTLF      720.10   1.000   P
 PAHR      722.00   1.000   P
 ARMA      724.00   1.000   P
  BMN      725.00   1.000   P
 FLWY      725.60   1.000   P
  IMW      725.60   1.000   P
  ULM      723.10   1.000   P
 LOHW      727.60   1.000   P
  ELK      729.10   1.000   P
 NVAR      730.20   1.000   P
 SCHQ      731.20   1.000   P
 PDAR      732.60   1.000   P
 HWUT      733.90   1.000   P
 RSSD      738.50   1.000   P
 TMUT      744.70   1.000   P
 ARUT      745.80   1.000   P
  MSU      746.20   1.000   P
  SRU      747.10   1.000   P
  NEN      750.60   1.000   P
 ESDC      749.40   1.000   P
 SMCO      754.80   1.000   P
 WUAZ      760.40   1.000   P
 KMBO      773.20   1.000   P
 TORD     1084.50   1.000   P
 VNDA     1136.20   1.000   P
  SDV     1140.10   1.000   P
 VNA2     1174.20   1.000   P
 VNA3     1175.50   1.000   P
 LPAZ     1189.90   1.000   P
 BDFB     1190.70   1.000   P
 CPUP     1244.00   1.000   P
# 2006 06 18 00 03 22.7  040.60    123.01      5.0  3.8   0.0   0.0   1.028         3
  SNY       25.70   1.000   P
  DL2       35.20   1.000   P
  CN2       66.10   1.000   P
  MDJ      119.10   1.000   P
 SONM      197.50   1.000   P
  LZH      219.10   1.000   P
 ARCE      572.70   1.000   P
 FINE      596.00   1.000   P
  NOA      638.20   1.000   P
 BRTR      644.70   1.000   P
# 2006 10 09 01 35 27.6  041.31    129.06      0.0  4.3   0.0   0.0   0.827         4
  MDJ       54.00   1.000   P
 KS15       62.60   1.000   P
 INCN       66.20   1.000   P
  JNU      122.50   1.000   P
 MAJO      124.70   1.000   P
  MAT      125.30   1.000   P
 MJAR      125.80   1.000   P
  HIA      150.00   1.000   P
 ASAJ      150.40   1.000   P
 SONM      245.20   1.000   P
  YAK      284.40   1.000   P
  KMI      349.80   1.000   P
 BILL      397.50   1.000   P
 MKAR      402.70   1.000   P
 CHTO      397.90   1.000   P
  BOK      455.60   1.000   P
  AAK      456.70   1.000   P
 CHKZ      458.90   1.000   P
 ZRNK      468.20   1.000   P
  VIS      501.30   1.000   P
 BHPL      508.90   1.000   P
  AJM      511.30   1.000   P
 COLA      541.90   1.000   P
 MDRS      542.50   1.000   P
  POO      550.90   1.000   P
  KAD      554.80   1.000   P
  INK      572.40   1.000   P
  TRD      582.40   1.000   P
  JOF      588.90   1.000   P
 FITZ      602.40   1.000   P
  KAF      606.90   1.000   P
 FIA1      610.20   1.000   P
 FINE      609.90   1.000   P
 WRAB      615.20   1.000   P
  WRA      615.40   1.000   P
  WB2      615.50   1.000   P
  YKA      639.50   1.000   P
 AS31      640.90   1.000   P
 ASAR      640.10   1.000   P
 AKAS      639.90   1.000   P
  HFS      646.70   1.000   P
  NB2      648.80   1.000   P
  NOA      648.70   1.000   P
 BURA      666.10   1.000   P
 KOLS      670.70   1.000   P
 STHS      671.70   1.000   P
  OJC      672.90   1.000   P
  NIE      675.30   1.000   P
 MORC      681.50   1.000   P
  DPC      683.40   1.000   P
 VYHS      695.90   1.000   P
 VRAC      684.50   1.000   P
  CLL      687.00   1.000   P
  PRU      689.00   1.000   P
  KHC      695.60   1.000   P
 GERE      695.60   1.000   P
 STKA      697.10   1.000   P
 DAVO      715.10   1.000   P
 NVAR      730.20   1.000   P
  MNV      730.80   1.000   P
 BW06      736.90   1.000   P
 PDAR      736.80   1.000   P
 LPAZ     1195.30   1.000   P
  SIV     1211.20   1.000   P
# 2007 03 22 12 28 20.8  045.48    131.46     10.0  3.6   0.0   0.0   1.496         5
  MDJ       22.50   1.000   P
  VLA       36.40   1.000   P
  TEY       57.40   1.000   P
  KLR       58.90   1.000   P
  CN2       80.00   1.000   P
 GRNR      117.00   1.000   P
 EKMR      113.80   1.000   P
 YASR      117.30   1.000   P
 KSRS      125.10   1.000   P
  ZEA      125.90   1.000   P
 BMKR      136.20   1.000   P
 KROS      135.70   1.000   P
 CLNS      173.40   1.000   P
  BOD      230.70   1.000   P
 SONM      243.10   1.000   P
 TIXI      336.50   1.000   P
 BILL      362.00   1.000   P
 MKAR      402.70   1.000   P
 FINE      588.60   1.000   P
 AKAS      626.70   1.000   P
  WRA      639.00   1.000   P
 ASAR      665.20   1.000   P
 TXAR      786.50   1.000   P
# 2008 11 02 18 55 58.9  040.60    123.09     10.0  4.3   0.0   0.0   1.150         6
  SNY       24.30   1.000   P
  DL2       36.80   1.000   P
  CN2       56.00   1.000   P
 INCN       76.20   1.000   P
 KSRS       75.50   1.000   P
  BJI       81.70   1.000   P
  MDJ      114.90   1.000   P
  TIA      102.00   1.000   P
  VLA      106.10   1.000   P
  HHC      125.10   1.000   P
  NJ2      124.90   1.000   P
 MJAR      182.60   1.000   P
  ULN      193.40   1.000   P
 SONM      198.10   1.000   P
  ZAK      234.60   1.000   P
  GTA      250.80   1.000   P
  KMI      307.40   1.000   P
 ZAA0      357.40   1.000   P
 ZALV      356.80   1.000   P
 MKAR      367.00   1.000   P
 KURK      388.80   1.000   P
 ODAN      391.40   1.000   P
  GUN      395.20   1.000   P
  KKN      400.00   1.000   P
  PKI      400.30   1.000   P
 PKIN      399.90   1.000   P
  DMN      402.30   1.000   P
  GKN      402.90   1.000   P
 DANN      407.30   1.000   P
 KOLN      410.30   1.000   P
 TKM2      414.90   1.000   P
  AAK      420.90   1.000   P
  AML      428.20   1.000   P
 BVAR      432.20   1.000   P
 BRVK      431.70   1.000   P
 KKAR      444.10   1.000   P
  SVE      476.90   1.000   P
  ARU      486.00   1.000   P
 ABKA      490.00   1.000   P
 AKTK      497.10   1.000   P
 AKTO      497.10   1.000   P
 ILAR      565.70   1.000   P
 ARCE      572.00   1.000   P
  KIV      588.30   1.000   P
 FINE      594.80   1.000   P
 AKAS      619.90   1.000   P
  HFS      634.70   1.000   P
  NOA      637.90   1.000   P
 ASAR      638.10   1.000   P
 BRTR      641.50   1.000   P
  MLR      651.20   1.000   P
 KOLS      651.80   1.000   P
 CRVS      656.20   1.000   P
  YKA      655.60   1.000   P
  OJC      655.70   1.000   P
 VYHS      665.70   1.000   P
 GERE      681.30   1.000   P
 STKA      696.90   1.000   P
 NVAR      749.90   1.000   P
# 2008 11 08 16 46 02.4  040.57    123.05     10.0  3.9   0.0   0.0   1.069         7
  SNY       24.70   1.000   P
  DL2       37.40   1.000   P
  CN2       66.50   1.000   P
 INCN       79.00   1.000   P
 KSRS       74.70   1.000   P
  BJI       99.30   1.000   P
  BJT       77.90   1.000   P
  MDJ      107.00   1.000   P
  HHC      126.80   1.000   P
 SONM      197.80   1.000   P
  ZAK      238.10   1.000   P
  LSA      347.60   1.000   P
 KURK      388.70   1.000   P
 BVAR      432.70   1.000   P
 ABKA      490.40   1.000   P
 ILAR      566.40   1.000   P
 ARCE      571.80   1.000   P
  INK      590.50   1.000   P
 FINE      595.10   1.000   P
  NOA      638.30   1.000   P
 BRTR      641.70   1.000   P
# 2008 11 13 22 53 25.7  040.60    123.05     10.0  4.4   0.0   0.0   0.965         8
  SNY       24.60   1.000   P
  DL2       35.80   1.000   P
  CN2       68.60   1.000   P
 INCN       78.10   1.000   P
 KSRS       75.30   1.000   P
  BJT       78.20   1.000   P
  MDJ       93.80   1.000   P
  KLR      157.10   1.000   P
  WHN      179.30   1.000   P
 MAJO      186.50   1.000   P
 MJAR      178.90   1.000   P
  ULN      191.40   1.000   P
 SONM      196.10   1.000   P
  JHJ      216.40   1.000   P
  YSS      225.20   1.000   P
  LZH      224.90   1.000   P
  ZAK      237.30   1.000   P
  IRK      246.70   1.000   P
  TLY      246.90   1.000   P
  GTA      250.90   1.000   P
  YAK      291.70   1.000   P
 ZALV      357.90   1.000   P
 MK31      365.90   1.000   P
 MKAR      367.80   1.000   P
 KURK      386.80   1.000   P
 TKM2      413.10   1.000   P
 BILL      421.60   1.000   P
 BRVK      432.50   1.000   P
 KK31      444.40   1.000   P
  SVE      476.80   1.000   P
  PSI      483.60   1.000   P
  ARU      485.90   1.000   P
 AB31      489.90   1.000   P
 ABKA      489.90   1.000   P
 SOKR      490.60   1.000   P
 AKTK      496.80   1.000   P
 AKTO      496.80   1.000   P
 KLMR      549.10   1.000   P
 COLA      563.60   1.000   P
 ILAR      565.90   1.000   P
  KEV      566.80   1.000   P
 ARCE      570.70   1.000   P
  JOF      573.70   1.000   P
  DOT      577.00   1.000   P
  OBN      578.00   1.000   P
  VSR      580.00   1.000   P
  ZEI      584.40   1.000   P
  KIV      587.80   1.000   P
  INK      590.60   1.000   P
  KAF      591.50   1.000   P
 FINE      595.30   1.000   P
  WRA      613.00   1.000   P
 AKAS      620.30   1.000   P
  NOA      637.00   1.000   P
 ASAR      638.00   1.000   P
 BR13      641.20   1.000   P
 BRTR      641.60   1.000   P
 TLCR      641.60   1.000   P
 TESR      643.90   1.000   P
 BUR0      646.30   1.000   P
 BURA      646.30   1.000   P
  VRI      647.60   1.000   P
 PLOR      647.80   1.000   P
  KWP      648.10   1.000   P
  MLR      651.60   1.000   P
 TRPA      654.40   1.000   P
 VOIR      655.00   1.000   P
  YKA      655.80   1.000   P
  OJC      655.60   1.000   P
  NIE      657.70   1.000   P
 DRGR      657.70   1.000   P
 MORC      664.80   1.000   P
 VYHS      665.80   1.000   P
  DPC      666.80   1.000   P
  BZS      666.50   1.000   P
  VTS      672.00   1.000   P
  CLL      672.30   1.000   P
 PKSM      674.50   1.000   P
  KHC      680.10   1.000   P
 GERE      679.90   1.000   P
 STKA      696.90   1.000   P
 ESDC      763.70   1.000   P
# 2008 12 10 23 51 57.6  042.16    122.95      7.0  3.8   0.0   0.0   0.769         9
  SNY       11.10   1.000   P
  CN2       40.80   1.000   P
  DL2       53.50   1.000   P
 KSRS       89.70   1.000   P
 SONM      184.40   1.000   P
 ILAR   -85843.80   1.000   P
  INK   -85819.40   1.000   P
 FINE   -85813.30   1.000   P
  WRA   -85776.00   1.000   P
  NB2   -85771.20   1.000   P
  NOA   -85771.40   1.000   P
 BRTR   -85764.40   1.000   P
  YKA   -85754.20   1.000   P
 GERE   -85726.70   1.000   P
 STKA   -85692.80   1.000   P
  ULM   -85661.30   1.000   P
# 2009 01 01 05 46 26.2  040.62    123.07     13.0  4.1   0.0   0.0   1.060        10
  SNY       24.10   1.000   P
  DL2       36.60   1.000   P
  CN2       69.00   1.000   P
 INCN       62.20   1.000   P
 KSAR       75.50   1.000   P
 KSRS       75.50   1.000   P
  MDJ      115.40   1.000   P
 USRK      111.00   1.000   P
  HHC      125.00   1.000   P
 MJAR      182.70   1.000   P
 SONM      197.50   1.000   P
 ZALV      357.10   1.000   P
 MKAR      367.50   1.000   P
 KURK      388.50   1.000   P
 BVAR      432.00   1.000   P
 ABKA      489.90   1.000   P
 ILAR      565.70   1.000   P
 ARCE      570.20   1.000   P
  JOF      574.60   1.000   P
 MENT      575.90   1.000   P
 FINE      594.90   1.000   P
  WRA      614.60   1.000   P
 AKAS      619.10   1.000   P
  NOA      636.80   1.000   P
 ASAR      639.00   1.000   P
 BRTR      641.10   1.000   P
  YKA      654.80   1.000   P
 STKA      696.40   1.000   P
# 2009 01 14 02 35 13.5  040.76    122.79     13.0  0.0   0.0   0.0   2.148        11
  SNY       22.50   1.000   P
  DL2       34.80   1.000   P
  CN2       67.40   1.000   P
  BJI       91.80   1.000   P
 KSRS       76.30   1.000   P
  MDJ      114.90   1.000   P
 USRK      110.10   1.000   P
 SONM      194.20   1.000   P
 ILAR      563.50   1.000   P
 FINE      593.00   1.000   P
# 2009 02 24 18 05 42.6  041.84    123.74     10.0  3.6   0.0   0.0   1.440        12
  SNY        3.00   1.000   P
  CN2       38.50   1.000   P
 KSRS       79.30   1.000   P
 USRK       90.90   1.000   P
 SONM      193.20   1.000   P
 CMAR      380.60   1.000   P
 ILAR      552.90   1.000   P
 FINE      589.60   1.000   P
 NVAR      741.60   1.000   P
# 2009 03 20 06 48 58.7  043.32    125.14     10.0  3.9   0.0   0.0   2.174        13
  CN2        8.60   1.000   P
  SNY       29.40   1.000   P
  MDJ       63.40   1.000   P
 USRK       73.70   1.000   P
  DL2       90.90   1.000   P
 INCN      109.00   1.000   P
 KSRS       92.40   1.000   P
 KSAR       92.40   1.000   P
  HIA       97.80   1.000   P
  BJT      132.90   1.000   P
  HHC      142.80   1.000   P
  NJ2      170.10   1.000   P
  LZH      247.40   1.000   P
  GTA      265.80   1.000   P
  QIZ      339.40   1.000   P
 MK31      370.20   1.000   P
 MKAR      369.70   1.000   P
 KURK      386.50   1.000   P
 KURB      385.60   1.000   P
 ABKA      488.90   1.000   P
 ILAR      539.20   1.000   P
  INK      564.70   1.000   P
 FINE      584.60   1.000   P
  WRA      629.70   1.000   P
  YKA      631.90   1.000   P
 STKA      707.40   1.000   P
 NVAR      728.80   1.000   P
# 2009 04 16 09 08 13.5  042.04    121.62      0.0  3.2   0.0   0.0   0.780        14
 KSRS       99.90   1.000   P
 MKAR      355.10   1.000   P
 ILAR      562.30   1.000   P
  YKA      650.30   1.000   P
