# 2013 07 05 19 41 48.9  002.57    098.73     10.0  3.9   0.0   0.0   1.385        36
  PSI        4.80   1.000   P
 TRSI       11.10   1.000   P
  TSI       17.70   1.000   P
 TRSI       18.30   1.000   S
 KCSI       23.20   1.000   P
 SBSI       25.20   1.000   P
 TPTI       28.40   1.000   P
  GSI       29.30   1.000   P
 MNSI       33.70   1.000   P
 SNSI       39.00   1.000   P
 SBSI       44.10   1.000   S
 KCSI       44.40   1.000   S
 MLSI       49.00   1.000   P
 TPTI       51.00   1.000   S
 SISI       60.90   1.000   P
 MNSI       60.90   1.000   S
 SNSI       68.70   1.000   S
# 2013 07 05 22 44 33.2  004.63    096.76     10.0  2.7   0.0   0.0   0.360        37
 MLSI       10.20   1.000   P
 LHMI       13.00   1.000   P
 LHMI       21.10   1.000   S
 KCSI       26.20   1.000   P
 KCSI       46.40   1.000   S
# 2013 07 06 01 55 23.5  002.72    098.78     10.0  2.3   0.0   0.0   0.918        38
  PSI        5.00   1.000   P
  PSI        6.60   1.000   S
 KCSI       23.40   1.000   P
  GSI       30.30   1.000   P
 MNSI       36.20   1.000   P
# 2013 07 06 05 05 07.2  -03.38    100.41     31.0  6.1   0.0   0.0   1.636        39
 PPSI       13.70   1.000   P
 MKBI       21.50   1.000   P
 KRJI       27.70   1.000   P
 UBSI       31.30   1.000   P
 SISI       37.30   1.000   P
 PDSI       37.80   1.000   P
 EGSI       40.70   1.000   P
 SDSI       40.90   1.000   P
 MNAI       42.60   1.000   P
  PPI       43.20   1.000   P
 LHSI       48.90   1.000   P
 RGRI       54.60   1.000   P
 BKNI       55.80   1.000   P
 MDSI       59.20   1.000   P
 LWLI       60.90   1.000   P
 MNSI       61.90   1.000   P
 PMBI       64.40   1.000   P
  KLI       69.90   1.000   P
 SBSI       70.20   1.000   P
 DSRI       74.60   1.000   P
  GSI       77.60   1.000   P
 BTDF       84.40   1.000   P
 PPBI       85.90   1.000   P
 TPRI       87.00   1.000   P
 CGJI       87.80   1.000   P
  PSI       88.60   1.000   P
 SBJI       93.10   1.000   P
 TNGI       98.80   1.000   P
 SNSI      100.30   1.000   P
  TSI      102.20   1.000   P
  TPI      103.90   1.000   P
 KCSI      103.90   1.000   P
 CBJI      105.80   1.000   P
  LEM      114.60   1.000   P
 CISI      118.70   1.000   P
 XMIS      118.80   1.000   P
 MLSI      121.60   1.000   P
 LHMI      132.30   1.000   P
 CTJI      135.60   1.000   P
 YOGI      152.20   1.000   P
  UGM      155.10   1.000   P
 WOJI      158.90   1.000   P
 NGJI      166.50   1.000   P
  KRK      182.30   1.000   P
 JAGI      202.20   1.000   P
 MTKI      207.00   1.000   P
 SRBI      214.50   1.000   P
 KLNI      228.30   1.000   P
  PBA      232.40   1.000   P
  BKB      232.70   1.000   P
  DLV      236.90   1.000   P
 PLAI      244.60   1.000   P
 SGKI      244.60   1.000   P
 MMSI      254.20   1.000   P
TARAI      254.50   1.000   P
 SPSI      262.60   1.000   P
 KAPI      263.10   1.000   P
 TTSI      264.80   1.000   P
 WBSI      265.20   1.000   P
 BKSI      267.70   1.000   P
 LBFI      269.40   1.000   P
 BSSI      271.70   1.000   P
 APSI      285.30   1.000   P
 EDFI      288.90   1.000   P
 CHTO      291.10   1.000   P
 MMRI      294.00   1.000   P
 SMSI      295.40   1.000   P
 LUWI      296.30   1.000   P
 BBSI      297.20   1.000   P
 GIRL      310.00   1.000   P
 BATI      310.80   1.000   P
 SOEI      313.70   1.000   P
  SLV      319.10   1.000   P
 TMSI      320.10   1.000   P
  MNI      320.10   1.000   P
  SIM      320.40   1.000   P
 SANI      325.70   1.000   P
 MBWA      328.20   1.000   P
 SGSI      331.30   1.000   P
 TNTI      338.40   1.000   P
 LBMI      340.40   1.000   P
 OBMI      341.60   1.000   P
 GLMI      345.10   1.000   P
 KRAI      347.30   1.000   P
 MEEK      357.60   1.000   P
 MORW      361.00   1.000   P
  SHL      365.20   1.000   P
 KNRA      368.50   1.000   P
  SWI      373.20   1.000   P
 SIJI      373.40   1.000   P
  MTN      379.10   1.000   P
 FAKI      382.20   1.000   P
 KMNB      392.40   1.000   P
 TWGB      393.80   1.000   P
 NWAO      393.80   1.000   P
 KMBL      404.70   1.000   P
 BAKI      418.10   1.000   P
 WRAB      425.90   1.000   P
  JMJ      426.60   1.000   P
 GENI      449.30   1.000   P
  JAY      451.90   1.000   P
  JOW      453.10   1.000   P
  QIS      466.40   1.000   P
 COEN      479.20   1.000   P
  PMG      506.40   1.000   P
 MANU      507.90   1.000   P
 CTAO      513.10   1.000   P
  KBL      515.00   1.000   P
 STKA      516.00   1.000   P
 PDGK      532.70   1.000   P
 UOSS      541.30   1.000   P
  AAK      541.70   1.000   P
  ULN      542.30   1.000   P
 MKAR      549.50   1.000   P
 ABPO      561.50   1.000   P
 ARMA      571.20   1.000   P
 PATS      594.10   1.000   P
 CASY      626.70   1.000   P
 KMBO      628.40   1.000   P
  MAW      665.00   1.000   P
 TARA      688.40   1.000   P
 LBTB      700.40   1.000   P
 BOSA      704.10   1.000   P
 VNDA      731.70   1.000   P
 QSPA      762.30   1.000   P
# 2013 07 06 09 22 53.7  004.73    096.57     10.0  3.3   0.0   0.0   0.335        40
 MLSI       10.30   1.000   P
 LHMI       12.30   1.000   P
 MLSI       16.90   1.000   S
 LHMI       21.50   1.000   S
 LASI       25.90   1.000   P
  BSI       26.50   1.000   P
 TPTI       28.00   1.000   P
 KCSI       29.70   1.000   P
 SNSI       38.50   1.000   P
 TPTI       48.70   1.000   S
  PSI       49.10   1.000   P
 KCSI       51.50   1.000   S
# 2013 07 06 10 06 54.1  002.46    095.94     25.0  3.8   0.0   0.0   0.571        41
 SNSI        9.50   1.000   P
 SNSI       17.40   1.000   S
 TPTI       23.40   1.000   P
 MLSI       29.80   1.000   P
  GSI       32.90   1.000   P
 KCSI       33.80   1.000   P
  TSI       43.60   1.000   P
 TPTI       43.70   1.000   S
  PSI       46.10   1.000   P
 PBSI       51.90   1.000   P
 MLSI       54.60   1.000   S
  GSI       57.20   1.000   S
 MNSI       60.00   1.000   P
 SISI       72.20   1.000   P
# 2013 07 07 04 33 27.8  -06.11    103.74     10.0  4.9   0.0   0.0   1.154        42
 KASI       18.40   1.000   P
 LWLI       21.90   1.000   P
 EGSI       28.40   1.000   P
 KASI       28.90   1.000   S
 BLSI       29.40   1.000   P
 MDSI       29.70   1.000   P
  KLI       30.10   1.000   P
 CGJI       32.80   1.000   P
 MNAI       33.00   1.000   P
 LHSI       39.00   1.000   P
 SBJI       39.20   1.000   P
 EGSI       50.10   1.000   S
 MDSI       50.90   1.000   S
 CBJI       51.40   1.000   P
 PMBI       53.10   1.000   P
  LEM       61.50   1.000   P
 CISI       64.30   1.000   P
 MKBI       65.10   1.000   P
 PPBI       70.70   1.000   P
 KRJI       72.00   1.000   P
 PPSI       73.70   1.000   P
  TPI       77.50   1.000   P
 PDSI       88.70   1.000   P
 SISI       96.70   1.000   P
 BTDF      109.80   1.000   P
 SRBI      165.00   1.000   P
 BKSI      229.10   1.000   P
# 2013 07 07 14 01 01.6  004.84    096.10     10.0  3.1   0.0   0.0   0.517        43
 MLSI       12.00   1.000   P
 LHMI       17.70   1.000   P
 MLSI       22.30   1.000   S
 TPTI       33.20   1.000   P
 KCSI       35.70   1.000   P
 TPTI       57.50   1.000   S
# 2013 07 07 16 23 24.9  -04.37    102.12     11.0  3.0   0.0   0.0   0.375        44
 UBSI       12.70   1.000   P
 MNAI       16.20   1.000   P
 EGSI       18.80   1.000   P
 LHSI       26.60   1.000   P
 SLSI       33.30   1.000   P
 MDSI       34.80   1.000   P
 MKBI       35.70   1.000   P
# 2013 07 07 19 17 24.9  000.79    097.36     31.0  4.6   0.0   0.0   0.516        45
  GSI       11.80   1.000   P
  GSI       21.30   1.000   S
 TRSI       32.10   1.000   P
 SBSI       33.70   1.000   P
 MNSI       34.60   1.000   P
 TPTI       37.70   1.000   P
  PSI       38.50   1.000   P
 KCSI       41.20   1.000   P
 SISI       41.90   1.000   P
 PDSI       52.10   1.000   P
 BKNI       56.10   1.000   P
 MNSI       60.90   1.000   S
 LHSI      110.40   1.000   P
 EGSI      111.90   1.000   P
 MDSI      121.70   1.000   P
# 2013 07 08 06 16 48.3  -06.25    106.38     10.0  3.3   0.0   0.0   0.332        46
 SBJI        6.10   1.000   P
  TNG        6.20   1.000   P
 TNGI        6.30   1.000   P
 CBJI       13.20   1.000   P
 CGJI       14.60   1.000   P
  LEM       24.80   1.000   P
 CGJI       25.90   1.000   S
 CISI       32.10   1.000   P
 MDSI       45.00   1.000   P
 CISI       57.90   1.000   S
# 2013 07 09 01 05 38.2  002.15    096.21     15.0  5.2   0.0   0.0   0.700        47
 SNSI        7.20   1.000   P
 SNSI       11.90   1.000   S
  GSI       27.40   1.000   P
 KCSI       33.60   1.000   P
 MLSI       33.80   1.000   P
  TSI       43.60   1.000   P
  PSI       43.90   1.000   P
 TRSI       44.70   1.000   P
  GSI       46.50   1.000   S
 PBSI       47.40   1.000   P
 LHMI       49.50   1.000   P
 SBSI       51.50   1.000   P
 KCSI       61.10   1.000   S
 MLSI       61.30   1.000   S
 SISI       68.10   1.000   P
 BKNI       76.60   1.000   P
 PDSI       78.70   1.000   P
  KUM       79.80   1.000   P
 KRJI       97.80   1.000   P
 MKBI       99.90   1.000   P
  KOM      110.40   1.000   P
 MNAI      133.90   1.000   P
 LHSI      135.00   1.000   P
 EGSI      136.20   1.000   P
 MDSI      146.70   1.000   P
 KASI      158.20   1.000   P
# 2013 07 09 17 04 17.2  -03.39    100.38     22.0  5.4   0.0   0.0   1.418        48
 PPSI       12.60   1.000   P
 MKBI       21.70   1.000   P
 KRJI       27.30   1.000   P
 UBSI       31.50   1.000   P
 SISI       35.80   1.000   P
 PDSI       36.60   1.000   P
 SDSI       40.90   1.000   P
 EGSI       41.70   1.000   P
 MNAI       42.70   1.000   P
 LHSI       49.30   1.000   P
 RGRI       54.50   1.000   P
 JMBI       55.70   1.000   P
 BKNI       55.80   1.000   P
 MDSI       59.60   1.000   P
 LWLI       60.50   1.000   P
 PMBI       65.30   1.000   P
 KASI       69.10   1.000   P
 SBSI       69.20   1.000   P
  KLI       70.10   1.000   P
 DSRI       75.10   1.000   P
  GSI       76.50   1.000   P
 BLSI       76.50   1.000   P
 TRSI       81.50   1.000   P
 BTDF       84.60   1.000   P
 PPBI       86.80   1.000   P
 TPRI       87.00   1.000   P
 CGJI       88.50   1.000   P
  KOM       89.90   1.000   P
  PSI       91.20   1.000   P
 SBJI       92.90   1.000   P
 SNSI      102.00   1.000   P
  TSI      102.90   1.000   P
 TPTI      106.10   1.000   P
 KCSI      106.30   1.000   P
  TPI      106.50   1.000   P
  IPM      113.50   1.000   P
 CISI      119.40   1.000   P
  KUM      121.30   1.000   P
 MLSI      122.00   1.000   P
 JCJI      122.50   1.000   P
 CTJI      135.10   1.000   P
  KSM      156.70   1.000   P
 WOJI      159.00   1.000   P
 NGJI      166.10   1.000   P
 SWJI      171.00   1.000   P
 PWJI      171.60   1.000   P
 GRJI      177.80   1.000   P
  SBM      186.20   1.000   P
 KMMI      197.00   1.000   P
 JAGI      200.60   1.000   P
 MTKI      206.30   1.000   P
 SRBI      216.80   1.000   P
  BKB      232.50   1.000   P
  PBA      234.70   1.000   P
  DLV      238.00   1.000   P
 SGKI      242.00   1.000   P
 PLAI      245.30   1.000   P
  KKM      252.80   1.000   P
 MMSI      255.10   1.000   P
TARAI      255.40   1.000   P
 PMSI      255.60   1.000   P
 SPSI      262.80   1.000   P
 KAPI      264.20   1.000   P
 TTSI      265.10   1.000   P
 BNSI      268.10   1.000   P
 BKSI      268.20   1.000   P
 WBSI      270.20   1.000   P
 LBFI      271.90   1.000   P
  WSI      277.70   1.000   P
TOLI2      280.30   1.000   P
 APSI      287.40   1.000   P
 EDFI      288.70   1.000   P
 HALK      290.90   1.000   P
 CHTO      291.10   1.000   P
 MMRI      292.10   1.000   P
 SMSI      296.90   1.000   P
 LUWI      298.00   1.000   P
 LRTI      299.70   1.000   P
 MALK      303.50   1.000   P
 BATI      310.80   1.000   P
 SOEI      314.20   1.000   P
  SLV      318.40   1.000   P
  SIM      318.80   1.000   P
 TMSI      320.30   1.000   P
  MNI      320.90   1.000   P
 SANI      324.90   1.000   P
 MBWA      329.10   1.000   P
 SGSI      330.70   1.000   P
 NLAI      338.10   1.000   P
 TNTI      339.90   1.000   P
 LBMI      340.80   1.000   P
 GLMI      344.80   1.000   P
 MEEK      357.80   1.000   P
  SHL      365.40   1.000   P
 KNRA      369.60   1.000   P
 SIJI      372.80   1.000   P
  SWI      375.40   1.000   P
  MTN      380.00   1.000   P
 KMNB      392.20   1.000   P
 TWGB      393.60   1.000   P
 KMBL      405.40   1.000   P
  YOJ      415.40   1.000   P
 WRAB      427.20   1.000   P
  JMJ      428.50   1.000   P
 GENI      448.00   1.000   P
  JAY      451.80   1.000   P
  JOW      456.20   1.000   P
  QIS      467.80   1.000   P
  CTA      515.20   1.000   P
 CTAO      515.20   1.000   P
 STKA      517.10   1.000   P
  KBL      517.20   1.000   P
 PDGK      533.80   1.000   P
  ULN      542.60   1.000   P
  AAK      543.70   1.000   P
 MKAR      550.20   1.000   P
  VOI      570.80   1.000   P
 ARMA      572.40   1.000   P
 CASY      626.10   1.000   P
 KMBO      626.40   1.000   P
  MAW      664.70   1.000   P
 MSNA      673.80   1.000   P
 LBTB      698.90   1.000   P
 BOSA      702.50   1.000   P
  SUR      724.70   1.000   P
 VNDA      731.20   1.000   P
 SNAA      781.70   1.000   P
# 2013 07 09 17 14 21.6  -03.40    100.24     24.0  5.0   0.0   0.0   0.899        49
 PPSI       13.70   1.000   P
 MKBI       22.90   1.000   P
 KRJI       29.40   1.000   P
 UBSI       32.90   1.000   P
 SISI       37.30   1.000   P
 PDSI       37.60   1.000   P
 SDSI       42.30   1.000   P
 EGSI       42.90   1.000   P
 MNAI       44.50   1.000   P
 LHSI       50.90   1.000   P
 RGRI       55.30   1.000   P
 BKNI       57.30   1.000   P
 JMBI       57.60   1.000   P
 MDSI       61.70   1.000   P
 LWLI       63.10   1.000   P
 PMBI       65.60   1.000   P
 KASI       69.70   1.000   P
  KLI       70.90   1.000   P
 SBSI       73.00   1.000   P
 DSRI       76.70   1.000   P
  GSI       78.50   1.000   P
 BLSI       79.90   1.000   P
 BTDF       85.80   1.000   P
  PSI       88.40   1.000   P
 TPRI       88.70   1.000   P
 CGJI       90.10   1.000   P
 RPSI       90.90   1.000   P
  KOM       91.20   1.000   P
 KCSI      104.80   1.000   P
 TPTI      105.90   1.000   P
  TPI      106.20   1.000   P
  IPM      113.80   1.000   P
  LEM      117.20   1.000   P
 CISI      121.60   1.000   P
 MLSI      121.80   1.000   P
  KUM      123.40   1.000   P
 COCO      133.40   1.000   P
 CTJI      136.50   1.000   P
 PLAI      249.30   1.000   P
  KKM      254.70   1.000   P
 MMSI      256.90   1.000   P
 SPSI      264.80   1.000   P
 KAPI      265.50   1.000   P
 TTSI      268.30   1.000   P
 BNSI      269.20   1.000   P
 BKSI      270.10   1.000   P
 LBFI      272.60   1.000   P
TOLI2      281.00   1.000   P
 APSI      288.00   1.000   P
 CHTO      292.00   1.000   P
 SMSI      298.00   1.000   P
  SLV      320.50   1.000   P
  MNI      322.70   1.000   P
 TMSI      323.70   1.000   P
 SANI      327.10   1.000   P
 LBMI      343.40   1.000   P
  SHL      367.40   1.000   P
 SIJI      374.60   1.000   P
# 2013 07 09 17 23 00.6  -03.39    100.21     37.0  4.7   0.0   0.0   0.696        50
 PPSI       13.20   1.000   P
 MKBI       22.50   1.000   P
 KRJI       28.80   1.000   P
 UBSI       32.00   1.000   P
 SISI       36.70   1.000   P
 PDSI       37.60   1.000   P
 MKBI       40.80   1.000   S
 SDSI       41.70   1.000   P
 EGSI       42.50   1.000   P
 MNAI       43.90   1.000   P
 LHSI       50.70   1.000   P
 RGRI       55.20   1.000   P
 BKNI       56.30   1.000   P
 JMBI       56.60   1.000   P
 MDSI       61.20   1.000   P
 SISI       64.10   1.000   S
 PDSI       67.40   1.000   S
 KASI       68.80   1.000   P
 SBSI       70.30   1.000   P
 DSRI       75.70   1.000   P
  GSI       77.20   1.000   P
 BLSI       80.20   1.000   P
 BTDF       85.50   1.000   P
 PPBI       86.90   1.000   P
 TPRI       87.60   1.000   P
  PSI       89.10   1.000   P
 CGJI       89.70   1.000   P
  KOM       90.40   1.000   P
 KCSI      104.00   1.000   P
  IPM      111.50   1.000   P
 CISI      120.40   1.000   P
  KUM      122.10   1.000   P
 COCO      132.30   1.000   P
 CTJI      135.80   1.000   P
# 2013 07 09 17 33 07.3  -03.33    100.25     33.0  4.1   0.0   0.0   0.441        51
 PPSI       12.90   1.000   P
 MKBI       21.90   1.000   P
 KRJI       28.10   1.000   P
 UBSI       32.60   1.000   P
 SISI       36.30   1.000   P
 PDSI       37.50   1.000   P
 SDSI       41.20   1.000   P
 EGSI       42.50   1.000   P
 MNAI       44.10   1.000   P
 LHSI       50.30   1.000   P
 RGRI       53.40   1.000   P
 BKNI       55.10   1.000   P
 MDSI       61.00   1.000   P
 LWLI       61.70   1.000   P
# 2013 07 09 21 05 56.8  002.10    096.28     21.0  3.2   0.0   0.0   0.366        52
 SNSI        7.90   1.000   P
 SNSI       13.70   1.000   S
  GSI       25.80   1.000   P
 KCSI       33.50   1.000   P
 MLSI       34.40   1.000   P
  PSI       42.80   1.000   P
  GSI       44.50   1.000   S
# 2013 07 10 04 26 41.2  -03.68    100.23     54.0  3.6   0.0   0.0   0.433        53
 PPSI       17.10   1.000   P
 MKBI       26.10   1.000   P
 PPSI       30.10   1.000   S
 KRJI       32.40   1.000   P
 SISI       40.00   1.000   P
 EGSI       40.10   1.000   P
 PDSI       41.60   1.000   P
 MNAI       41.90   1.000   P
 SDSI       45.30   1.000   P
 MKBI       46.50   1.000   S
 LHSI       48.40   1.000   P
 KRJI       56.50   1.000   S
 EGSI       72.30   1.000   S
 PDSI       74.90   1.000   S
 MNAI       76.50   1.000   S
 SDSI       80.50   1.000   S
# 2013 07 10 15 57 21.5  -01.99    099.25     27.0  4.1   0.0   0.0   0.464        54
 SISI       14.80   1.000   P
 PPSI       19.40   1.000   P
 SISI       23.80   1.000   S
 PDSI       25.60   1.000   P
 MKBI       31.90   1.000   P
 PPSI       33.70   1.000   S
 KRJI       35.30   1.000   P
 SDSI       38.00   1.000   P
 MNSI       42.70   1.000   P
 BKNI       44.70   1.000   P
 SBSI       50.60   1.000   P
 UBSI       52.50   1.000   P
  GSI       55.70   1.000   P
 MKBI       57.90   1.000   S
 KRJI       62.40   1.000   S
 MNAI       64.50   1.000   P
 EGSI       66.00   1.000   P
  PSI       68.60   1.000   P
# 2013 07 11 03 43 16.4  001.41    097.88     10.0  2.7   0.0   0.0   0.655        55
  GSI        8.60   1.000   P
  GSI       11.70   1.000   S
 TRSI       22.50   1.000   P
 PBSI       26.60   1.000   P
  PSI       29.30   1.000   P
 TPTI       33.80   1.000   P
 KCSI       34.50   1.000   P
 TRSI       39.00   1.000   S
 PBSI       46.80   1.000   S
# 2013 07 11 07 16 25.7  001.79    099.14     10.0  4.8   0.0   0.0   1.105        56
 TRSI        5.50   1.000   P
 SBSI        8.70   1.000   P
 TRSI       10.30   1.000   S
  PSI       17.10   1.000   P
 MNSI       19.50   1.000   P
  GSI       27.60   1.000   P
  PSI       29.80   1.000   S
  TSI       32.40   1.000   P
 PBSI       33.70   1.000   P
 KCSI       37.40   1.000   P
 BKNI       39.30   1.000   P
 TPTI       39.50   1.000   P
 SNSI       47.30   1.000   P
 PDSI       48.90   1.000   P
 SISI       49.10   1.000   P
  IPM       52.10   1.000   P
 SDSI       54.60   1.000   P
 MLSI       58.30   1.000   P
  KUM       59.00   1.000   P
 LHMI       63.10   1.000   P
 BTDF       68.80   1.000   P
 PPSI       69.60   1.000   P
  KOM       70.10   1.000   P
 MKBI       71.30   1.000   P
 MDSI      117.20   1.000   P
  DLV      194.20   1.000   P
 CHTO      240.10   1.000   P
