# 2013 07 24 21 39 23.5  -03.52    101.54     54.0  5.1   0.0   0.0   1.217        89
 UBSI       14.30   1.000   P
 MKBI       18.70   1.000   P
 KRJI       23.50   1.000   P
 UBSI       24.60   1.000   S
 SLSI       25.10   1.000   P
 MNAI       25.70   1.000   P
 PPSI       28.30   1.000   P
 EGSI       30.50   1.000   P
 MKBI       31.40   1.000   S
 LHSI       31.70   1.000   P
 SDSI       40.10   1.000   P
 KRJI       40.40   1.000   S
 JMBI       42.20   1.000   P
 PDSI       42.40   1.000   P
 MDSI       42.70   1.000   P
 LWLI       44.50   1.000   P
 MNAI       45.60   1.000   S
 PMBI       47.80   1.000   P
 PPSI       48.60   1.000   S
 RGRI       49.50   1.000   P
 SISI       49.60   1.000   P
 KLSI       51.00   1.000   P
 KASI       52.30   1.000   P
  KLI       54.80   1.000   P
 EGSI       55.00   1.000   S
 LHSI       56.10   1.000   S
 BKNI       57.40   1.000   P
 BLSI       62.10   1.000   P
 DSRI       62.80   1.000   P
 MNSI       68.60   1.000   P
 PPBI       69.50   1.000   P
 CGJI       73.90   1.000   P
 SBSI       77.10   1.000   P
 SBJI       77.20   1.000   P
 TPRI       77.50   1.000   P
 BTDF       77.80   1.000   P
  KOM       83.60   1.000   P
  TPI       87.70   1.000   P
  GSI       88.70   1.000   P
 CBJI       91.00   1.000   P
  PSI       96.00   1.000   P
 CISI      104.60   1.000   P
 KCSI      112.30   1.000   P
 SNSI      112.70   1.000   P
 CMJI      114.80   1.000   P
  IPM      114.80   1.000   P
 KPJI      119.00   1.000   P
 CTJI      119.10   1.000   P
  KUM      126.30   1.000   P
 MLSI      131.20   1.000   P
 SMRI      135.90   1.000   P
 LHMI      138.70   1.000   P
  KSM      141.10   1.000   P
 SWJI      155.40   1.000   P
  SBM      173.70   1.000   P
 JAGI      186.60   1.000   P
 SRBI      201.00   1.000   P
 PLAI      233.30   1.000   P
 PMSI      239.90   1.000   P
 MMSI      240.80   1.000   P
  KKM      241.60   1.000   P
 SPSI      247.20   1.000   P
 KAPI      249.80   1.000   P
 TTSI      250.20   1.000   P
 BKSI      252.70   1.000   P
 BNSI      253.00   1.000   P
 WBSI      253.00   1.000   P
 LBFI      257.30   1.000   P
 SMSI      280.00   1.000   P
  KDI      280.60   1.000   P
 LUWI      283.00   1.000   P
 CHTO      290.40   1.000   P
  MNI      308.70   1.000   P
 TMSI      309.30   1.000   P
 LBMI      324.00   1.000   P
 TNTI      327.80   1.000   P
 WRAB      414.90   1.000   P
  QIS      454.70   1.000   P
  NIL      494.30   1.000   P
 CTAO      502.70   1.000   P
 STKA      506.10   1.000   P
  KBL      518.60   1.000   P
 CMSA      529.00   1.000   P
 PDGK      533.80   1.000   P
  ULN      540.20   1.000   P
  AAK      544.60   1.000   P
 MKAR      549.80   1.000   P
  YNG      554.30   1.000   P
# 2013 07 26 14 36 20.8  -00.48    099.12     49.0  4.9   0.0   0.0   0.631        90
 SISI       15.50   1.000   P
  PPI       21.30   1.000   P
 PDSI       23.50   1.000   P
 SISI       28.50   1.000   S
 SBSI       30.00   1.000   P
 BKNI       32.00   1.000   P
 SDSI       36.30   1.000   P
  GSI       37.00   1.000   P
 PPSI       37.20   1.000   P
 TRSI       38.90   1.000   P
 KRJI       42.40   1.000   P
 MKBI       43.50   1.000   P
  PSI       47.70   1.000   P
 RGRI       47.80   1.000   P
 SBSI       52.30   1.000   S
 SLSI       58.40   1.000   P
 SNSI       58.70   1.000   P
  TSI       59.00   1.000   P
 KCSI       60.60   1.000   P
 TPTI       61.30   1.000   P
 UBSI       65.70   1.000   P
 JMBI       67.70   1.000   P
 BTDF       72.10   1.000   P
 LASI       73.40   1.000   P
  KOM       75.70   1.000   P
  IPM       76.30   1.000   P
 MNAI       77.90   1.000   P
 DSRI       78.50   1.000   P
 MLSI       78.90   1.000   P
 LHSI       80.10   1.000   P
 TPRI       80.50   1.000   P
 EGSI       82.40   1.000   P
  KUM       85.60   1.000   P
 PMBI       86.80   1.000   P
 LHMI       88.10   1.000   P
 MDSI       92.30   1.000   P
 LWLI       96.10   1.000   P
 KLSI      100.00   1.000   P
  KLI      102.50   1.000   P
 PPBI      102.80   1.000   P
 KASI      104.10   1.000   P
 BLSI      110.80   1.000   P
  TPI      124.90   1.000   P
 CGJI      126.50   1.000   P
 CBJI      140.60   1.000   P
 PTKI      145.70   1.000   P
  LEM      149.20   1.000   P
 JCJI      156.20   1.000   P
  KSM      159.70   1.000   P
 PKKI      208.70   1.000   P
  KKM      250.80   1.000   P
 HALK      262.60   1.000   P
 MMSI      267.80   1.000   P
 MALK      273.80   1.000   P
 KAPI      281.80   1.000   P
 BNSI      283.40   1.000   P
 BKSI      284.90   1.000   P
TOLI2      287.00   1.000   P
  SLV      292.60   1.000   P
 SMSI      302.50   1.000   P
 BBSI      309.40   1.000   P
 KMBL      430.60   1.000   P
 WRAB      444.30   1.000   P
 FORT      457.20   1.000   P
  NIL      463.60   1.000   P
 PDGK      506.50   1.000   P
  AAK      517.10   1.000   P
 MKAR      523.10   1.000   P
 STKA      534.70   1.000   P
 CMSA      556.60   1.000   P
  YNG      581.80   1.000   P
 ARMA      588.50   1.000   P
 CASY      643.60   1.000   P
  EIL      654.50   1.000   P
# 2013 07 26 17 39 00.6  -06.22    099.31     21.0  4.8   0.0   0.0   0.385        91
 EGSI       47.60   1.000   P
 PPSI       53.50   1.000   P
 UBSI       58.30   1.000   P
 MNAI       61.10   1.000   P
 MKBI       63.10   1.000   P
 KRJI       68.70   1.000   P
 LHSI       71.90   1.000   P
 SISI       72.20   1.000   P
 LWLI       72.40   1.000   P
 SLSI       74.50   1.000   P
 MDSI       76.40   1.000   P
 KASI       77.20   1.000   P
 PDSI       79.00   1.000   P
 KLSI       82.30   1.000   P
 EGSI       83.80   1.000   S
  PPI       84.30   1.000   P
 PPSI       95.80   1.000   S
 BKNI       97.90   1.000   P
 MNSI      100.80   1.000   P
 SBSI      109.20   1.000   P
  GSI      110.90   1.000   P
 DSRI      111.50   1.000   P
# 2013 07 26 21 06 53.1  -06.15    104.10     10.0  3.5   0.0   0.0   0.504        92
 KASI       14.40   1.000   P
 LWLI       21.20   1.000   P
 KASI       24.40   1.000   S
 BLSI       25.40   1.000   P
  KLI       27.20   1.000   P
 MDSI       27.90   1.000   P
 KLSI       28.30   1.000   P
 CGJI       28.80   1.000   P
 LWLI       37.20   1.000   S
 LHSI       38.70   1.000   P
 CBJI       45.80   1.000   P
 KLSI       49.30   1.000   S
 MDSI       50.70   1.000   S
# 2013 07 27 14 39 05.1  -06.30    105.51     12.0  3.6   0.0   0.0   0.242        93
 CGJI        8.10   1.000   P
 CGJI       14.00   1.000   S
 BLSI       18.60   1.000   P
 KASI       23.00   1.000   P
 CBJI       25.70   1.000   P
  KLI       27.70   1.000   P
 KLSI       30.60   1.000   P
 BLSI       32.00   1.000   S
 LWLI       32.60   1.000   P
 MDSI       37.30   1.000   P
 KASI       40.20   1.000   S
 CISI       42.40   1.000   P
 KLSI       53.20   1.000   S
# 2013 07 27 15 18 24.6  -06.33    105.45     10.0  4.0   0.0   0.0   0.390        94
 CGJI        8.20   1.000   P
 CGJI       13.70   1.000   S
 BLSI       18.10   1.000   P
 TNGI       22.60   1.000   P
 KASI       22.80   1.000   P
 CBJI       27.30   1.000   P
  KLI       28.50   1.000   P
 KLSI       31.40   1.000   P
 BLSI       32.20   1.000   S
 LWLI       32.60   1.000   P
  LEM       36.50   1.000   P
 MDSI       36.80   1.000   P
 KASI       40.10   1.000   S
 CISI       42.30   1.000   P
# 2013 07 27 18 46 33.4  -06.30    105.48     10.0  3.8   0.0   0.0   0.736        95
 CGJI        7.60   1.000   P
 CGJI       13.10   1.000   S
 BLSI       17.80   1.000   P
 TNGI       21.70   1.000   P
 KASI       22.40   1.000   P
 CBJI       26.80   1.000   P
  KLI       28.20   1.000   P
 BLSI       30.80   1.000   S
 KLSI       30.90   1.000   P
 LWLI       33.20   1.000   P
 MDSI       36.60   1.000   P
  LEM       36.90   1.000   P
 TNGI       38.40   1.000   S
 CISI       42.50   1.000   P
 LHSI       49.00   1.000   P
 CMJI       52.30   1.000   P
 EGSI       54.00   1.000   P
# 2013 07 28 05 00 28.5  -01.33    100.72     79.0  3.0   0.0   0.0   0.801        96
 PDSI       15.80   1.000   P
 KRJI       20.10   1.000   P
 MKBI       20.10   1.000   P
 PDSI       26.20   1.000   S
 SISI       26.30   1.000   P
 PPSI       27.10   1.000   P
 SLSI       34.30   1.000   P
 PPSI       47.40   1.000   S
# 2013 07 29 01 43 39.2  004.77    095.11     12.0  4.6   0.0   0.0   1.366        97
 MLSI       25.30   1.000   P
 LHMI       31.00   1.000   P
 SNSI       41.30   1.000   P
 TPTI       41.70   1.000   P
 LASI       41.90   1.000   P
 MLSI       42.40   1.000   S
 KCSI       48.60   1.000   P
 LHMI       57.20   1.000   S
  GSI       64.20   1.000   P
  PSI       68.00   1.000   P
 TPTI       74.40   1.000   S
 SNSI       74.70   1.000   S
 SBSI       81.70   1.000   P
 KCSI       82.00   1.000   S
 MNSI       88.80   1.000   P
  GSI      114.20   1.000   S
# 2013 07 29 16 20 40.6  003.23    096.33     10.0  3.2   0.0   0.0   0.425        98
 SNSI       16.20   1.000   P
 TPTI       16.40   1.000   P
 MLSI       19.50   1.000   P
 KCSI       27.00   1.000   P
 SNSI       27.40   1.000   S
 TPTI       27.90   1.000   S
 MLSI       33.80   1.000   S
 LHMI       34.60   1.000   P
 KCSI       46.30   1.000   S
# 2013 07 29 23 20 22.6  -03.66    102.04     95.0  3.8   0.0   0.0   0.663        99
 UBSI       14.20   1.000   P
 MNAI       22.00   1.000   P
 SLSI       24.50   1.000   P
 MKBI       24.90   1.000   P
 UBSI       26.20   1.000   S
 LHSI       26.60   1.000   P
 EGSI       28.70   1.000   P
 KRJI       28.80   1.000   P
 PPSI       35.40   1.000   P
 MDSI       36.30   1.000   P
 MNAI       39.70   1.000   S
 JMBI       40.40   1.000   P
 SLSI       43.60   1.000   S
 MKBI       44.30   1.000   S
 KLSI       44.50   1.000   P
 LHSI       45.80   1.000   S
 KASI       46.70   1.000   P
 PDSI       47.10   1.000   P
 EGSI       51.20   1.000   S
 KRJI       52.00   1.000   S
 SISI       55.10   1.000   P
 PPBI       63.20   1.000   P
 MDSI       64.00   1.000   S
# 2013 07 31 08 26 25.1  -04.69    102.02     17.0  3.6   0.0   0.0   0.500       100
 EGSI       13.30   1.000   P
 UBSI       18.20   1.000   P
 MNAI       18.30   1.000   P
 EGSI       25.20   1.000   S
 LHSI       30.40   1.000   P
 UBSI       31.60   1.000   S
 MNAI       32.10   1.000   S
 LWLI       33.90   1.000   P
 MDSI       34.80   1.000   P
 MKBI       37.80   1.000   P
 SLSI       38.40   1.000   P
 KASI       41.20   1.000   P
 KLSI       42.70   1.000   P
 CGJI       62.00   1.000   P
# 2013 08 01 13 29 45.2  -02.77    102.29    141.0  3.4   0.0   0.0   0.680       101
 SLSI       21.10   1.000   P
 UBSI       24.00   1.000   P
 MKBI       24.80   1.000   P
 KRJI       25.50   1.000   P
 LHSI       30.90   1.000   P
 MNAI       31.20   1.000   P
 SDSI       34.80   1.000   P
 SLSI       36.90   1.000   S
 PPSI       38.00   1.000   P
 MDSI       41.60   1.000   P
 PDSI       41.80   1.000   P
 UBSI       42.60   1.000   S
 MKBI       43.30   1.000   S
 KRJI       45.50   1.000   S
 KLSI       48.70   1.000   P
 SISI       52.60   1.000   P
 MNAI       55.50   1.000   S
 PDSI       74.20   1.000   S
# 2013 08 01 18 25 56.7  004.74    096.59     10.0  2.8   0.0   0.0   0.674       102
 MLSI       10.30   1.000   P
 LHMI       12.10   1.000   P
 MLSI       17.40   1.000   S
 LHMI       20.60   1.000   S
 TPTI       28.30   1.000   P
 KCSI       30.60   1.000   P
 SNSI       39.30   1.000   P
 TPTI       48.10   1.000   S
 KCSI       51.30   1.000   S
# 2013 08 01 18 35 09.3  -03.40    101.48     29.0  3.6   0.0   0.0   0.392       103
 MKBI       16.70   1.000   P
 UBSI       16.80   1.000   P
 KRJI       22.60   1.000   P
 SLSI       25.20   1.000   P
 PPSI       26.60   1.000   P
 UBSI       28.60   1.000   S
 MNAI       28.70   1.000   P
 EGSI       33.40   1.000   P
 KRJI       39.20   1.000   S
 PDSI       41.20   1.000   P
 SLSI       44.40   1.000   S
 MNAI       50.20   1.000   S
