# 2013 07 02 07 37 03.4  004.70    096.61     10.0  6.2   0.0   0.0   1.154         1
 MLSI        9.50   1.000   P
 LHMI       12.50   1.000   P
 LASI       24.70   1.000   P
 TPTI       26.40   1.000   P
 KCSI       27.50   1.000   P
  TSI       37.70   1.000   P
 SNSI       38.90   1.000   P
  PSI       47.10   1.000   P
  GSI       54.70   1.000   P
 TRSI       56.10   1.000   P
 SBSI       66.00   1.000   P
 MNSI       73.40   1.000   P
 BKNI       92.60   1.000   P
 SISI       96.40   1.000   P
 PDSI      100.00   1.000   P
 BTDF      113.60   1.000   P
 PPSI      118.80   1.000   P
 MKBI      121.20   1.000   P
 KRJI      121.20   1.000   P
 JMBI      137.80   1.000   P
 LHSI      156.40   1.000   P
 MNAI      157.00   1.000   P
 PMBI      161.70   1.000   P
 EGSI      163.60   1.000   P
 MDSI      166.90   1.000   P
 PPBI      169.40   1.000   P
 LWLI      173.40   1.000   P
  KLI      178.80   1.000   P
# 2013 07 02 08 21 33.2  004.83    096.41     26.0  4.1   0.0   0.0   0.294         2
 MLSI       11.90   1.000   P
 LHMI       13.90   1.000   P
 LASI       26.40   1.000   P
 TPTI       28.80   1.000   P
 KCSI       30.50   1.000   P
  PSI       50.20   1.000   P
  KUM       62.60   1.000   P
# 2013 07 02 10 13 48.1  -06.18    105.28     10.0  3.1   0.0   0.0   0.727         3
 CGJI       11.90   1.000   P
 SBJI       15.50   1.000   P
 BLSI       15.90   1.000   P
 KASI       18.60   1.000   P
 TNGI       24.40   1.000   P
  KLI       25.80   1.000   P
 CBJI       31.30   1.000   P
 MDSI       34.10   1.000   P
# 2013 07 02 10 41 40.6  004.69    096.63     12.0  3.1   0.0   0.0   0.172         4
 MLSI        9.90   1.000   P
 LHMI       12.70   1.000   P
 MLSI       17.80   1.000   S
 TPTI       26.70   1.000   P
 KCSI       28.40   1.000   P
 KCSI       49.50   1.000   S
# 2013 07 02 10 53 39.9  004.70    096.59     10.0  3.4   0.0   0.0   0.403         5
 MLSI        9.80   1.000   P
 LHMI       11.90   1.000   P
 MLSI       15.60   1.000   S
 LHMI       21.00   1.000   S
 TPTI       26.50   1.000   P
 KCSI       28.20   1.000   P
# 2013 07 02 13 55 40.7  004.62    096.79     10.0  5.4   0.0   0.0   1.229         6
 MLSI        7.60   1.000   P
 LHMI       10.20   1.000   P
 LASI       21.90   1.000   P
 TPTI       23.70   1.000   P
 KCSI       25.00   1.000   P
  TSI       34.50   1.000   P
 SNSI       37.60   1.000   P
  PSI       45.20   1.000   P
  GSI       52.70   1.000   P
  KUM       58.70   1.000   P
  IPM       62.50   1.000   P
 SBSI       64.20   1.000   P
 MNSI       72.40   1.000   P
 SISI       94.40   1.000   P
 PDSI       98.00   1.000   P
  KOM      108.80   1.000   P
 BTDF      112.20   1.000   P
 PPSI      116.90   1.000   P
 MKBI      120.70   1.000   P
 TPRI      123.00   1.000   P
 LHSI      153.80   1.000   P
 MNAI      155.40   1.000   P
 EGSI      161.60   1.000   P
 MDSI      165.30   1.000   P
  DLV      195.60   1.000   P
  KSM      197.40   1.000   P
 CHTO      200.90   1.000   P
  SBM      220.00   1.000   P
 HALK      225.20   1.000   P
  SIM      226.90   1.000   P
 MALK      231.40   1.000   P
 PBKI      233.50   1.000   P
 CTJI      239.80   1.000   P
  BJI      244.20   1.000   P
  SLV      250.30   1.000   P
  KKM      266.50   1.000   P
 KMMI      281.30   1.000   P
  BKB      283.70   1.000   P
  SHL      286.70   1.000   P
 SGKI      287.90   1.000   P
 MMSI      308.40   1.000   P
 TTSI      315.90   1.000   P
TOLI2      316.60   1.000   P
 KAPI      321.50   1.000   P
 PLAI      323.20   1.000   P
 BKSI      326.80   1.000   P
 APSI      328.40   1.000   P
  LSA      329.20   1.000   P
 SMSI      331.70   1.000   P
 LUWI      339.50   1.000   P
 TWGB      368.00   1.000   P
 SIJI      412.40   1.000   P
  JOW      433.40   1.000   P
 KNRA      433.90   1.000   P
 MORW      442.30   1.000   P
 PDGK      466.00   1.000   P
 NWAO      472.50   1.000   P
  AAK      478.70   1.000   P
 KMBL      481.00   1.000   P
 MKAR      485.10   1.000   P
  ULN      486.90   1.000   P
 WRAB      488.10   1.000   P
 KKAR      493.70   1.000   P
  QIS      524.50   1.000   P
 MANU      543.60   1.000   P
 DAMY      556.30   1.000   P
 CTAO      566.70   1.000   P
 ABPO      566.70   1.000   P
 STKA      577.60   1.000   P
 KMBO      606.00   1.000   P
 PATS      615.80   1.000   P
  CNB      631.00   1.000   P
 MSNA      676.40   1.000   P
  LSZ      676.60   1.000   P
 CASY      679.90   1.000   P
 LBTB      702.10   1.000   P
  MAW      706.90   1.000   P
 BOSA      707.70   1.000   P
  SUR      734.30   1.000   P
 CVNA      740.20   1.000   P
 VNDA      776.60   1.000   P
 QSPA      800.90   1.000   P
# 2013 07 02 14 20 02.6  004.72    096.55     27.0  3.9   0.0   0.0   0.771         7
 MLSI       10.80   1.000   P
 LHMI       13.40   1.000   P
 MLSI       19.10   1.000   S
 LHMI       23.30   1.000   S
 LASI       24.40   1.000   P
 TPTI       26.70   1.000   P
 KCSI       27.90   1.000   P
 TPTI       46.00   1.000   S
  PSI       47.60   1.000   P
 KCSI       47.80   1.000   S
  KUM       61.00   1.000   P
  IPM       64.90   1.000   P
  PSI       86.20   1.000   S
# 2013 07 02 15 14 47.6  004.70    096.57     12.0  3.1   0.0   0.0   0.293         8
 MLSI       10.50   1.000   P
 LHMI       12.80   1.000   P
 MLSI       16.80   1.000   S
 LHMI       22.70   1.000   S
 TPTI       27.20   1.000   P
 KCSI       28.70   1.000   P
 TPTI       48.00   1.000   S
 KCSI       51.00   1.000   S
# 2013 07 02 15 17 55.6  004.66    096.65     10.0  2.9   0.0   0.0   0.426         9
 MLSI       10.60   1.000   P
 LHMI       13.00   1.000   P
 MLSI       16.30   1.000   S
 LHMI       21.90   1.000   S
 TPTI       26.70   1.000   P
 KCSI       27.60   1.000   P
 TPTI       46.30   1.000   S
 KCSI       49.10   1.000   S
# 2013 07 02 15 28 23.3  004.69    096.56     10.0  2.8   0.0   0.0   0.511        10
 MLSI        9.40   1.000   P
 LHMI       13.00   1.000   P
 MLSI       15.70   1.000   S
 LHMI       22.10   1.000   S
 TPTI       27.50   1.000   P
 KCSI       29.70   1.000   P
 TPTI       46.70   1.000   S
 KCSI       51.10   1.000   S
# 2013 07 02 15 36 46.7  004.62    096.81     10.0  5.2   0.0   0.0   1.058        11
 MLSI       16.90   1.000   P
 LHMI       20.60   1.000   P
 LASI       21.40   1.000   P
 TPTI       23.80   1.000   P
 KCSI       24.60   1.000   P
  TSI       33.70   1.000   P
 SNSI       36.20   1.000   P
 LASI       39.50   1.000   S
 TPTI       44.60   1.000   S
  PSI       45.00   1.000   P
 KCSI       47.20   1.000   S
  GSI       52.40   1.000   P
 TRSI       52.90   1.000   P
  KUM       58.10   1.000   P
 SBSI       63.40   1.000   P
 SNSI       67.00   1.000   S
 MNSI       71.30   1.000   P
 BKNI       90.20   1.000   P
 SISI       94.20   1.000   P
 PDSI       97.30   1.000   P
 SDSI      103.70   1.000   P
 BTDF      111.50   1.000   P
 KRJI      118.60   1.000   P
 MKBI      120.30   1.000   P
 TPRI      122.40   1.000   P
 LHSI      152.90   1.000   P
  DLV      194.20   1.000   P
  KSM      196.80   1.000   P
 CHTO      203.30   1.000   P
  SBM      220.80   1.000   P
 HALK      227.80   1.000   P
 MALK      232.20   1.000   P
 PBKI      233.20   1.000   P
 CTJI      238.20   1.000   P
  KKM      267.30   1.000   P
 KMMI      280.90   1.000   P
  BKB      283.20   1.000   P
 SGKI      286.30   1.000   P
  SHL      286.60   1.000   P
 MMSI      307.70   1.000   P
TOLI2      314.90   1.000   P
 TTSI      316.80   1.000   P
 SPSI      319.10   1.000   P
 PLAI      321.20   1.000   P
 KAPI      322.00   1.000   P
 BKSI      327.00   1.000   P
 APSI      327.20   1.000   P
  LSA      329.70   1.000   P
 SMSI      331.80   1.000   P
 LUWI      338.80   1.000   P
  SZP      339.00   1.000   P
  ENH      353.50   1.000   P
 KRAI      391.30   1.000   P
 SIJI      410.10   1.000   P
  JOW      433.40   1.000   P
 KNRA      433.80   1.000   P
 MEEK      434.70   1.000   P
  MTN      438.70   1.000   P
 MORW      440.90   1.000   P
 BAKI      450.70   1.000   P
 PDGK      466.10   1.000   P
 NWAO      472.40   1.000   P
 MSEY      475.10   1.000   P
 KMBL      480.50   1.000   P
  ULN      488.50   1.000   P
  QIS      525.40   1.000   P
 COEN      531.70   1.000   P
 ABPO      566.70   1.000   P
 CTAO      567.70   1.000   P
 STKA      578.00   1.000   P
 KMBO      606.60   1.000   P
 PATS      617.30   1.000   P
  CNB      630.00   1.000   P
 MSNA      676.40   1.000   P
  LSZ      677.90   1.000   P
 CASY      681.10   1.000   P
 LBTB      703.30   1.000   P
  MAW      708.30   1.000   P
 BOSA      709.20   1.000   P
 VNDA      775.90   1.000   P
# 2013 07 02 16 01 20.4  004.67    096.65     11.0  3.0   0.0   0.0   0.212        12
 MLSI       10.40   1.000   P
 LHMI       12.60   1.000   P
 MLSI       17.00   1.000   S
 LHMI       22.20   1.000   S
 TPTI       26.30   1.000   P
 KCSI       28.00   1.000   P
 TPTI       46.40   1.000   S
 KCSI       49.30   1.000   S
# 2013 07 02 16 10 48.6  004.68    096.66     10.0  3.2   0.0   0.0   0.265        13
 MLSI        9.60   1.000   P
 LHMI       11.90   1.000   P
 MLSI       16.80   1.000   S
 LHMI       20.70   1.000   S
 TPTI       26.20   1.000   P
 KCSI       27.60   1.000   P
 TPTI       46.30   1.000   S
 KCSI       48.20   1.000   S
# 2013 07 02 18 08 33.4  000.48    100.00    155.0  3.8   0.0   0.0   0.800        14
 MNSI       23.10   1.000   P
 BKNI       26.10   1.000   P
 PDSI       30.10   1.000   P
 SISI       36.20   1.000   P
 MNSI       40.60   1.000   S
  GSI       43.60   1.000   P
 BKNI       45.70   1.000   S
 KRJI       48.00   1.000   P
 PPSI       49.50   1.000   P
 MKBI       50.40   1.000   P
 PDSI       53.50   1.000   S
 KCSI       57.20   1.000   P
 TPTI       60.20   1.000   P
 SISI       64.10   1.000   S
  GSI       75.50   1.000   S
 MNAI       81.00   1.000   P
 PPSI       88.70   1.000   S
 TPTI      105.30   1.000   S
# 2013 07 02 22 13 13.4  -05.96    103.47     10.0  3.8   0.0   0.0   0.868        15
 LWLI       20.10   1.000   P
 KASI       20.70   1.000   P
 EGSI       24.00   1.000   P
 MDSI       28.30   1.000   P
 MNAI       28.50   1.000   P
  KLI       31.70   1.000   P
 BLSI       32.70   1.000   P
 LWLI       34.60   1.000   S
 KASI       35.10   1.000   S
 LHSI       36.50   1.000   P
 CGJI       37.10   1.000   P
 EGSI       42.30   1.000   S
 MDSI       49.20   1.000   S
 MNAI       50.60   1.000   S
  KLI       55.80   1.000   S
 LHSI       64.20   1.000   S
# 2013 07 02 23 02 48.9  001.43    098.95     85.0  3.5   0.0   0.0   0.788        16
 SBSI       15.20   1.000   P
 TRSI       16.20   1.000   P
 MNSI       18.90   1.000   P
 RPSI       21.90   1.000   P
  PSI       23.70   1.000   P
  GSI       24.10   1.000   P
 SBSI       26.90   1.000   S
 TRSI       29.20   1.000   S
 MNSI       34.00   1.000   S
 KCSI       37.30   1.000   P
 RPSI       38.10   1.000   S
 PDSI       42.30   1.000   P
  GSI       42.50   1.000   S
 SNSI       42.70   1.000   P
 MLSI       56.60   1.000   P
 KCSI       65.60   1.000   S
 PDSI       74.70   1.000   S
# 2013 07 03 03 12 37.5  004.71    096.57     10.0  2.8   0.0   0.0   0.171        17
 MLSI       10.20   1.000   P
 LHMI       12.70   1.000   P
 MLSI       17.00   1.000   S
 TPTI       27.70   1.000   P
 KCSI       29.40   1.000   P
 TPTI       48.20   1.000   S
# 2013 07 03 03 25 51.4  -05.25    103.88     60.0  4.3   0.0   0.0   0.561        18
 LWLI       11.20   1.000   P
 KASI       14.50   1.000   P
 MDSI       15.80   1.000   P
  KLI       19.20   1.000   P
 LWLI       21.10   1.000   S
 MNAI       21.70   1.000   P
 BLSI       23.50   1.000   P
 LHSI       24.50   1.000   P
 EGSI       26.30   1.000   P
 KASI       26.40   1.000   S
 MDSI       28.20   1.000   S
 UBSI       34.30   1.000   P
 CGJI       34.60   1.000   P
 MNAI       39.30   1.000   S
 EGSI       46.20   1.000   S
 SLSI       46.70   1.000   P
 CBJI       50.80   1.000   P
 CGJI       62.40   1.000   S
 PPSI       65.30   1.000   P
# 2013 07 03 12 36 58.3  -04.46    101.79     10.0  3.8   0.0   0.0   0.624        19
 UBSI       16.30   1.000   P
 EGSI       19.20   1.000   P
 MNAI       20.70   1.000   P
 UBSI       27.40   1.000   S
 LHSI       31.40   1.000   P
 MKBI       34.00   1.000   P
 SLSI       36.40   1.000   P
 LWLI       38.10   1.000   P
 MNAI       38.20   1.000   S
 MDSI       39.50   1.000   P
 KRJI       39.60   1.000   P
 PPSI       40.00   1.000   P
 KASI       45.30   1.000   P
 SLSI       63.80   1.000   S
 CGJI       66.40   1.000   P
 MDSI       68.40   1.000   S
 LWLI       68.40   1.000   S
 CISI       97.40   1.000   P
# 2013 07 03 13 42 33.9  004.74    096.55     14.0  3.3   0.0   0.0   0.388        20
 MLSI       10.30   1.000   P
 LHMI       11.80   1.000   P
 MLSI       17.30   1.000   S
 LHMI       21.40   1.000   S
 TPTI       27.30   1.000   P
 KCSI       29.20   1.000   P
  TSI       36.90   1.000   P
  PSI       47.60   1.000   P
 TPTI       47.70   1.000   S
 KCSI       51.10   1.000   S
# 2013 07 04 03 32 00.6  004.73    096.52     12.0  3.3   0.0   0.0   0.250        21
 MLSI       10.60   1.000   P
 LHMI       13.50   1.000   P
 MLSI       17.50   1.000   S
 LHMI       22.40   1.000   S
 LASI       26.40   1.000   P
 KCSI       29.70   1.000   P
  PSI       49.20   1.000   P
 KCSI       52.70   1.000   S
  GSI       55.00   1.000   P
# 2013 07 04 17 15 52.5  003.14    094.47     10.0  4.0   0.0   0.0   0.792        22
 SNSI       33.10   1.000   P
 MLSI       36.00   1.000   P
 TPTI       43.00   1.000   P
 LHMI       50.30   1.000   P
 KCSI       53.10   1.000   P
  GSI       55.80   1.000   P
 SNSI       58.70   1.000   S
  PSI       69.40   1.000   P
 MNSI       83.30   1.000   P
 KCSI       92.80   1.000   S
# 2013 07 04 17 40 43.9  002.37    096.01     18.0  4.1   0.0   0.0   1.010        23
 SNSI        9.80   1.000   P
 SNSI       14.20   1.000   S
 TPTI       25.10   1.000   P
 MLSI       31.20   1.000   P
  GSI       33.60   1.000   P
 KCSI       35.00   1.000   P
 TPTI       42.60   1.000   S
  TSI       45.20   1.000   P
 RPSI       45.60   1.000   P
  PSI       45.60   1.000   P
 TRSI       45.90   1.000   P
 LHMI       46.30   1.000   P
 SBSI       54.10   1.000   P
  GSI       56.40   1.000   S
 MLSI       56.80   1.000   S
 MNSI       58.80   1.000   P
 KCSI       61.00   1.000   S
 RGRI       99.90   1.000   P
# 2013 07 04 17 50 17.5  002.63    098.80     10.0  2.1   0.0   0.0   0.824        24
  PSI        5.00   1.000   P
  PSI        6.40   1.000   S
 KCSI       24.70   1.000   P
 TPTI       30.10   1.000   P
  GSI       30.70   1.000   P
 KCSI       44.00   1.000   S
 TPTI       51.30   1.000   S
  GSI       54.50   1.000   S
# 2013 07 04 17 58 48.1  002.64    098.75     10.0  3.6   0.0   0.0   0.756        25
  PSI        5.00   1.000   P
  PSI        6.80   1.000   S
 TRSI       12.30   1.000   P
  TSI       17.80   1.000   P
 KCSI       23.40   1.000   P
 SBSI       25.90   1.000   P
 TPTI       29.00   1.000   P
  GSI       29.80   1.000   P
 MNSI       35.20   1.000   P
 SNSI       39.60   1.000   P
 MLSI       44.40   1.000   P
  IPM       47.30   1.000   P
 TPTI       51.60   1.000   S
  KUM       51.80   1.000   P
 SISI       60.80   1.000   P
 PDSI       60.80   1.000   P
# 2013 07 04 18 30 03.5  002.60    098.78     10.0  3.0   0.0   0.0   0.634        26
  PSI        5.70   1.000   P
  PSI        7.40   1.000   S
 TRSI       12.50   1.000   P
  TSI       18.00   1.000   P
 TRSI       20.90   1.000   S
 KCSI       24.90   1.000   P
 TPTI       29.70   1.000   P
  GSI       30.10   1.000   P
 SNSI       39.40   1.000   P
 KCSI       43.40   1.000   S
 TPTI       51.70   1.000   S
  GSI       54.10   1.000   S
# 2013 07 04 23 02 24.5  002.63    098.83     10.0  2.3   0.0   0.0   0.715        27
  PSI        4.10   1.000   P
  PSI        5.60   1.000   S
 TRSI       12.30   1.000   P
 TRSI       20.40   1.000   S
 KCSI       24.50   1.000   P
 SBSI       26.00   1.000   P
  GSI       31.30   1.000   P
 MNSI       34.00   1.000   P
 KCSI       43.80   1.000   S
  GSI       54.20   1.000   S
# 2013 07 04 23 06 48.8  002.64    098.76     10.0  3.0   0.0   0.0   0.765        28
 RPSI        4.10   1.000   P
  PSI        5.20   1.000   P
  PSI        7.60   1.000   S
 TRSI       13.20   1.000   P
 KCSI       24.90   1.000   P
 SBSI       26.60   1.000   P
  GSI       29.40   1.000   P
 MNSI       37.90   1.000   P
 SNSI       39.40   1.000   P
# 2013 07 04 23 08 54.1  002.64    098.81     10.0  3.1   0.0   0.0   0.803        29
  PSI        4.40   1.000   P
  PSI        6.40   1.000   S
 KCSI       23.80   1.000   P
 SBSI       25.60   1.000   P
  GSI       29.20   1.000   P
 MNSI       38.80   1.000   P
 SNSI       40.90   1.000   P
 KCSI       43.80   1.000   S
  GSI       54.90   1.000   S
# 2013 07 04 23 14 18.8  002.59    098.83     10.0  2.4   0.0   0.0   0.516        30
  PSI        4.80   1.000   P
  PSI        6.70   1.000   S
 KCSI       24.30   1.000   P
 SBSI       24.30   1.000   P
  GSI       30.40   1.000   P
 KCSI       44.50   1.000   S
  GSI       54.30   1.000   S
# 2013 07 05 11 47 56.7  004.71    096.64     10.0  3.4   0.0   0.0   0.337        31
 MLSI       10.20   1.000   P
 LHMI       11.80   1.000   P
 MLSI       18.00   1.000   S
 LHMI       21.10   1.000   S
 TPTI       27.30   1.000   P
 KCSI       29.10   1.000   P
 TPTI       47.80   1.000   S
 KCSI       49.60   1.000   S
# 2013 07 05 12 23 03.3  -04.45    101.84     12.0  4.2   0.0   0.0   0.563        32
 UBSI       16.20   1.000   P
 EGSI       19.10   1.000   P
 MNAI       20.30   1.000   P
 LHSI       30.60   1.000   P
 MKBI       33.80   1.000   P
 MDSI       37.30   1.000   P
 LWLI       37.60   1.000   P
 KRJI       39.00   1.000   P
 PPSI       40.30   1.000   P
 KASI       46.10   1.000   P
 SDSI       55.80   1.000   P
 PDSI       58.20   1.000   P
 SISI       62.70   1.000   P
 PBSI       83.50   1.000   P
# 2013 07 05 16 54 39.8  002.63    098.77     10.0  4.8   0.0   0.0   1.324        33
  PSI        4.80   1.000   P
  PSI        7.30   1.000   S
 TRSI       11.30   1.000   P
  TSI       17.10   1.000   P
 TRSI       20.30   1.000   S
 KCSI       22.80   1.000   P
 SBSI       25.60   1.000   P
 TPTI       27.90   1.000   P
  GSI       28.40   1.000   P
 MNSI       33.80   1.000   P
 LASI       34.90   1.000   P
 SNSI       39.10   1.000   P
 KCSI       44.50   1.000   S
 MLSI       46.00   1.000   P
 LHMI       49.90   1.000   P
 SISI       59.90   1.000   P
 PDSI       61.70   1.000   P
 KRJI       82.60   1.000   P
 PPSI       84.80   1.000   P
 MKBI       84.80   1.000   P
 MDSI      128.90   1.000   P
# 2013 07 05 17 11 48.9  002.56    098.74     10.0  3.3   0.0   0.0   0.323        34
  PSI        5.50   1.000   P
 TRSI       12.00   1.000   P
  TSI       18.80   1.000   P
 SBSI       24.30   1.000   P
 KCSI       24.60   1.000   P
 TPTI       28.90   1.000   P
  GSI       29.50   1.000   P
 MLSI       46.10   1.000   P
# 2013 07 05 18 48 52.8  002.62    098.98     25.0  2.5   0.0   0.0   0.830        35
  PSI        6.60   1.000   P
  PSI        9.00   1.000   S
 TRSI       13.40   1.000   P
 TRSI       21.30   1.000   S
 KCSI       24.30   1.000   P
 TPTI       29.90   1.000   P
  GSI       30.30   1.000   P
 KCSI       45.50   1.000   S
  GSI       55.70   1.000   S
