# 2013 07 11 09 24 38.2  001.81    099.12     11.0  2.9   0.0   0.0   0.617        57
 TRSI        6.50   1.000   P
 SBSI        9.60   1.000   P
 TRSI       11.10   1.000   S
 RPSI       16.50   1.000   P
  PSI       18.40   1.000   P
 MNSI       21.20   1.000   P
  GSI       28.10   1.000   P
 PBSI       34.10   1.000   P
 KCSI       35.90   1.000   P
 TPTI       38.50   1.000   P
# 2013 07 11 23 59 11.7  001.71    099.19     10.0  2.9   0.0   0.0   1.664        58
 SBSI        7.60   1.000   P
 TRSI        8.20   1.000   P
 SBSI       12.80   1.000   S
 TRSI       12.90   1.000   S
 MNSI       19.00   1.000   P
  PSI       20.40   1.000   P
  GSI       28.60   1.000   P
 MNSI       30.90   1.000   S
  PSI       32.30   1.000   S
 BKNI       37.50   1.000   P
 KCSI       41.50   1.000   P
  GSI       51.70   1.000   S
 KCSI       67.80   1.000   S
 BKNI       71.10   1.000   S
# 2013 07 12 00 38 04.7  000.68    099.68    124.0  4.0   0.0   0.0   0.813        59
 MNSI       18.60   1.000   P
 SBSI       21.30   1.000   P
 BKNI       26.40   1.000   P
 MNSI       31.50   1.000   S
 PDSI       32.20   1.000   P
 SISI       34.90   1.000   P
  PSI       36.30   1.000   P
 SBSI       37.20   1.000   S
  GSI       37.70   1.000   P
 BKNI       47.60   1.000   S
 PPSI       50.50   1.000   P
 KRJI       51.30   1.000   P
 KCSI       51.80   1.000   P
 MKBI       52.60   1.000   P
 PDSI       57.00   1.000   S
 BTDF       61.70   1.000   P
 SISI       62.10   1.000   S
  PSI       63.20   1.000   S
  GSI       64.70   1.000   S
 MLSI       71.00   1.000   P
 LHMI       75.40   1.000   P
 KRJI       91.20   1.000   S
 MKBI       93.60   1.000   S
 MDSI       96.80   1.000   P
# 2013 07 12 05 42 09.1  -01.74    099.42     29.0  3.2   0.0   0.0   0.407        60
 SISI       11.10   1.000   P
 PPSI       20.50   1.000   P
 SISI       20.70   1.000   S
 PDSI       21.90   1.000   P
 KRJI       33.30   1.000   P
 SDSI       34.20   1.000   P
 PDSI       40.20   1.000   S
# 2013 07 12 06 38 19.7  000.46    097.95     10.0  3.4   0.0   0.0   0.582        61
 PBSI       11.10   1.000   P
  GSI       14.80   1.000   P
 MNSI       27.70   1.000   P
 SBSI       29.00   1.000   P
  GSI       29.60   1.000   S
 KCSI       48.30   1.000   P
# 2013 07 12 13 42 51.1  002.47    098.78     10.0  2.5   0.0   0.0   0.650        62
  PSI        5.90   1.000   P
  TSI       18.90   1.000   P
 KCSI       24.00   1.000   P
  GSI       29.10   1.000   P
 TPTI       30.50   1.000   P
 KCSI       45.80   1.000   S
 TPTI       53.00   1.000   S
# 2013 07 13 00 54 57.7  -06.31    104.74     34.0  4.2   0.0   0.0   0.607        63
 KASI       14.20   1.000   P
 CGJI       17.30   1.000   P
 BLSI       18.90   1.000   P
 SBJI       23.50   1.000   P
 LWLI       24.10   1.000   P
  KLI       24.60   1.000   P
 MDSI       30.10   1.000   P
 CGJI       31.20   1.000   S
 SKJI       31.80   1.000   P
 EGSI       40.60   1.000   P
 LHSI       42.20   1.000   P
  LEM       43.40   1.000   P
 CISI       49.40   1.000   P
 OBMI      303.60   1.000   P
# 2013 07 14 08 10 11.8  003.21    098.44    139.0  3.1   0.0   0.0   0.587        64
  TSI       21.10   1.000   P
  PSI       22.70   1.000   P
 KCSI       22.80   1.000   P
 TPTI       27.20   1.000   P
  GSI       35.70   1.000   P
  TSI       37.10   1.000   S
 MLSI       37.90   1.000   P
 SNSI       38.90   1.000   P
 KCSI       39.60   1.000   S
  PSI       39.60   1.000   S
 MNSI       43.00   1.000   P
  IPM       45.20   1.000   P
  KUM       46.50   1.000   P
 TPTI       47.00   1.000   S
# 2013 07 14 23 02 33.4  -03.16    100.22     30.0  4.6   0.0   0.0   0.850        65
 PPSI        9.80   1.000   P
 PPSI       18.40   1.000   S
 MKBI       21.60   1.000   P
 KRJI       27.50   1.000   P
 SISI       33.30   1.000   P
 UBSI       34.00   1.000   P
 PDSI       35.20   1.000   P
 MKBI       37.70   1.000   S
 EGSI       45.40   1.000   P
 MNAI       45.80   1.000   P
 LHSI       51.10   1.000   P
 RGRI       52.90   1.000   P
 BKNI       54.00   1.000   P
 JMBI       56.70   1.000   P
 MNSI       58.40   1.000   P
 UBSI       59.90   1.000   S
 SISI       60.90   1.000   S
 MDSI       62.70   1.000   P
 LWLI       63.20   1.000   P
 SBSI       66.60   1.000   P
 KASI       71.40   1.000   P
 KLSI       71.40   1.000   P
  GSI       74.90   1.000   P
 BLSI       78.40   1.000   P
 MNAI       81.00   1.000   S
 EGSI       81.90   1.000   S
 BTDF       84.10   1.000   P
 TPRI       86.10   1.000   P
  PSI       86.30   1.000   P
 RPSI       87.00   1.000   P
 PPBI       88.00   1.000   P
  KOM       89.00   1.000   P
 LHSI       90.80   1.000   S
 CGJI       91.20   1.000   P
 RGRI       94.00   1.000   S
 BKNI       95.30   1.000   S
  TSI       97.70   1.000   P
 JMBI      102.00   1.000   S
 MNSI      107.10   1.000   S
  IPM      109.20   1.000   P
 MDSI      110.10   1.000   S
 LWLI      112.80   1.000   S
  LEM      117.90   1.000   P
 SBSI      121.20   1.000   S
 CISI      123.40   1.000   P
 KLNI      230.30   1.000   P
  BKB      232.90   1.000   P
 SMKI      237.70   1.000   P
 PLAI      251.00   1.000   P
 BKSI      268.30   1.000   P
 BNSI      269.50   1.000   P
  LSA      400.30   1.000   P
 PDGK      530.60   1.000   P
  ULN      539.80   1.000   P
 MKAR      548.60   1.000   P
# 2013 07 15 01 43 02.1  -05.16    102.09     44.0  3.5   0.0   0.0   0.533        66
 EGSI        9.80   1.000   P
 EGSI       16.60   1.000   S
 MNAI       20.30   1.000   P
 UBSI       23.10   1.000   P
 LHSI       29.80   1.000   P
 LWLI       30.60   1.000   P
 MDSI       33.10   1.000   P
 MNAI       35.30   1.000   S
 KASI       38.00   1.000   P
 MKBI       42.50   1.000   P
  KLI       42.60   1.000   P
 PPSI       46.30   1.000   P
 KRJI       47.10   1.000   P
 LHSI       54.30   1.000   S
 LWLI       55.30   1.000   S
 CGJI       55.90   1.000   P
 MKBI       77.60   1.000   S
 KRJI       83.70   1.000   S
# 2013 07 16 10 26 47.4  -05.91    102.17     33.0  3.8   0.0   0.0   0.389        67
 EGSI       12.30   1.000   P
 EGSI       21.30   1.000   S
 MNAI       28.60   1.000   P
 KASI       36.30   1.000   P
 LHSI       38.60   1.000   P
 MDSI       38.80   1.000   P
 KLSI       43.00   1.000   P
 MNAI       50.20   1.000   S
 CGJI       53.30   1.000   P
 PPSI       56.40   1.000   P
 MDSI       67.60   1.000   S
 LHSI       68.70   1.000   S
 PDSI       76.40   1.000   P
 SISI       79.30   1.000   P
 XMIS       82.40   1.000   P
# 2013 07 16 11 47 15.4  004.26    096.37     10.0  2.7   0.0   0.0   1.011        68
 MLSI        1.00   1.000   P
 MLSI        3.20   1.000   S
 LHMI       19.20   1.000   P
 TPTI       21.70   1.000   P
 KCSI       27.10   1.000   P
 LHMI       37.30   1.000   S
 TPTI       41.30   1.000   S
 KCSI       48.70   1.000   S
# 2013 07 16 19 17 34.4  -02.58    102.39    190.0  3.6   0.0   0.0   0.620        69
 KRJI       29.50   1.000   P
 MKBI       29.80   1.000   P
 UBSI       30.40   1.000   P
 LHSI       34.90   1.000   P
 MNAI       35.20   1.000   P
 PPSI       43.20   1.000   P
 PDSI       43.90   1.000   P
 MDSI       44.60   1.000   P
 EGSI       46.30   1.000   P
 MKBI       52.80   1.000   S
 KRJI       53.00   1.000   S
 UBSI       53.90   1.000   S
 KASI       55.50   1.000   P
 SISI       55.70   1.000   P
 PPBI       58.50   1.000   P
 MNAI       64.50   1.000   S
 MNSI       65.70   1.000   P
 SBSI       73.00   1.000   P
 PDSI       77.70   1.000   S
  GSI       88.10   1.000   P
 KCSI      106.80   1.000   P
# 2013 07 16 23 41 14.9  005.52    098.04     10.0  5.2   0.0   0.0   1.680        70
 LASI       16.50   1.000   P
 LHMI       19.70   1.000   P
 KCSI       30.80   1.000   P
 MLSI       33.50   1.000   P
 LASI       34.10   1.000   S
 LHMI       36.10   1.000   S
 SNSI       53.30   1.000   P
 TRSI       57.80   1.000   P
  GSI       61.50   1.000   P
 KCSI       61.70   1.000   S
 MLSI       64.10   1.000   S
 SBSI       66.90   1.000   P
 MNSI       71.80   1.000   P
 BKNI       85.70   1.000   P
 PDSI       98.60   1.000   P
 BTDF      102.60   1.000   P
 SISI      102.70   1.000   P
 RGRI      107.00   1.000   P
 TPRI      114.20   1.000   P
 KRJI      121.60   1.000   P
 MKBI      122.40   1.000   P
 PPSI      125.70   1.000   P
 PMBI      154.30   1.000   P
 LHSI      154.50   1.000   P
 MDSI      164.60   1.000   P
 LWLI      170.20   1.000   P
  DLV      173.80   1.000   P
 KASI      179.00   1.000   P
 CHTO      188.50   1.000   P
 CGJI      202.60   1.000   P
  SLV      234.30   1.000   P
 MALK      245.80   1.000   P
 WOJI      255.30   1.000   P
 NGJI      257.20   1.000   P
 SWJI      260.70   1.000   P
 PWJI      265.10   1.000   P
  SHL      279.30   1.000   P
 SRBI      295.00   1.000   P
 MMSI      297.20   1.000   P
 BKSI      319.70   1.000   P
 SMSI      320.50   1.000   P
 TWGB      353.00   1.000   P
 SIJI      402.00   1.000   P
 KNRA      430.50   1.000   P
  KBL      449.20   1.000   P
 PDGK      462.80   1.000   P
  AAK      475.00   1.000   P
  ULN      478.20   1.000   P
 MKAR      479.10   1.000   P
 WRAB      483.00   1.000   P
  QIS      518.90   1.000   P
 CMSA      593.70   1.000   P
 FURI      599.50   1.000   P
# 2013 07 17 05 47 26.6  -04.92    103.05     36.0  3.1   0.0   0.0   0.785        71
 MNAI       11.80   1.000   P
 EGSI       15.30   1.000   P
 MDSI       20.70   1.000   P
 MNAI       21.70   1.000   S
 UBSI       23.90   1.000   P
 KASI       25.10   1.000   P
 KLSI       27.60   1.000   P
 EGSI       29.50   1.000   S
 LWLI       31.50   1.000   P
 MDSI       37.10   1.000   S
 UBSI       39.80   1.000   S
 KASI       44.00   1.000   S
# 2013 07 17 22 57 09.5  002.14    098.00     49.0  4.2   0.0   0.0   0.366        72
  GSI       16.50   1.000   P
 TRSI       17.50   1.000   P
  PSI       18.80   1.000   P
 KCSI       22.90   1.000   P
 SBSI       26.10   1.000   P
 SNSI       27.60   1.000   P
  GSI       29.70   1.000   S
 TRSI       30.60   1.000   S
 MNSI       32.30   1.000   P
  PSI       32.80   1.000   S
 LASI       35.70   1.000   P
 KCSI       40.80   1.000   S
 MLSI       40.80   1.000   P
 SBSI       46.40   1.000   S
 SNSI       47.70   1.000   S
 LHMI       48.40   1.000   P
 SISI       53.70   1.000   P
 MNSI       57.10   1.000   S
 LASI       63.60   1.000   S
 LHMI       87.20   1.000   S
# 2013 07 18 07 19 42.9  005.44    097.67     95.0  3.0   0.0   0.0   0.309        73
 LHMI       18.50   1.000   P
 KCSI       31.50   1.000   P
 LHMI       32.40   1.000   S
 TPTI       34.60   1.000   P
  PSI       45.10   1.000   P
 KCSI       55.90   1.000   S
# 2013 07 18 07 55 43.8  002.44    097.02     22.0  3.1   0.0   0.0   0.939        74
 SNSI       14.00   1.000   P
 TPTI       14.30   1.000   P
  GSI       21.90   1.000   P
 KCSI       23.30   1.000   P
 TPTI       26.30   1.000   S
 MLSI       31.40   1.000   P
  PSI       32.50   1.000   P
 KCSI       40.10   1.000   S
 MNSI       44.80   1.000   P
# 2013 07 18 20 41 03.2  001.86    099.32     14.0  2.6   0.0   0.0   0.318        75
 TRSI        8.70   1.000   P
 SBSI       10.30   1.000   P
 MNSI       19.70   1.000   P
  GSI       31.30   1.000   P
 KCSI       36.70   1.000   P
  GSI       54.20   1.000   S
# 2013 07 19 06 36 22.6  002.41    098.86    138.0  4.0   0.0   0.0   1.288        76
  PSI       19.90   1.000   P
 TRSI       20.70   1.000   P
 RPSI       24.50   1.000   P
 SBSI       25.60   1.000   P
  TSI       26.20   1.000   P
 KCSI       29.90   1.000   P
  GSI       31.40   1.000   P
 MNSI       31.90   1.000   P
 TPTI       33.50   1.000   P
  PSI       34.50   1.000   S
 TRSI       36.40   1.000   S
 PBSI       40.00   1.000   P
 SNSI       41.70   1.000   P
 SBSI       45.60   1.000   S
  TSI       46.50   1.000   S
  IPM       46.80   1.000   P
 BKNI       47.80   1.000   P
 MLSI       47.90   1.000   P
  KUM       51.00   1.000   P
 KCSI       52.10   1.000   S
 LHMI       52.90   1.000   P
  GSI       54.40   1.000   S
 TPTI       58.60   1.000   S
 PBSI       71.50   1.000   S
 SNSI       71.80   1.000   S
 MLSI       83.90   1.000   S
  KUM       89.20   1.000   S
# 2013 07 19 19 08 24.3  000.26    099.76    119.0  2.8   0.0   0.0   0.431        77
 MNSI       18.90   1.000   P
 SBSI       24.50   1.000   P
 PDSI       26.20   1.000   P
 SISI       29.90   1.000   P
 SDSI       33.90   1.000   P
 MNSI       34.40   1.000   S
  GSI       39.60   1.000   P
  PSI       40.50   1.000   P
 SBSI       43.10   1.000   S
 PDSI       45.90   1.000   S
 SISI       53.70   1.000   S
  GSI       68.40   1.000   S
# 2013 07 19 22 15 46.3  004.70    096.62     11.0  4.2   0.0   0.0   0.357        78
 MLSI       10.00   1.000   P
 LHMI       12.10   1.000   P
 MLSI       17.60   1.000   S
 LHMI       21.80   1.000   S
 LASI       24.90   1.000   P
 KCSI       29.00   1.000   P
 SNSI       38.20   1.000   P
 LASI       43.50   1.000   S
  PSI       47.60   1.000   P
 KCSI       49.80   1.000   S
  GSI       54.60   1.000   P
 TRSI       55.20   1.000   P
 MNSI       73.50   1.000   P
 PDSI       98.80   1.000   P
# 2013 07 20 17 50 41.2  000.28    098.62     30.0  4.2   0.0   0.0   1.770        79
 MNSI       19.30   1.000   P
 SBSI       23.10   1.000   P
  GSI       23.50   1.000   P
 SISI       26.50   1.000   P
 TRSI       29.10   1.000   P
 PDSI       34.20   1.000   P
 RPSI       34.20   1.000   P
 MNSI       34.50   1.000   S
  PSI       35.20   1.000   P
 BKNI       40.10   1.000   P
 SBSI       41.40   1.000   S
 SDSI       46.80   1.000   P
  TSI       47.00   1.000   P
  GSI       47.80   1.000   S
 KCSI       48.70   1.000   P
 TRSI       51.40   1.000   S
 KRJI       54.50   1.000   P
 MKBI       55.60   1.000   P
  IPM       71.90   1.000   P
  KOM       80.90   1.000   P
# 2013 07 21 08 27 30.4  001.04    093.41     10.0  4.3   0.0   0.0   1.095        80
 SNSI       51.30   1.000   P
  GSI       64.50   1.000   P
 MLSI       66.30   1.000   P
 TPTI       67.20   1.000   P
 KCSI       75.90   1.000   P
 PBSI       76.20   1.000   P
  GSI       79.30   1.000   S
 SNSI       90.80   1.000   S
 PDSI      107.20   1.000   P
 PPSI      111.10   1.000   P
  GSI      114.20   1.000   S
 SDSI      116.80   1.000   P
 MLSI      117.20   1.000   S
 TPTI      118.90   1.000   S
 PBSI      135.30   1.000   S
 MNSI      163.60   1.000   P
 PDSI      190.10   1.000   S
 MALK      209.20   1.000   P
# 2013 07 22 02 58 06.8  005.32    096.77     10.0  2.8   0.0   0.0   0.541        81
 LHMI        5.30   1.000   P
 LHMI        8.70   1.000   S
 MLSI       19.80   1.000   P
 KCSI       35.20   1.000   P
 TPTI       35.60   1.000   P
 MLSI       36.50   1.000   S
 KCSI       61.40   1.000   S
 TPTI       61.60   1.000   S
# 2013 07 22 15 26 13.9  000.89    099.45     10.0  3.3   0.0   0.0   0.766        82
 MNSI        2.30   1.000   P
 MNSI        6.00   1.000   S
 BKNI       28.80   1.000   P
  PSI       31.00   1.000   P
  GSI       32.20   1.000   P
 SDSI       43.10   1.000   P
 KCSI       48.40   1.000   P
 BKNI       52.30   1.000   S
# 2013 07 22 16 37 23.3  -06.12    103.81     10.0  4.6   0.0   0.0   0.993        83
 LWLI       20.30   1.000   P
 BLSI       28.30   1.000   P
  KLI       28.80   1.000   P
 MDSI       29.00   1.000   P
 KLSI       29.40   1.000   P
 EGSI       29.90   1.000   P
 MNAI       32.40   1.000   P
 CGJI       32.40   1.000   P
 LWLI       35.40   1.000   S
 SBJI       38.50   1.000   P
 LHSI       38.80   1.000   P
 UBSI       45.40   1.000   P
 BLSI       48.50   1.000   S
 MDSI       49.90   1.000   S
  KLI       50.10   1.000   S
 KLSI       51.20   1.000   S
 PMBI       53.10   1.000   P
 CISI       65.20   1.000   P
 MKBI       66.60   1.000   P
 XMIS       67.60   1.000   P
 KRJI       71.30   1.000   P
 CMJI       74.80   1.000   P
 PPSI       75.30   1.000   P
 PDSI       90.30   1.000   P
 SISI       97.20   1.000   P
# 2013 07 22 16 44 24.5  004.81    096.10     10.0  3.5   0.0   0.0   0.680        84
 MLSI       11.80   1.000   P
 LHMI       17.50   1.000   P
 MLSI       21.50   1.000   S
 LHMI       31.20   1.000   S
 TPTI       31.90   1.000   P
 KCSI       36.60   1.000   P
# 2013 07 23 05 25 58.3  -04.51    102.57     29.0  4.3   0.0   0.0   0.428        85
 MNAI       10.60   1.000   P
 UBSI       14.90   1.000   P
 EGSI       17.20   1.000   P
 MNAI       17.70   1.000   S
 LHSI       20.40   1.000   P
 LWLI       25.80   1.000   P
 MDSI       26.10   1.000   P
 UBSI       26.90   1.000   S
 KASI       33.90   1.000   P
 LHSI       36.50   1.000   S
 MKBI       37.20   1.000   P
 KRJI       41.50   1.000   P
 MDSI       46.50   1.000   S
 PPSI       47.20   1.000   P
 PDSI       61.70   1.000   P
 SISI       68.40   1.000   P
 KRJI       72.50   1.000   S
# 2013 07 23 15 45 16.1  -04.75    102.59     30.0  4.4   0.0   0.0   1.340        86
 MNAI       11.90   1.000   P
 EGSI       13.80   1.000   P
 UBSI       19.20   1.000   P
 MNAI       19.40   1.000   S
 LHSI       23.20   1.000   P
 LWLI       24.70   1.000   P
 EGSI       25.20   1.000   S
 MDSI       26.50   1.000   P
 UBSI       31.20   1.000   S
 KLSI       34.50   1.000   P
  KLI       38.00   1.000   P
 LHSI       40.80   1.000   S
 MKBI       41.60   1.000   P
 LWLI       42.00   1.000   S
 BLSI       42.50   1.000   P
 KRJI       45.80   1.000   P
 MDSI       46.50   1.000   S
 PPSI       49.70   1.000   P
 JMBI       50.40   1.000   P
 CGJI       53.60   1.000   P
 SDSI       58.40   1.000   P
 KLSI       59.90   1.000   S
 PPBI       61.40   1.000   P
 PDSI       64.90   1.000   P
 RGRI       65.30   1.000   P
 DSRI       70.30   1.000   P
 SISI       71.70   1.000   P
 MKBI       74.10   1.000   S
 BLSI       74.20   1.000   S
  TPI       79.10   1.000   P
 KRJI       79.70   1.000   S
 CISI       84.50   1.000   P
 PPSI       87.20   1.000   S
 CMJI       93.70   1.000   P
  GSI      110.90   1.000   P
 PDSI      113.50   1.000   S
 SISI      124.90   1.000   S
 KCSI      132.10   1.000   P
 MLSI      151.80   1.000   P
# 2013 07 24 08 21 09.9  002.22    097.50     10.0  4.0   0.0   0.0   0.784        87
  GSI       16.90   1.000   P
 TPTI       19.70   1.000   P
 KCSI       23.30   1.000   P
 SNSI       23.50   1.000   P
 TRSI       25.20   1.000   P
  PSI       26.00   1.000   P
  TSI       29.30   1.000   P
  GSI       30.60   1.000   S
 TPTI       34.70   1.000   S
 SBSI       35.70   1.000   P
 MLSI       39.20   1.000   P
 KCSI       41.20   1.000   S
  PSI       47.60   1.000   S
  TSI       51.60   1.000   S
 SBSI       62.40   1.000   S
  KUM       67.30   1.000   P
# 2013 07 24 19 23 03.1  002.12    096.09     12.0  3.4   0.0   0.0   0.446        88
 SNSI        9.00   1.000   P
 SNSI       14.10   1.000   S
  GSI       29.30   1.000   P
 MLSI       35.40   1.000   P
 KCSI       36.80   1.000   P
  PSI       46.20   1.000   P
 MNSI       57.00   1.000   P
