# 2013 04 01 20 04 30.2  039.47    143.32     10.0  5.0   0.0   0.0   1.127        77
 TWGB      325.80   1.000   P
  ULN      345.60   1.000   P
 CHTO      482.40   1.000   P
 CMMT      482.40   1.000   P
 MRSI      483.20   1.000   P
 SANI      490.90   1.000   P
 SRDT      503.80   1.000   P
 SPSI      522.00   1.000   P
  KSM      522.70   1.000   P
 BNSI      525.10   1.000   P
 KAPI      529.60   1.000   P
  AAK      540.10   1.000   P
 PKDT      542.30   1.000   P
 LRTI      544.10   1.000   P
  KUM      546.50   1.000   P
 EDFI      547.90   1.000   P
 PPBI      562.60   1.000   P
  PSI      566.20   1.000   P
 PWJI      574.00   1.000   P
 MDSI      581.00   1.000   P
  LEM      583.90   1.000   P
  KBL      591.60   1.000   P
 WRAB      604.30   1.000   P
 FITZ      604.50   1.000   P
# 2013 04 02 02 08 52.7  038.99    142.83     20.0  5.4   0.0   0.0   1.163        78
  JOW      238.90   1.000   P
  JMJ      276.50   1.000   P
  YOJ      294.50   1.000   P
 TATO      301.10   1.000   P
 TWGB      318.00   1.000   P
 KMNB      324.60   1.000   P
 GUMO      325.70   1.000   P
 TMSI      460.70   1.000   P
 RKPI      462.30   1.000   P
 SIJI      462.40   1.000   P
 SMSI      470.90   1.000   P
 FAKI      475.60   1.000   P
TOLI2      475.80   1.000   P
 MRSI      477.30   1.000   P
 SANI      483.00   1.000   P
 MPSI      484.70   1.000   P
 CHBT      487.70   1.000   P
 APSI      487.90   1.000   P
 AAII      490.70   1.000   P
 PHET      502.40   1.000   P
 BNSI      519.20   1.000   P
 KAPI      522.50   1.000   P
 SKLT      531.40   1.000   P
 MMRI      541.90   1.000   P
 EDFI      543.00   1.000   P
 BTDF      546.80   1.000   P
 SRBI      556.70   1.000   P
 PPBI      556.90   1.000   P
 KLNI      557.80   1.000   P
 RPSI      559.90   1.000   P
  PSI      560.60   1.000   P
 GRJI      562.20   1.000   P
 RGRI      562.90   1.000   P
 BKNI      563.90   1.000   P
 SDSI      568.90   1.000   P
 NGJI      569.00   1.000   P
 MNSI      569.60   1.000   P
 PWJI      569.60   1.000   P
 SLSI      572.70   1.000   P
 MDSI      576.20   1.000   P
 BLSI      576.60   1.000   P
 PDSI      576.70   1.000   P
 LHSI      577.00   1.000   P
  GSI      577.30   1.000   P
 CBJI      577.40   1.000   P
  KLI      577.50   1.000   P
  LEM      577.60   1.000   P
 MKBI      577.90   1.000   P
# 2013 04 05 20 00 47.3  037.29    141.95     48.0  5.3   0.0   0.0   0.550        79
 TNTI      440.00   1.000   P
  MNI      441.50   1.000   P
 TMSI      441.90   1.000   P
 SIJI      443.90   1.000   P
 KMSI      451.40   1.000   P
 MRSI      458.80   1.000   P
 SANI      463.80   1.000   P
 MPSI      467.10   1.000   P
 APSI      470.00   1.000   P
 BNDI      475.70   1.000   P
 MMSI      491.90   1.000   P
 KKSI      494.00   1.000   P
 SPSI      497.80   1.000   P
  KSM      499.10   1.000   P
 BNSI      500.50   1.000   P
 BBSI      500.80   1.000   P
 KAPI      506.00   1.000   P
 BKSI      506.60   1.000   P
 LRTI      519.70   1.000   P
 MMRI      524.20   1.000   P
 EDFI      525.60   1.000   P
 SOEI      527.20   1.000   P
 LBFI      528.80   1.000   P
 BATI      531.90   1.000   P
 DBNI      534.80   1.000   P
 PLAI      537.10   1.000   P
 KMMI      539.60   1.000   P
 SRBI      542.00   1.000   P
 GRJI      544.00   1.000   P
 RTBI      544.90   1.000   P
  DNP      545.20   1.000   P
 BYJI      545.80   1.000   P
 JAGI      548.00   1.000   P
 GMJI      548.80   1.000   P
  KRK      551.10   1.000   P
 SWJI      551.30   1.000   P
 PWJI      552.20   1.000   P
  BJI      557.10   1.000   P
 CTJI      557.10   1.000   P
  UGM      557.50   1.000   P
 KPJI      559.60   1.000   P
 KRJI      561.30   1.000   P
  GSI      561.70   1.000   P
 MKBI      564.30   1.000   P
 KASI      567.40   1.000   P
 WRAB      583.70   1.000   P
 HALK      626.20   1.000   P
 NWAO      688.50   1.000   P
 QSPA     1138.20   1.000   P
# 2013 04 12 20 33 18.3  034.27    134.96     10.0  5.9   0.0   0.0   0.705        80
  JOW      133.90   1.000   P
 TATO      211.10   1.000   P
 TWGB      233.50   1.000   P
 KMNB      243.80   1.000   P
 GUMO      299.60   1.000   P
  ULN      321.90   1.000   P
  MNI      404.50   1.000   P
 TMSI      404.60   1.000   P
 TNTI      405.20   1.000   P
 KMSI      413.70   1.000   P
 SIJI      413.70   1.000   P
 SMSI      413.90   1.000   P
TOLI2      416.80   1.000   P
 CHTO      417.80   1.000   P
 CMMT      417.80   1.000   P
 MRSI      420.00   1.000   P
 MHIT      422.20   1.000   P
 OBMI      422.20   1.000   P
 MPSI      426.30   1.000   P
 SANI      429.50   1.000   P
 LUWI      429.70   1.000   P
  JAY      429.80   1.000   P
 FAKI      430.60   1.000   P
 GENI      430.80   1.000   P
 APSI      431.30   1.000   P
 SRDT      438.10   1.000   P
 PHET      442.40   1.000   P
 BNDI      445.70   1.000   P
 MMSI      452.40   1.000   P
 PMSI      460.00   1.000   P
 BNSI      463.10   1.000   P
 BBSI      466.00   1.000   P
 BKSI      470.20   1.000   P
 BSSI      475.00   1.000   P
 LRTI      486.20   1.000   P
 BTDF      487.00   1.000   P
 MMRI      490.20   1.000   P
 EDFI      491.60   1.000   P
 LBFI      492.80   1.000   P
 SOEI      494.80   1.000   P
  TPI      495.70   1.000   P
  PMG      496.00   1.000   P
 DBNI      497.40   1.000   P
 PPBI      497.70   1.000   P
 BATI      498.70   1.000   P
 KMMI      500.80   1.000   P
 PLAI      500.80   1.000   P
 KLNI      503.80   1.000   P
 SRBI      504.30   1.000   P
 RPSI      504.70   1.000   P
  KHK      505.20   1.000   P
 WBSI      505.20   1.000   P
 GRJI      505.70   1.000   P
 BKNI      506.90   1.000   P
  MTN      510.60   1.000   P
 MNSI      511.30   1.000   P
 SWJI      512.30   1.000   P
 SMRI      514.00   1.000   P
 PWJI      514.20   1.000   P
  KRK      515.10   1.000   P
 WOJI      516.70   1.000   P
  GSI      517.40   1.000   P
  BJI      517.70   1.000   P
 CTJI      518.40   1.000   P
 KRJI      519.60   1.000   P
 KPJI      520.10   1.000   P
  KLI      520.60   1.000   P
 LHSI      520.60   1.000   P
 MDSI      520.90   1.000   P
 MKBI      521.30   1.000   P
  LEM      522.30   1.000   P
 BLSI      522.50   1.000   P
 COEN      523.70   1.000   P
 LWLI      524.50   1.000   P
 CISI      525.50   1.000   P
 SISI      525.50   1.000   P
 KASI      526.60   1.000   P
 FITZ      555.80   1.000   P
  KBL      560.30   1.000   P
 WRAB      563.20   1.000   P
  CTA      572.00   1.000   P
 CTAO      572.50   1.000   P
 MALK      578.60   1.000   P
 HALK      587.30   1.000   P
# 2013 04 17 08 57 39.9  034.24    139.47     43.0  5.5   0.0   0.0   0.896        81
  JOW      169.10   1.000   P
 GUMO      280.30   1.000   P
 PATS      386.30   1.000   P
 CMMT      442.00   1.000   P
  SBM      454.00   1.000   P
 SRDT      462.50   1.000   P
  PMG      482.10   1.000   P
 CTAO      559.80   1.000   P
 WRAB      560.10   1.000   P
 MALK      600.30   1.000   P
 HALK      607.20   1.000   P
 NWAO      666.50   1.000   P
  EIL      747.30   1.000   P
 MSEY      764.20   1.000   P
 LODK      818.80   1.000   P
 KIBK      823.00   1.000   P
 QSPA     1130.90   1.000   P
# 2013 04 29 13 01 42.6  035.91    141.08     30.0  5.6   0.0   0.0   1.626        82
  JOW      204.30   1.000   P
  JMJ      242.20   1.000   P
  YOJ      264.50   1.000   P
 TWGB      286.10   1.000   P
 GUMO      299.60   1.000   P
 SGSI      408.70   1.000   P
  MNI      428.20   1.000   P
 TNTI      428.30   1.000   P
 MWPI      429.10   1.000   P
 TMSI      430.80   1.000   P
  SWI      431.00   1.000   P
 KMSI      440.20   1.000   P
 GENI      440.40   1.000   P
 SMSI      441.50   1.000   P
TOLI2      446.30   1.000   P
 MRSI      446.90   1.000   P
 FAKI      447.30   1.000   P
 SANI      452.70   1.000   P
 LUWI      454.80   1.000   P
 APSI      458.90   1.000   P
 AAII      462.70   1.000   P
 BNDI      467.70   1.000   P
 SGKI      469.80   1.000   P
 SMKI      473.80   1.000   P
  BKB      480.00   1.000   P
 TTSI      481.20   1.000   P
 MMSI      481.90   1.000   P
 MTKI      486.10   1.000   P
 SPSI      488.90   1.000   P
 BNSI      490.30   1.000   P
 BBSI      492.30   1.000   P
 KAPI      495.70   1.000   P
 BKSI      495.90   1.000   P
  PMG      496.90   1.000   P
 LRTI      505.60   1.000   P
 MMRI      513.40   1.000   P
 LBFI      518.30   1.000   P
 SOEI      518.50   1.000   P
 TPRI      521.00   1.000   P
 BATI      523.30   1.000   P
 BTDF      523.60   1.000   P
  MTN      527.80   1.000   P
  TPI      528.20   1.000   P
 PLAI      528.40   1.000   P
 COEN      531.00   1.000   P
  KHK      532.20   1.000   P
 PPBI      532.70   1.000   P
  AAK      535.00   1.000   P
 GRJI      535.20   1.000   P
 BYJI      537.70   1.000   P
 JAGI      538.90   1.000   P
 GMJI      539.10   1.000   P
 KCSI      539.50   1.000   P
 NGJI      541.60   1.000   P
 TPTI      541.90   1.000   P
 SWJI      542.30   1.000   P
 SMRI      542.50   1.000   P
 PWJI      543.40   1.000   P
 PMBI      544.20   1.000   P
 MNSI      545.00   1.000   P
 WOJI      545.40   1.000   P
 MLSI      545.80   1.000   P
 PCJI      545.80   1.000   P
 YOGI      546.00   1.000   P
  BJI      547.20   1.000   P
  UGM      547.80   1.000   P
  PPI      550.30   1.000   P
  LEM      552.60   1.000   P
  KLI      553.30   1.000   P
 MDSI      554.00   1.000   P
  GSI      554.80   1.000   P
 CISI      555.50   1.000   P
 SNSI      555.60   1.000   P
 MNAI      556.40   1.000   P
 CGJI      560.20   1.000   P
  NIL      568.40   1.000   P
 FITZ      573.70   1.000   P
  CTA      575.40   1.000   P
 CTAO      575.70   1.000   P
 WRAB      576.10   1.000   P
  KBL      588.20   1.000   P
 EIDS      613.40   1.000   P
 MALK      614.00   1.000   P
 HALK      622.50   1.000   P
 MEEK      641.10   1.000   P
 ARMA      649.90   1.000   P
 CMSA      652.00   1.000   P
 FORT      654.50   1.000   P
 STKA      654.50   1.000   P
  LHI      660.70   1.000   P
 MORW      661.20   1.000   P
 KMBL      664.60   1.000   P
 BLDU      669.40   1.000   P
  YNG      670.80   1.000   P
  CNB      673.30   1.000   P
 NWAO      681.00   1.000   P
  TOO      685.20   1.000   P
  EIL      751.70   1.000   P
 DAMY      765.50   1.000   P
# 2013 05 01 23 13 05.2  034.79    141.71     10.0  5.2   0.0   0.0   1.021        83
  JOW      199.00   1.000   P
  JMJ      243.00   1.000   P
  YOJ      263.70   1.000   P
 TATO      274.50   1.000   P
 GUMO      288.20   1.000   P
 TWGB      290.30   1.000   P
 KMNB      300.80   1.000   P
 TMSI      427.90   1.000   P
 SMSI      438.90   1.000   P
TOLI2      443.30   1.000   P
 MRSI      443.80   1.000   P
 CHTO      463.30   1.000   P
 MTKI      485.60   1.000   P
 SPSI      486.00   1.000   P
 BNSI      488.20   1.000   P
 KAPI      491.90   1.000   P
 LRTI      507.60   1.000   P
 MMRI      511.10   1.000   P
 SOEI      514.30   1.000   P
 LBFI      516.10   1.000   P
 PLAI      525.50   1.000   P
  TPI      527.80   1.000   P
  KHK      530.50   1.000   P
 PPBI      533.60   1.000   P
 SWJI      541.40   1.000   P
 PWJI      542.50   1.000   P
  BJI      546.60   1.000   P
  UGM      546.90   1.000   P
 YOGI      548.60   1.000   P
  AAK      548.70   1.000   P
 CISI      554.30   1.000   P
 CBJI      555.80   1.000   P
# 2013 05 28 19 24 28.4  034.02    140.47     45.0  5.2   0.0   0.0   1.162        84
  YOJ      247.90   1.000   P
 GUMO      275.40   1.000   P
  ULN      351.10   1.000   P
 SMSI      424.90   1.000   P
 SANI      436.60   1.000   P
 LUWI      439.20   1.000   P
 AAII      443.40   1.000   P
 CHTO      449.40   1.000   P
 BNSI      473.50   1.000   P
  KSM      475.00   1.000   P
 KAPI      477.40   1.000   P
 SOEI      501.60   1.000   P
 LBFI      502.80   1.000   P
  KOM      505.20   1.000   P
  MTN      508.30   1.000   P
  AAK      539.10   1.000   P
 WRAB      558.60   1.000   P
  CTA      559.70   1.000   P
  NIL      565.20   1.000   P
  KBL      586.20   1.000   P
 MBWA      590.10   1.000   P
 HALK      614.50   1.000   P
 FORT      637.70   1.000   P
 CMSA      638.20   1.000   P
 STKA      638.30   1.000   P
 MORW      647.00   1.000   P
 KMBL      650.00   1.000   P
 BLDU      655.30   1.000   P
  YNG      657.40   1.000   P
 NWAO      667.20   1.000   P
  CNB      668.40   1.000   P
# 2013 06 06 03 28 50.1  035.67    140.62     10.0  5.1   0.0   0.0   0.864        85
  JOW      194.90   1.000   P
  JMJ      241.50   1.000   P
 TWGB      286.00   1.000   P
  ULN      348.20   1.000   P
 MWPI      429.60   1.000   P
 TMSI      431.30   1.000   P
 SIJI      433.50   1.000   P
 SRPI      434.90   1.000   P
 GENI      439.70   1.000   P
 SMSI      441.10   1.000   P
 OBMI      445.40   1.000   P
TOLI2      445.70   1.000   P
 MRSI      447.00   1.000   P
 FAKI      448.60   1.000   P
 MPSI      454.30   1.000   P
 APSI      458.00   1.000   P
 CHTO      459.30   1.000   P
 SPSI      488.10   1.000   P
 BNSI      489.60   1.000   P
 KAPI      495.20   1.000   P
 BKSI      495.80   1.000   P
 LRTI      509.50   1.000   P
 EDFI      516.40   1.000   P
 SOEI      517.90   1.000   P
  TPI      526.70   1.000   P
 COEN      530.60   1.000   P
 KLNI      531.50   1.000   P
 SRBI      532.20   1.000   P
  PSI      538.90   1.000   P
 PWJI      543.00   1.000   P
 SDSI      546.40   1.000   P
 SLSI      549.00   1.000   P
 MDSI      552.70   1.000   P
 LHSI      553.00   1.000   P
  GSI      553.00   1.000   P
# 2013 06 26 17 12 05.8  039.81    144.21     10.0  4.9   0.0   0.0   0.583        86
 TWGB      332.30   1.000   P
  ULN      348.40   1.000   P
 CHTO      487.60   1.000   P
  KSM      527.80   1.000   P
  AAK      542.50   1.000   P
  NIL      578.60   1.000   P
  KBL      596.10   1.000   P
 WRAB      607.30   1.000   P
# 2013 07 03 15 06 16.2  037.12    140.53     21.0  5.0   0.0   0.0   1.392        87
 TWGB      291.60   1.000   P
  ULN      338.00   1.000   P
  SLV      415.80   1.000   P
 SGSI      419.30   1.000   P
  DLV      439.10   1.000   P
 TMSI      441.80   1.000   P
 LBMI      449.50   1.000   P
 SMSI      450.00   1.000   P
 GENI      451.50   1.000   P
 CHTO      460.20   1.000   P
 APSI      466.70   1.000   P
 KRAI      467.00   1.000   P
 MKAR      481.10   1.000   P
 SPSI      495.50   1.000   P
 KAPI      499.30   1.000   P
 PDGK      502.70   1.000   P
 SOEI      525.60   1.000   P
  AAK      530.00   1.000   P
  KBL      581.80   1.000   P
# 2013 07 10 05 22 36.1  040.05    136.86     16.0  5.4   0.0   0.0   1.008        88
  JOW      209.90   1.000   P
  JMJ      249.10   1.000   P
  YOJ      263.70   1.000   P
 TATO      267.80   1.000   P
 TWGB      289.60   1.000   P
 KMNB      292.20   1.000   P
  ULN      301.30   1.000   P
 GUMO      344.80   1.000   P
  SLV      400.40   1.000   P
  DLV      433.10   1.000   P
 CHTO      443.50   1.000   P
 MKAR      448.70   1.000   P
 TNTI      451.50   1.000   P
 TMSI      453.60   1.000   P
  MNI      453.70   1.000   P
  SHL      454.70   1.000   P
 MWPI      460.20   1.000   P
 SIJI      461.20   1.000   P
 LBMI      466.10   1.000   P
TOLI2      466.30   1.000   P
 PDGK      471.30   1.000   P
  SIM      473.60   1.000   P
  JAY      474.60   1.000   P
 SANI      475.60   1.000   P
 LUWI      477.60   1.000   P
 MANU      478.40   1.000   P
 APSI      478.70   1.000   P
 NBPI      479.90   1.000   P
 KRAI      482.90   1.000   P
 MSAI      485.60   1.000   P
 SGKI      486.00   1.000   P
  AAI      487.50   1.000   P
 AAII      487.50   1.000   P
 SMKI      488.20   1.000   P
  BKB      492.80   1.000   P
 BNDI      493.30   1.000   P
 MTKI      496.50   1.000   P
  KSM      497.30   1.000   P
 TTSI      499.40   1.000   P
  AAK      500.80   1.000   P
 STKI      501.70   1.000   P
 RABL      504.50   1.000   P
 PMSI      505.90   1.000   P
 SPSI      506.40   1.000   P
 BNSI      509.90   1.000   P
 KAPI      514.70   1.000   P
 BKSI      516.00   1.000   P
  IPM      516.70   1.000   P
  PBA      518.40   1.000   P
 SAUI      519.70   1.000   P
 BSSI      521.20   1.000   P
 KKAR      521.90   1.000   P
 LRTI      530.40   1.000   P
 DSRI      532.30   1.000   P
  TSI      532.50   1.000   P
 MMRI      534.00   1.000   P
  PMG      534.00   1.000   P
  TPI      534.60   1.000   P
 PPBI      535.30   1.000   P
  NIL      535.40   1.000   P
 TARA      535.60   1.000   P
 EDFI      536.10   1.000   P
 RPSI      538.10   1.000   P
  PSI      538.40   1.000   P
 KCSI      539.10   1.000   P
 KMMI      541.60   1.000   P
 TPTI      541.60   1.000   P
 SBSI      543.30   1.000   P
 BATI      544.10   1.000   P
 PLAI      544.60   1.000   P
 MNSI      545.60   1.000   P
 WBSI      546.60   1.000   P
 GRJI      546.90   1.000   P
  DNP      551.10   1.000   P
 PDSI      551.90   1.000   P
 BYJI      552.60   1.000   P
 NGJI      552.60   1.000   P
  GSI      552.90   1.000   P
 SWJI      553.90   1.000   P
  KBL      554.40   1.000   P
 GMJI      554.60   1.000   P
  MTN      555.40   1.000   P
  KRK      555.60   1.000   P
 SMRI      555.60   1.000   P
 KRJI      555.90   1.000   P
 PBSI      556.40   1.000   P
 CTJI      557.40   1.000   P
 LHSI      557.40   1.000   P
 WOJI      557.60   1.000   P
 JCJI      558.40   1.000   P
 PWJI      559.30   1.000   P
  KLI      559.70   1.000   P
 MDSI      559.70   1.000   P
 SISI      560.40   1.000   P
  LEM      560.70   1.000   P
  UGM      561.40   1.000   P
 UBSI      563.70   1.000   P
# 2013 07 15 22 45 54.7  039.55    141.86     10.0  5.3   0.0   0.0   0.871        89
 TWGB      314.70   1.000   P
 KMNB      319.50   1.000   P
  SLV      430.40   1.000   P
 SIJI      464.90   1.000   P
 CHTO      473.10   1.000   P
 MKAR      479.20   1.000   P
 KRAI      491.30   1.000   P
 PDGK      501.00   1.000   P
 KAPI      524.90   1.000   P
  AAK      530.60   1.000   P
 KKAR      549.10   1.000   P
  MTN      554.30   1.000   P
  PSI      559.30   1.000   P
  KBL      583.10   1.000   P
