# 2012 12 15 04 27 01.6  037.15    140.95     33.0  5.4   0.0   0.0   0.943        62
 CBIJ      140.00   1.000   P
  JOW      206.70   1.000   P
 TATO      274.40   1.000   P
 TWGB      292.00   1.000   P
 KMNB      301.70   1.000   P
  ULN      337.00   1.000   P
 OBMI      452.10   1.000   P
 MRSI      456.40   1.000   P
 PBKT      457.50   1.000   P
 CMMT      458.70   1.000   P
 CHTO      459.30   1.000   P
 KMPI      460.00   1.000   P
 APSI      467.20   1.000   P
 NLAI      470.00   1.000   P
 SRDT      479.30   1.000   P
 SPSI      495.40   1.000   P
 BNSI      497.90   1.000   P
 BKSI      504.30   1.000   P
 ATNI      517.30   1.000   P
 EDFI      523.30   1.000   P
  AAK      530.80   1.000   P
 COEN      536.90   1.000   P
 KLNI      538.40   1.000   P
  PSI      542.20   1.000   P
 RTBI      542.20   1.000   P
 COEN      547.70   1.000   S
 PWJI      549.30   1.000   P
 MNSI      549.90   1.000   P
 SWJI      550.70   1.000   P
 SDSI      552.00   1.000   P
 SLSI      555.50   1.000   P
 KPJI      556.90   1.000   P
 MDSI      559.00   1.000   P
 MKBI      560.70   1.000   P
  NIL      562.10   1.000   P
  KBL      581.20   1.000   P
 WRAB      581.60   1.000   P
 CTAO      581.90   1.000   P
 MBWA      612.00   1.000   P
 MEEK      648.10   1.000   P
 ARMA      655.10   1.000   P
 CMSA      657.90   1.000   P
 STKA      658.50   1.000   P
 FORT      658.90   1.000   P
 MORW      668.60   1.000   P
  YNG      676.10   1.000   P
 UOSS      676.60   1.000   P
  EIL      746.60   1.000   P
# 2012 12 18 10 25 45.7  038.27    142.12     31.0  4.7   0.0   0.0   0.806        63
 CBIJ      157.00   1.000   P
  ULN      340.60   1.000   P
 SKNT      447.80   1.000   P
 SIJI      452.90   1.000   P
 OBMI      466.90   1.000   P
 FAKI      467.30   1.000   P
 PBKT      468.60   1.000   P
 CHTO      469.60   1.000   P
 CMMT      469.80   1.000   P
 SANI      474.20   1.000   P
 APSI      478.60   1.000   P
  KSM      507.30   1.000   P
 SKLT      520.20   1.000   P
 PKDT      529.30   1.000   P
 ATNI      530.30   1.000   P
  AAK      533.50   1.000   P
  NIL      567.30   1.000   P
  KBL      586.50   1.000   P
 WRAB      592.80   1.000   P
 PALK      623.10   1.000   P
# 2012 12 18 18 36 23.3  036.67    141.96     24.0  5.2   0.0   0.0   0.410        64
 SANI      462.40   1.000   P
 CMMT      466.10   1.000   P
 CHTO      466.20   1.000   P
 SRDT      486.40   1.000   P
 MMSI      490.40   1.000   P
 PHET      490.50   1.000   P
 SPSI      496.50   1.000   P
 BNSI      498.80   1.000   P
 BKSI      504.70   1.000   P
 ATNI      518.80   1.000   P
 EDFI      523.90   1.000   P
 SOEI      525.40   1.000   P
 LBFI      528.30   1.000   P
 BATI      530.10   1.000   P
 COEN      535.20   1.000   P
  WSI      535.30   1.000   P
 KLNI      539.90   1.000   P
 PPBI      540.00   1.000   P
 PWJI      552.40   1.000   P
  PPI      557.40   1.000   P
 SLSI      557.70   1.000   P
 KPJI      559.30   1.000   P
 MDSI      561.30   1.000   P
  GSI      562.20   1.000   P
 FITZ      580.70   1.000   P
 WRAB      581.50   1.000   P
  KBL      589.70   1.000   P
 MBWA      612.80   1.000   P
# 2012 12 29 14 59 33.4  038.70    142.15     12.0  5.6   0.0   0.0   0.912        65
 CBIJ      164.20   1.000   P
  JOW      232.40   1.000   P
  YOJ      289.40   1.000   P
 TATO      295.80   1.000   P
 TWGB      312.80   1.000   P
 KMNB      319.80   1.000   P
  ULN      341.30   1.000   P
 SKNT      452.20   1.000   P
 TNTI      455.60   1.000   P
  KKM      456.90   1.000   P
  MNI      457.70   1.000   P
 SIJI      460.20   1.000   P
 SRPI      462.10   1.000   P
 SMSI      465.70   1.000   P
 KMSI      467.40   1.000   P
 OBMI      471.70   1.000   P
 PBKT      472.10   1.000   P
TOLI2      472.40   1.000   P
 CMMT      473.20   1.000   P
 CHTO      473.40   1.000   P
 MRSI      474.10   1.000   P
 FAKI      475.20   1.000   P
 SANI      479.70   1.000   P
 MPSI      481.80   1.000   P
 APSI      484.90   1.000   P
  PCI      490.00   1.000   P
 BNDI      491.40   1.000   P
 SRDT      495.00   1.000   P
  SBM      497.30   1.000   P
  BKB      504.00   1.000   P
  KDI      505.40   1.000   P
 MMSI      506.60   1.000   P
 MTKI      509.80   1.000   P
 KKSI      509.90   1.000   P
 PMSI      512.50   1.000   P
 SPSI      512.90   1.000   P
  KSM      513.00   1.000   P
 BNSI      515.40   1.000   P
 BBSI      516.60   1.000   P
 STKI      516.70   1.000   P
 KBKI      520.10   1.000   P
 KAPI      521.00   1.000   P
 BKSI      521.20   1.000   P
 SKLT      526.00   1.000   P
  AAK      535.50   1.000   P
  KUM      536.10   1.000   P
  IPM      538.10   1.000   P
 MMRI      538.80   1.000   P
  KOM      539.70   1.000   P
 EDFI      540.10   1.000   P
 SOEI      541.60   1.000   P
 LBFI      542.90   1.000   P
 BTDF      543.20   1.000   P
 BATI      546.10   1.000   P
 DBNI      547.80   1.000   P
 PLAI      550.40   1.000   P
 PPBI      552.10   1.000   P
 COEN      552.60   1.000   P
 KMMI      552.70   1.000   P
 SRBI      554.60   1.000   P
 KLNI      554.80   1.000   P
 LHMI      555.50   1.000   P
  KHK      555.60   1.000   P
 KCSI      557.60   1.000   P
 RTBI      557.70   1.000   P
 RPSI      557.80   1.000   P
  PSI      557.90   1.000   P
 RGRI      560.10   1.000   P
 BKNI      562.10   1.000   P
 JMBI      562.50   1.000   P
 SWJI      564.30   1.000   P
  KRK      564.40   1.000   P
 NGJI      564.50   1.000   P
 PMBI      564.50   1.000   P
 PWJI      565.10   1.000   P
 SMRI      565.80   1.000   P
 SDSI      567.10   1.000   P
  NIL      569.10   1.000   P
  UGM      569.70   1.000   P
 CTJI      569.80   1.000   P
 SLSI      569.90   1.000   P
 KPJI      572.00   1.000   P
  GSI      573.10   1.000   P
  KLI      573.60   1.000   P
 MDSI      574.20   1.000   P
  LEM      574.30   1.000   P
 BLSI      574.50   1.000   P
 KASI      576.90   1.000   P
  KBL      587.30   1.000   P
 FITZ      596.10   1.000   P
 WRAB      597.00   1.000   P
# 2012 12 29 23 05 20.1  036.88    141.26     10.0  5.2   0.0   0.0   0.639        66
 CBIJ      139.00   1.000   P
  ULN      344.60   1.000   P
 SIJI      444.30   1.000   P
 OBMI      456.10   1.000   P
 MRSI      458.10   1.000   P
 FAKI      459.90   1.000   P
 PBKT      461.30   1.000   P
 SANI      464.10   1.000   P
 CHTO      464.10   1.000   P
 CMMT      464.30   1.000   P
 APSI      469.50   1.000   P
 BNDI      475.10   1.000   P
  PCI      475.40   1.000   P
 SRDT      485.00   1.000   P
 SPSI      498.20   1.000   P
 SAUI      500.50   1.000   P
 BNSI      500.60   1.000   P
 STKI      502.90   1.000   P
 KAPI      506.50   1.000   P
 BKSI      506.70   1.000   P
  PMG      507.10   1.000   P
  AAK      538.20   1.000   P
  NIL      568.10   1.000   P
 WRAB      584.40   1.000   P
  KBL      587.40   1.000   P
 MBWA      615.50   1.000   P
 UOSS      683.20   1.000   P
  EIL      752.00   1.000   P
# 2013 01 07 13 53 45.3  037.75    142.46     13.0  5.3   0.0   0.0   0.229        67
 CBIJ      152.00   1.000   P
  JOW      227.20   1.000   P
 TWGB      310.60   1.000   P
  ULN      347.50   1.000   P
 MRSI      468.10   1.000   P
 CHTO      473.50   1.000   P
 SANI      474.70   1.000   P
 RGRI      556.60   1.000   P
  GSI      570.60   1.000   P
 MDSI      571.10   1.000   P
  NIL      572.10   1.000   P
  KBL      591.90   1.000   P
# 2013 01 23 21 31 02.9  037.87    141.99     21.0  5.0   0.0   0.0   0.406        68
  ULN      342.80   1.000   P
 PBKT      467.40   1.000   P
 CMMT      469.40   1.000   P
 CHTO      470.30   1.000   P
 SANI      472.80   1.000   P
 SRDT      490.20   1.000   P
 PHET      494.90   1.000   P
  AAK      536.10   1.000   P
  GSI      566.70   1.000   P
  NIL      568.10   1.000   P
  KBL      587.40   1.000   P
 WRAB      590.80   1.000   P
  EIL      750.90   1.000   P
# 2013 01 27 18 41 41.7  036.75    140.64     15.0  5.3   0.0   0.0   0.438        69
 CBIJ      138.30   1.000   P
  JOW      202.60   1.000   P
  JMJ      244.80   1.000   P
 TATO      272.60   1.000   P
 TWGB      291.60   1.000   P
  ULN      340.90   1.000   P
 SIJI      440.90   1.000   P
 PBKT      456.70   1.000   P
 CMMT      458.30   1.000   P
 CHTO      458.60   1.000   P
 MTKI      490.80   1.000   P
 BNSI      496.70   1.000   P
 STKI      498.10   1.000   P
 BKSI      501.80   1.000   P
 LRTI      516.30   1.000   P
 EDFI      522.10   1.000   P
 SOEI      523.70   1.000   P
 BATI      528.90   1.000   P
 PPBI      535.60   1.000   P
 KLNI      536.70   1.000   P
  KHK      537.90   1.000   P
  KRK      547.00   1.000   P
  GSI      556.40   1.000   P
# 2013 02 09 04 43 03.3  036.95    141.57     10.0  5.6   0.0   0.0   1.077        70
  ULN      345.80   1.000   P
 TMSI      443.50   1.000   P
 SIJI      445.50   1.000   P
 SANI      465.60   1.000   P
 CHTO      465.60   1.000   P
 CMMT      466.10   1.000   P
 BNDI      476.10   1.000   P
 MTKI      496.90   1.000   P
 SPSI      497.20   1.000   P
 BNSI      500.90   1.000   P
 KAPI      506.20   1.000   P
 BKSI      508.30   1.000   P
 ALKI      513.60   1.000   P
 EDFI      524.70   1.000   P
 SOEI      526.80   1.000   P
 LBFI      529.50   1.000   P
 BATI      532.60   1.000   P
 DBNI      534.70   1.000   P
  AAK      537.40   1.000   P
 PLAI      538.40   1.000   P
 COEN      540.60   1.000   P
 PPBI      541.50   1.000   P
 KLNI      542.50   1.000   P
  KHK      542.80   1.000   P
 SRBI      544.90   1.000   P
  KRK      552.70   1.000   P
 MNSI      558.10   1.000   P
  GSI      562.60   1.000   P
 MDSI      562.80   1.000   P
 LHSI      563.60   1.000   P
 MKBI      564.70   1.000   P
 FITZ      584.70   1.000   P
  KBL      588.80   1.000   P
 MALK      619.80   1.000   P
 HALK      628.20   1.000   P
# 2013 02 19 12 27 37.1  035.34    140.94     34.0  5.5   0.0   0.0   0.721        71
 TWGB      283.50   1.000   P
 GUMO      291.10   1.000   P
  ULN      347.70   1.000   P
 BAKI      423.20   1.000   P
 MWPI      424.10   1.000   P
 SIJI      426.60   1.000   P
 TMSI      426.60   1.000   P
  SWI      426.70   1.000   P
 RKPI      427.80   1.000   P
 SRPI      429.00   1.000   P
 SKNT      430.30   1.000   P
 GENI      432.90   1.000   P
TOLI2      438.80   1.000   P
 FAKI      442.30   1.000   P
 MRSI      443.20   1.000   P
 SANI      448.20   1.000   P
 APSI      454.60   1.000   P
 CMMT      456.00   1.000   P
 CHTO      456.10   1.000   P
  PCI      461.10   1.000   P
 CHBT      465.10   1.000   P
 PHET      479.60   1.000   P
 SPSI      481.20   1.000   P
 SAUI      483.30   1.000   P
 BNSI      484.90   1.000   P
 KAPI      490.10   1.000   P
 BKSI      492.10   1.000   P
 LRTI      505.00   1.000   P
 EDFI      511.50   1.000   P
 PKDT      511.70   1.000   P
 SOEI      512.50   1.000   P
 BATI      517.00   1.000   P
  WSI      522.50   1.000   P
 PLAI      524.40   1.000   P
 KLNI      527.20   1.000   P
  KHK      528.50   1.000   P
 RTBI      531.50   1.000   P
 BKNI      538.40   1.000   P
 SWJI      538.40   1.000   P
 KCSI      538.50   1.000   P
  KRK      538.50   1.000   P
 PWJI      541.00   1.000   P
 MNSI      543.40   1.000   P
  UGM      544.30   1.000   P
 SLSI      545.90   1.000   P
 KPJI      546.20   1.000   P
  KLI      549.40   1.000   P
 LHSI      549.70   1.000   P
 MDSI      550.00   1.000   P
 MASI      551.90   1.000   P
 MKBI      552.80   1.000   P
 LWLI      553.20   1.000   P
 SLSI      555.50   1.000   S
 WRAB      570.10   1.000   P
 CTAO      570.60   1.000   P
  KBL      587.10   1.000   P
 EIDS      611.10   1.000   P
 MALK      611.30   1.000   P
 PALK      614.00   1.000   P
 NWAO      677.20   1.000   P
 UOSS      680.50   1.000   P
  EIL      750.60   1.000   P
 DAMY      761.90   1.000   P
# 2013 02 25 07 24 01.8  036.47    138.42     21.0  5.9   0.0   0.0   0.282        72
  JOW      181.30   1.000   P
 TWGB      274.20   1.000   P
 MGAI      401.50   1.000   P
 SGSI      407.80   1.000   P
 TNTI      427.20   1.000   P
 TMSI      428.80   1.000   P
 MWPI      431.40   1.000   P
 BAKI      432.30   1.000   P
 SIJI      433.70   1.000   P
  SWI      433.90   1.000   P
 RKPI      435.90   1.000   P
 KMSI      437.60   1.000   P
 SMSI      438.40   1.000   P
  JAY      442.10   1.000   P
TOLI2      442.40   1.000   P
 GENI      443.20   1.000   P
 OBMI      443.40   1.000   P
 MRSI      443.70   1.000   P
 FAKI      449.30   1.000   P
 NBPI      450.30   1.000   P
 MPSI      451.20   1.000   P
 LUWI      452.00   1.000   P
 SANI      452.00   1.000   P
 NLAI      460.30   1.000   P
  PCI      460.80   1.000   P
 BNDI      465.10   1.000   P
 SGKI      465.60   1.000   P
  BKB      472.30   1.000   P
  KDI      475.80   1.000   P
 TTSI      477.00   1.000   P
 MMSI      477.20   1.000   P
 MTKI      478.50   1.000   P
 SPSI      483.70   1.000   P
 BNSI      486.20   1.000   P
 BBSI      487.70   1.000   P
 SAUI      491.30   1.000   P
 BKSI      493.00   1.000   P
 ALKI      503.20   1.000   P
 LRTI      507.60   1.000   P
 TPRI      511.10   1.000   P
 MMRI      512.10   1.000   P
 EDFI      514.20   1.000   P
 SOEI      515.70   1.000   P
 LBFI      516.40   1.000   P
 BATI      520.50   1.000   P
 DBNI      521.20   1.000   P
 PPBI      522.90   1.000   P
 KMMI      524.60   1.000   P
 PLAI      524.60   1.000   P
 LHMI      525.10   1.000   P
 KLNI      526.90   1.000   P
 SRBI      527.50   1.000   P
  KHK      528.20   1.000   P
  PSI      528.60   1.000   P
 GRJI      528.70   1.000   P
 KCSI      530.00   1.000   P
 RTBI      530.70   1.000   P
  DNP      531.60   1.000   P
  BSI      532.60   1.000   P
 MLSI      533.20   1.000   P
 JAGI      533.60   1.000   P
 NGJI      535.10   1.000   P
 SWJI      536.70   1.000   P
 SMRI      536.90   1.000   P
  KRK      537.10   1.000   P
 PWJI      539.20   1.000   P
 SLSI      540.20   1.000   P
  BJI      541.00   1.000   P
 CTJI      541.30   1.000   P
 PCJI      541.80   1.000   P
  UGM      541.80   1.000   P
 KRJI      543.60   1.000   P
 SNSI      543.60   1.000   P
 KPJI      544.30   1.000   P
 LHSI      544.60   1.000   P
  KLI      544.90   1.000   P
 MDSI      545.70   1.000   P
 MASI      546.20   1.000   P
 MKBI      546.70   1.000   P
 PBSI      547.20   1.000   P
 UBSI      549.10   1.000   P
 CISI      550.00   1.000   P
 SISI      550.40   1.000   P
 KASI      550.70   1.000   P
 PPSI      554.30   1.000   P
# 2013 03 12 21 32 18.7  039.41    142.28     10.0  5.0   0.0   0.0   0.787        73
 TWGB      318.30   1.000   P
  ULN      337.50   1.000   P
 SKNT      455.60   1.000   P
 TMSI      463.90   1.000   P
 PBKT      475.50   1.000   P
 CHTO      476.10   1.000   P
 CMMT      476.30   1.000   P
 SANI      486.50   1.000   P
 APSI      490.40   1.000   P
 PHET      504.10   1.000   P
  KSM      517.10   1.000   P
 SPSI      518.30   1.000   P
 BNSI      521.00   1.000   P
 BKSI      524.50   1.000   P
  AAK      535.10   1.000   P
  KUM      539.70   1.000   P
  IPM      540.70   1.000   P
 KLNI      560.70   1.000   P
  KBL      587.10   1.000   P
 WRAB      603.40   1.000   P
  EIL      749.30   1.000   P
# 2013 03 16 17 24 37.1  037.33    143.46     10.0  5.1   0.0   0.0   0.241        74
 SKNT      456.00   1.000   P
 SANI      473.90   1.000   P
 PBKT      477.40   1.000   P
 CMMT      479.10   1.000   P
 CHBT      488.50   1.000   P
 TTSI      502.00   1.000   P
 MMSI      502.80   1.000   P
 BNSI      510.50   1.000   P
 ALKI      523.50   1.000   P
 PBKI      531.40   1.000   P
 MMRI      533.40   1.000   P
 EDFI      535.60   1.000   P
 SOEI      535.80   1.000   P
 BATI      540.50   1.000   P
 PLAI      548.40   1.000   P
 KLNI      551.30   1.000   P
 PPBI      552.10   1.000   P
 GRJI      554.60   1.000   P
 SLSI      569.80   1.000   P
 MDSI      573.90   1.000   P
  GSI      574.20   1.000   P
# 2013 03 31 07 46 19.6  038.87    141.92     46.0  5.4   0.0   0.0   0.773        75
 TWGB      309.70   1.000   P
 KMNB      314.70   1.000   P
  ULN      333.60   1.000   P
 MWPI      453.40   1.000   P
  MNI      453.70   1.000   P
 TMSI      454.70   1.000   P
 SIJI      456.60   1.000   P
 KMSI      463.30   1.000   P
 SMSI      464.70   1.000   P
 CHTO      467.90   1.000   P
 CMMT      467.90   1.000   P
 OBMI      468.00   1.000   P
TOLI2      468.90   1.000   P
 MRSI      470.40   1.000   P
 FAKI      470.90   1.000   P
 SANI      476.10   1.000   P
 MPSI      477.10   1.000   P
 LUWI      477.20   1.000   P
 APSI      480.60   1.000   P
 SRDT      489.90   1.000   P
 PHET      495.30   1.000   P
 MMSI      502.20   1.000   P
 MTKI      505.40   1.000   P
 SPSI      508.10   1.000   P
 BNSI      511.10   1.000   P
 KAPI      516.40   1.000   P
  PMG      516.80   1.000   P
 BKSI      517.20   1.000   P
 SKLT      521.40   1.000   P
 ALKI      526.70   1.000   P
  AAK      529.70   1.000   P
 LRTI      530.90   1.000   P
 MMRI      534.80   1.000   P
 EDFI      536.40   1.000   P
 BTDF      537.50   1.000   P
 TPRI      537.60   1.000   P
 SOEI      537.70   1.000   P
 LBFI      538.70   1.000   P
 BATI      542.10   1.000   P
 DBNI      543.80   1.000   P
  TPI      545.90   1.000   P
 DSRI      546.10   1.000   P
 PLAI      546.80   1.000   P
  MTN      547.70   1.000   P
 KMMI      548.80   1.000   P
 PPBI      549.00   1.000   P
 COEN      549.10   1.000   P
 KLNI      550.40   1.000   P
  KHK      551.20   1.000   P
 SRBI      551.20   1.000   P
  TSI      551.30   1.000   P
  PSI      552.90   1.000   P
 RPSI      552.90   1.000   P
 GRJI      553.20   1.000   P
 KCSI      553.30   1.000   P
 BYJI      555.60   1.000   P
 RGRI      556.20   1.000   P
 MLSI      556.80   1.000   P
 BKNI      557.50   1.000   P
 SWJI      559.50   1.000   P
  KRK      560.10   1.000   P
 PWJI      561.00   1.000   P
 SDSI      562.30   1.000   P
  UGM      565.30   1.000   P
 SLSI      565.60   1.000   P
  GSI      567.60   1.000   P
 SNSI      568.20   1.000   P
 LHSI      569.50   1.000   P
 MDSI      569.60   1.000   P
 MKBI      570.10   1.000   P
  LEM      570.20   1.000   P
 BLSI      570.40   1.000   P
 KASI      572.90   1.000   P
 PPSI      578.00   1.000   P
  KBL      581.60   1.000   P
 FITZ      592.40   1.000   P
  CTA      594.10   1.000   P
 MALK      619.70   1.000   P
 HALK      628.70   1.000   P
 EIDS      631.50   1.000   P
 COCO      642.50   1.000   P
# 2013 04 01 18 53 23.8  039.24    142.34     10.0  5.7   0.0   0.0   1.727        76
 TATO      298.70   1.000   P
 TWGB      315.90   1.000   P
 KMNB      322.90   1.000   P
  ULN      337.50   1.000   P
 SKNT      454.90   1.000   P
 TMSI      458.70   1.000   P
  KKM      459.90   1.000   P
 SIJI      461.90   1.000   P
 KMSI      471.80   1.000   P
 CMMT      475.70   1.000   P
 CHTO      475.90   1.000   P
 OBMI      477.10   1.000   P
 MHIT      480.00   1.000   P
 SANI      482.30   1.000   P
 CHBT      488.70   1.000   P
 SRDT      495.70   1.000   P
 BNDI      498.10   1.000   P
 MTKI      513.80   1.000   P
 SPSI      516.40   1.000   P
 BNSI      518.00   1.000   P
 BKSI      524.00   1.000   P
 BSSI      529.60   1.000   P
 SKLT      529.90   1.000   P
 LRTI      538.70   1.000   P
 EDFI      542.10   1.000   P
 MMRI      542.40   1.000   P
 TPRI      546.40   1.000   P
 SOEI      549.40   1.000   P
 PPBI      555.90   1.000   P
  KHK      557.20   1.000   P
 KLNI      557.20   1.000   P
 BKNI      565.30   1.000   P
