# 2012 06 17 20 32 16.6  039.17    141.98     10.0  6.2   0.0   0.0   1.918        36
 CBIJ      167.30   1.000   P
  JOW      232.90   1.000   P
  JMJ      273.00   1.000   P
  YOJ      290.40   1.000   P
 TATO      296.00   1.000   P
 TWGB      315.00   1.000   P
 KMNB      321.50   1.000   P
 GUMO      326.70   1.000   P
  ULN      339.00   1.000   P
 PATS      416.20   1.000   P
  LDM      456.00   1.000   P
 MWPI      460.80   1.000   P
 BAKI      461.60   1.000   P
 SIJI      463.20   1.000   P
 RKPI      465.40   1.000   P
 GENI      468.40   1.000   P
  JAY      468.50   1.000   P
 KMSI      469.50   1.000   P
 SMSI      470.80   1.000   P
 LBMI      471.70   1.000   P
 PBKT      471.90   1.000   P
 CHTO      473.40   1.000   P
 OBMI      474.80   1.000   P
 MRSI      475.60   1.000   P
 FAKI      478.30   1.000   P
 SANI      483.90   1.000   P
 MPSI      483.90   1.000   P
 LUWI      484.50   1.000   P
 APSI      487.20   1.000   P
 MSAI      492.40   1.000   P
  PCI      492.40   1.000   P
  AAI      493.90   1.000   P
 SRDT      495.70   1.000   P
 BNDI      496.10   1.000   P
 PHET      500.70   1.000   P
 SMKI      503.70   1.000   P
  BKB      507.60   1.000   P
  KDI      510.40   1.000   P
 TTSI      510.50   1.000   P
 MTKI      510.60   1.000   P
 KKSI      512.00   1.000   P
 TARA      512.80   1.000   P
 SPSI      515.40   1.000   P
 STKI      518.20   1.000   P
 KBKI      523.00   1.000   P
 BKSI      524.10   1.000   P
 PBKI      535.90   1.000   P
  KUM      536.60   1.000   P
  IPM      538.30   1.000   P
 ATNI      538.80   1.000   P
  KOM      541.30   1.000   P
 MMRI      542.70   1.000   P
 TPRI      544.60   1.000   P
 LBFI      545.10   1.000   P
 SOEI      545.40   1.000   P
 BATI      549.00   1.000   P
 DBNI      552.50   1.000   P
  MTN      553.70   1.000   P
 PLAI      554.80   1.000   P
 KLNI      555.60   1.000   P
 COEN      555.70   1.000   P
 LHMI      556.00   1.000   P
 TWSI      557.60   1.000   P
 RPSI      558.30   1.000   P
  KHK      558.70   1.000   P
 WBSI      559.90   1.000   P
 KCSI      560.30   1.000   P
  PSI      560.40   1.000   P
  TSI      561.30   1.000   P
 MLSI      562.80   1.000   P
 RTBI      562.90   1.000   P
 TPTI      563.40   1.000   P
 BKNI      563.70   1.000   P
 GMJI      565.40   1.000   P
 MNSI      565.40   1.000   P
 SWJI      565.60   1.000   P
 PWJI      565.70   1.000   P
 BYJI      566.20   1.000   P
 JAGI      566.20   1.000   P
  KRK      566.70   1.000   P
 NGJI      567.60   1.000   P
 PMBI      567.60   1.000   P
  NIL      568.50   1.000   P
 SMRI      570.40   1.000   P
 PDSI      571.30   1.000   P
 KPJI      571.70   1.000   P
  BJI      572.40   1.000   P
  UGM      572.50   1.000   P
  GSI      573.10   1.000   P
 WOJI      574.10   1.000   P
 KRJI      575.80   1.000   P
 JCJI      576.00   1.000   P
 MDSI      576.00   1.000   P
 MKBI      576.00   1.000   P
  KLI      576.10   1.000   P
 MASI      577.20   1.000   P
 BLSI      577.40   1.000   P
 PCJI      578.00   1.000   P
 DBJI      578.40   1.000   P
 KASI      579.50   1.000   P
 LWLI      580.20   1.000   P
 SBJI      580.60   1.000   P
 SISI      580.70   1.000   P
 CGJI      582.60   1.000   P
  KBL      586.70   1.000   P
 PPSI      587.60   1.000   P
 WRAB      598.50   1.000   P
  CTA      601.00   1.000   P
 CTAO      601.00   1.000   P
 MBWA      625.90   1.000   P
 MALK      626.50   1.000   P
 PALK      630.60   1.000   P
 HALK      635.60   1.000   P
 COCO      648.40   1.000   P
 MEEK      662.30   1.000   P
 STKA      674.10   1.000   P
 ARMA      674.30   1.000   P
 UOSS      679.50   1.000   P
 MORW      682.80   1.000   P
 KMBL      684.30   1.000   P
 KAAM      693.70   1.000   P
 NWAO      698.30   1.000   P
 DGAR      726.40   1.000   P
  EIL      748.80   1.000   P
 FURI      795.40   1.000   P
 VNDA     1123.80   1.000   P
  LSZ     1127.50   1.000   P
 MSNA     1131.30   1.000   P
  MAW     1133.50   1.000   P
 LBTB     1140.90   1.000   P
 BOSA     1145.70   1.000   P
# 2012 06 28 05 51 46.3  037.28    141.02     10.0  5.4   0.0   0.0   1.116        37
 CBIJ      143.60   1.000   P
  JOW      211.00   1.000   P
 TWGB      300.00   1.000   P
 KMNB      305.40   1.000   P
 GUMO      314.50   1.000   P
  ULN      341.20   1.000   P
  LDM      437.90   1.000   P
 UBPT      440.00   1.000   P
 MRSI      459.00   1.000   P
 PBKT      460.70   1.000   P
 CHTO      463.30   1.000   P
 FAKI      463.70   1.000   P
 WAMI      464.60   1.000   P
 SANI      467.40   1.000   P
 MPSI      469.40   1.000   P
 APSI      473.00   1.000   P
 SRDT      484.30   1.000   P
  SBM      485.70   1.000   P
 SPSI      500.70   1.000   P
  KSM      500.80   1.000   P
  IPM      526.10   1.000   P
  MTN      537.70   1.000   P
 COEN      540.50   1.000   P
 TWSI      541.10   1.000   P
  KHK      543.50   1.000   P
 KLNI      543.50   1.000   P
  PSI      546.30   1.000   P
 KCSI      549.30   1.000   P
 BKNI      551.00   1.000   P
 MLSI      551.10   1.000   P
 MNSI      553.40   1.000   P
  KRK      554.20   1.000   P
 PWJI      555.20   1.000   P
 KPJI      559.90   1.000   P
  GSI      561.00   1.000   P
 MDSI      562.20   1.000   P
 MASI      566.20   1.000   P
  NIL      566.20   1.000   P
  KBL      585.60   1.000   P
 WRAB      585.60   1.000   P
 MBWA      616.70   1.000   P
 ARMA      660.50   1.000   P
 UOSS      680.30   1.000   P
  EIL      749.90   1.000   P
# 2012 07 21 03 01 13.6  037.84    142.59     10.0  5.1   0.0   0.0   0.828        38
 GUMO      317.30   1.000   P
  ULN      346.80   1.000   P
  LDM      448.90   1.000   P
 MRSI      468.30   1.000   P
TOLI2      468.90   1.000   P
 CMMT      474.90   1.000   P
  SBM      494.80   1.000   P
  KSM      509.60   1.000   P
  NIL      575.40   1.000   P
  KBL      592.40   1.000   P
 WRAB      592.90   1.000   P
  EIL      754.10   1.000   P
# 2012 07 29 22 04 57.8  040.00    143.63     33.0  5.3   0.0   0.0   0.759        39
 RKPI      470.70   1.000   P
 SIJI      470.90   1.000   P
 PBKT      480.30   1.000   P
 SMSI      480.30   1.000   P
 OBMI      482.20   1.000   P
 CHTO      482.60   1.000   P
TOLI2      485.10   1.000   P
 MRSI      485.20   1.000   P
 SANI      491.40   1.000   P
 LUWI      491.90   1.000   P
 MPSI      491.90   1.000   P
 APSI      495.40   1.000   P
  PCI      501.20   1.000   P
 MTKI      518.90   1.000   P
 KKSI      519.70   1.000   P
  KSM      521.20   1.000   P
 SPSI      521.20   1.000   P
 STKI      526.20   1.000   P
 MTKI      529.10   1.000   S
 BKSI      531.00   1.000   P
 ATNI      543.40   1.000   P
  IPM      546.90   1.000   P
 EDFI      549.90   1.000   P
  KOM      550.20   1.000   P
 SOEI      550.30   1.000   P
 TPRI      551.40   1.000   P
 LBFI      552.30   1.000   P
 BATI      555.70   1.000   P
 TWSI      564.10   1.000   P
 KLNI      564.60   1.000   P
  KHK      565.60   1.000   P
 RPSI      567.60   1.000   P
  PSI      567.70   1.000   P
 BKNI      570.50   1.000   P
 MLSI      570.90   1.000   P
  KRK      573.70   1.000   P
 MNSI      574.90   1.000   P
 SMRI      575.80   1.000   P
 SLSI      578.90   1.000   P
  GSI      581.60   1.000   P
 KRJI      582.30   1.000   P
 LHSI      583.50   1.000   P
 MDSI      584.20   1.000   P
 MASI      586.00   1.000   P
# 2012 08 03 10 00 48.9  039.20    143.00     33.0  5.1   0.0   0.0   0.755        40
 TATO      300.80   1.000   P
  ULN      340.60   1.000   P
 PBKT      474.70   1.000   P
 CHTO      476.20   1.000   P
 CMMT      476.20   1.000   P
  SBM      500.80   1.000   P
  AAK      534.10   1.000   P
  IPM      540.60   1.000   P
 MDSI      574.90   1.000   P
 LHSI      576.50   1.000   P
  KBL      586.20   1.000   P
 UOSS      681.70   1.000   P
  EIL      748.00   1.000   P
# 2012 08 20 11 42 47.6  036.61    138.91     10.0  5.4   0.0   0.0   1.739        41
  YOJ      250.50   1.000   P
 TATO      260.60   1.000   P
 TWGB      281.60   1.000   P
 KMNB      290.00   1.000   P
 GUMO      310.60   1.000   P
 UBPT      424.20   1.000   P
# 2012 08 25 14 16 15.2  042.27    142.84     32.0  6.2   0.0   0.0   1.038        42
 CBIJ      211.10   1.000   P
 TWGB      336.30   1.000   P
 SGSI      463.00   1.000   P
 GLMI      471.20   1.000   P
  LDM      476.40   1.000   P
  KKM      478.70   1.000   P
 TNTI      481.40   1.000   P
  MNI      481.90   1.000   P
 BAKI      482.80   1.000   P
 CHTO      484.00   1.000   P
 MWPI      484.30   1.000   P
 SIJI      486.00   1.000   P
  SWI      486.00   1.000   P
 RKPI      486.90   1.000   P
  JAY      489.50   1.000   P
 GENI      491.00   1.000   P
 SMSI      492.10   1.000   P
 LBMI      492.40   1.000   P
 KMSI      492.70   1.000   P
 OBMI      496.50   1.000   P
TOLI2      496.80   1.000   P
 MRSI      497.60   1.000   P
 FAKI      500.00   1.000   P
 MPSI      504.60   1.000   P
 LUWI      504.90   1.000   P
 SRDT      507.50   1.000   P
 APSI      508.10   1.000   P
 MSAI      511.00   1.000   P
 NLAI      513.10   1.000   P
  AAI      513.30   1.000   P
  PCI      513.90   1.000   P
  SBM      517.70   1.000   P
 SMKI      518.50   1.000   P
  AAK      524.40   1.000   P
  BKB      525.00   1.000   P
  KDI      528.20   1.000   P
 TTSI      528.80   1.000   P
 MTKI      530.80   1.000   P
  KSM      532.00   1.000   P
 KKSI      532.30   1.000   P
 SPSI      535.40   1.000   P
 STKI      536.60   1.000   P
 BNSI      538.40   1.000   P
 BBSI      539.20   1.000   P
 SAUI      541.00   1.000   P
 PKKI      541.30   1.000   P
 KBKI      541.60   1.000   P
 BKSI      543.60   1.000   P
  PMG      544.80   1.000   P
  KUM      551.20   1.000   P
  IPM      552.30   1.000   P
 PBKI      554.50   1.000   P
  KOM      556.40   1.000   P
 ATNI      557.80   1.000   P
 BTDF      559.00   1.000   P
 TPRI      559.90   1.000   P
 MMRI      560.20   1.000   P
 EDFI      561.00   1.000   P
  NIL      562.20   1.000   P
 SOEI      563.40   1.000   P
 LBFI      564.20   1.000   P
 DSRI      567.30   1.000   P
 LASI      567.30   1.000   P
 BATI      568.60   1.000   P
 LHMI      569.20   1.000   P
 DBNI      569.50   1.000   P
  TSI      569.80   1.000   P
 PPBI      570.60   1.000   P
 KCSI      570.90   1.000   P
 PLAI      571.80   1.000   P
 RPSI      572.70   1.000   P
  PSI      573.00   1.000   P
  WSI      573.50   1.000   P
 KMMI      573.80   1.000   P
 TWSI      575.00   1.000   P
 SRBI      575.90   1.000   P
 KLNI      575.90   1.000   P
  KHK      576.20   1.000   P
 TPTI      576.70   1.000   P
 GRJI      577.00   1.000   P
 BKNI      577.60   1.000   P
  KBL      577.90   1.000   P
 RTBI      578.80   1.000   P
 TBJI      578.80   1.000   P
 BYJI      579.20   1.000   P
 BLJI      579.40   1.000   P
 JAGI      579.90   1.000   P
 MNSI      580.20   1.000   P
 GMJI      581.70   1.000   P
 SDSI      582.60   1.000   P
 PMBI      582.60   1.000   P
 SWJI      583.40   1.000   P
  KRK      584.30   1.000   P
 NGJI      584.30   1.000   P
 SMRI      584.60   1.000   P
  GSI      586.00   1.000   P
 SLSI      586.30   1.000   P
 SNSI      586.30   1.000   P
 PCJI      587.80   1.000   P
 PDSI      587.80   1.000   P
 CTJI      588.40   1.000   P
  BJI      588.40   1.000   P
  UGM      588.70   1.000   P
 KPJI      589.80   1.000   P
 JCJI      590.40   1.000   P
 KRJI      590.70   1.000   P
  KLI      591.30   1.000   P
 PBSI      591.30   1.000   P
 MDSI      591.60   1.000   P
 BLSI      593.30   1.000   P
 LWLI      593.30   1.000   P
 KASI      594.80   1.000   P
 SBJI      595.60   1.000   P
 CISI      597.40   1.000   P
 PPSI      598.80   1.000   P
 EGSI      602.90   1.000   P
 CTAO      616.90   1.000   P
 MALK      629.40   1.000   P
 PALK      633.70   1.000   P
 HALK      639.00   1.000   P
 MBWA      645.40   1.000   P
 COCO      661.70   1.000   P
 HMDM      672.10   1.000   P
 UOSS      675.30   1.000   P
 KAAM      697.10   1.000   P
 NWAO      717.50   1.000   P
 DGAR      729.70   1.000   P
  EIL      739.30   1.000   P
 KMBO      833.50   1.000   P
  LSZ     1126.00   1.000   P
 MSNA     1128.90   1.000   P
 MSNA     1129.20   1.000   S
 MSNA     1132.40   1.000   S
# 2012 08 28 13 55 04.4  036.33    141.49     10.0  5.2   0.0   0.0   0.810        43
 GLMI      425.40   1.000   P
  LDM      435.70   1.000   P
 SIJI      440.80   1.000   P
 LBMI      446.30   1.000   P
 KMSI      447.30   1.000   P
 SMSI      449.10   1.000   P
 OBMI      452.60   1.000   P
TOLI2      453.90   1.000   P
 MRSI      455.20   1.000   P
 SANI      460.30   1.000   P
 MPSI      463.40   1.000   P
 APSI      465.60   1.000   P
 NLAI      467.80   1.000   P
  AAI      470.40   1.000   P
 AAII      470.40   1.000   P
 MTKI      493.00   1.000   P
 SPSI      495.00   1.000   P
 BBSI      497.10   1.000   P
 BNSI      497.10   1.000   P
 BKSI      504.20   1.000   P
 MMRI      521.00   1.000   P
 EDFI      522.60   1.000   P
 LBFI      525.70   1.000   P
# 2012 09 13 17 22 07.1  035.52    140.03     15.0  5.5   0.0   0.0   0.920        44
 CBIJ      122.60   1.000   P
  YOJ      255.00   1.000   P
 TWGB      281.10   1.000   P
 GUMO      298.00   1.000   P
 MWPI      427.20   1.000   P
 SIJI      430.10   1.000   P
 RKPI      431.20   1.000   P
 KMSI      435.60   1.000   P
  JAY      436.30   1.000   P
 GENI      437.10   1.000   P
 MRSI      443.40   1.000   P
 FAKI      445.30   1.000   P
 SANI      449.70   1.000   P
 CMMT      452.60   1.000   P
 APSI      453.80   1.000   P
 MSAI      455.70   1.000   P
 AAII      459.80   1.000   P
  AAI      460.20   1.000   P
 BNSI      485.20   1.000   P
 KAPI      489.60   1.000   P
 ATNI      507.80   1.000   P
 SOEI      514.10   1.000   P
  MTN      524.00   1.000   P
# 2012 09 25 14 21 34.6  036.17    142.99     10.0  5.1   0.0   0.0   0.905        45
 CBIJ      130.40   1.000   P
  ULN      359.20   1.000   P
 SIJI      440.30   1.000   P
  LDM      441.30   1.000   P
 UBPT      449.40   1.000   P
 SMSI      454.60   1.000   P
 MRSI      460.60   1.000   P
 SANI      464.50   1.000   P
 PBKT      471.00   1.000   P
 APSI      471.50   1.000   P
 CMMT      472.90   1.000   P
 CHTO      473.20   1.000   P
  PCI      476.70   1.000   P
  SBM      488.00   1.000   P
 BNSI      502.00   1.000   P
 STKI      507.00   1.000   P
# 2012 10 12 04 57 19.9  035.70    140.54     26.0  5.3   0.0   0.0   1.211        46
 CBIJ      122.30   1.000   P
  ULN      343.20   1.000   P
 UBPT      430.10   1.000   P
 PBKT      451.60   1.000   P
 CHTO      455.30   1.000   P
 CMMT      455.30   1.000   P
 SRDT      474.30   1.000   P
 SKLT      503.40   1.000   P
 ATNI      507.10   1.000   P
 EDFI      513.60   1.000   P
 SOEI      514.00   1.000   P
 LBFI      516.30   1.000   P
  MTN      524.50   1.000   P
  TPI      525.40   1.000   P
 COEN      528.10   1.000   P
 PPBI      529.70   1.000   P
 KLNI      530.50   1.000   P
  KHK      531.10   1.000   P
  PSI      534.40   1.000   P
 KCSI      536.70   1.000   P
 PWJI      538.30   1.000   P
  KRK      540.30   1.000   P
 SWJI      540.40   1.000   P
 SDSI      542.00   1.000   P
 MNSI      544.60   1.000   P
 SLSI      546.30   1.000   P
  LEM      547.00   1.000   P
 KPJI      548.60   1.000   P
 MDSI      549.50   1.000   P
 LHSI      550.20   1.000   P
 MKBI      552.00   1.000   P
 SLSI      553.50   1.000   S
 CGJI      554.90   1.000   P
  NIL      564.20   1.000   P
 FITZ      571.70   1.000   P
 WRAB      573.00   1.000   P
  KBL      584.40   1.000   P
 MBWA      603.30   1.000   P
 MALK      611.70   1.000   P
 PALK      614.20   1.000   P
 EIDS      614.90   1.000   P
 MEEK      638.60   1.000   P
 STKA      651.70   1.000   P
 CMSA      651.70   1.000   P
 FORT      652.70   1.000   P
  YNG      667.90   1.000   P
  TOO      687.60   1.000   P
  EIL      750.20   1.000   P
 QSPA     1135.80   1.000   P
# 2012 10 12 04 57 27.3  034.74    139.77     21.0  5.4   0.0   0.0   1.285        47
 KMSI      426.40   1.000   P
 SANI      442.60   1.000   P
 PBKT      444.30   1.000   P
 CMMT      448.20   1.000   P
  AAI      453.20   1.000   P
 PHET      471.50   1.000   P
 SPSI      476.40   1.000   P
 BNSI      478.90   1.000   P
 KBKI      484.30   1.000   P
 SKLT      496.10   1.000   P
 ATNI      498.60   1.000   P
 EDFI      506.00   1.000   P
 SOEI      506.70   1.000   P
 LBFI      509.00   1.000   P
  MTN      517.20   1.000   P
  TPI      517.90   1.000   P
 PPBI      519.60   1.000   P
 TWSI      520.10   1.000   P
 COEN      520.70   1.000   P
 SRBI      521.10   1.000   P
 KLNI      522.50   1.000   P
  PSI      527.90   1.000   P
 LASI      528.80   1.000   P
  KRK      530.60   1.000   P
 PWJI      530.80   1.000   P
 SDSI      534.90   1.000   P
 MNSI      535.50   1.000   P
  UGM      537.70   1.000   P
 SLSI      539.30   1.000   P
 KPJI      539.70   1.000   P
  LEM      540.00   1.000   P
 MDSI      543.00   1.000   P
 LHSI      543.30   1.000   P
# 2012 10 14 11 11 35.3  038.14    144.31     10.0  5.7   0.0   0.0   0.821        48
 TWGB      323.50   1.000   P
  ULN      355.10   1.000   P
 SGSI      440.90   1.000   P
 TNTI      456.20   1.000   P
 RKPI      457.60   1.000   P
  LDM      458.30   1.000   P
 SIJI      458.30   1.000   P
  MNI      459.50   1.000   P
 GENI      460.10   1.000   P
 UBPT      463.90   1.000   P
 KMSI      470.00   1.000   P
 SMSI      471.90   1.000   P
 OBMI      472.60   1.000   P
TOLI2      476.50   1.000   P
 MRSI      477.10   1.000   P
 SANI      480.90   1.000   P
 LUWI      483.30   1.000   P
 CMMT      484.60   1.000   P
 MPSI      485.30   1.000   P
 APSI      487.40   1.000   P
  AAI      488.90   1.000   P
 BNDI      490.30   1.000   P
  PCI      493.60   1.000   P
 TARA      496.70   1.000   P
 SMKI      502.80   1.000   P
 SRDT      505.70   1.000   P
  KDI      506.50   1.000   P
  BKB      508.30   1.000   P
 TTSI      509.10   1.000   P
 MMSI      510.10   1.000   P
 KKSI      512.50   1.000   P
 SPSI      515.40   1.000   P
 BBSI      518.00   1.000   P
 BNSI      518.60   1.000   P
  KSM      519.10   1.000   P
 STKI      522.00   1.000   P
 KBKI      524.10   1.000   P
 BKSI      524.10   1.000   P
 SKLT      534.70   1.000   P
 ATNI      536.20   1.000   P
 PBKI      537.80   1.000   P
 MMRI      540.20   1.000   P
 EDFI      541.80   1.000   P
 SOEI      542.80   1.000   P
 BATI      545.20   1.000   P
 LBFI      545.70   1.000   P
  IPM      546.00   1.000   P
 COEN      547.00   1.000   P
  MTN      549.20   1.000   P
 TPRI      549.40   1.000   P
 BTDF      549.90   1.000   P
 DBNI      550.20   1.000   P
  TPI      555.50   1.000   P
 TWSI      555.70   1.000   P
 DSRI      557.30   1.000   P
 KLNI      557.90   1.000   P
 SRBI      558.90   1.000   P
 PPBI      559.40   1.000   P
  KHK      559.70   1.000   P
 RTBI      561.00   1.000   P
 SWJI      568.10   1.000   P
  KRK      568.90   1.000   P
 BKNI      568.90   1.000   P
 NGJI      569.20   1.000   P
 SDSI      573.40   1.000   P
  UGM      573.70   1.000   P
  BJI      574.70   1.000   P
 SLSI      576.30   1.000   P
 KPJI      576.80   1.000   P
 MDSI      580.30   1.000   P
  GSI      580.50   1.000   P
 MASI      581.60   1.000   P
 KASI      582.90   1.000   P
