# 2012 04 12 14 50 57.2  036.85    141.19     10.0  5.8   0.0   0.0   1.861        21
 CBIJ      137.60   1.000   P
  JOW      208.80   1.000   P
  JMJ      250.60   1.000   P
 TATO      278.10   1.000   P
 TWGB      294.80   1.000   P
 KMNB      302.60   1.000   P
 GUMO      313.10   1.000   P
  SZP      337.10   1.000   P
 PATS      396.90   1.000   P
 SGSI      421.40   1.000   P
 GLMI      429.60   1.000   P
  LDM      436.30   1.000   P
  KKM      440.10   1.000   P
 MWPI      441.10   1.000   P
 GENI      448.00   1.000   P
 KMSI      450.10   1.000   P
 LBMI      450.40   1.000   P
  JAY      450.50   1.000   P
 SMSI      451.30   1.000   P
 OBMI      455.40   1.000   P
 FAKI      456.90   1.000   P
 MRSI      456.90   1.000   P
 CHTO      460.90   1.000   P
 SANI      463.00   1.000   P
 LUWI      463.30   1.000   P
 MPSI      464.80   1.000   P
 APSI      467.80   1.000   P
 MSAI      468.80   1.000   P
 NLAI      469.20   1.000   P
  AAI      472.20   1.000   P
  PCI      473.80   1.000   P
 BNDI      474.90   1.000   P
 SGKI      476.40   1.000   P
 SMKI      481.70   1.000   P
  SBM      482.20   1.000   P
  BKB      487.80   1.000   P
 KKSI      491.80   1.000   P
 MTKI      493.90   1.000   P
 PMSI      494.70   1.000   P
  KSM      497.70   1.000   P
 BNSI      498.90   1.000   P
 BBSI      500.40   1.000   P
 STKI      501.40   1.000   P
 KBKI      504.30   1.000   P
 BSSI      509.40   1.000   P
 ATNI      519.00   1.000   P
 PBKI      519.40   1.000   P
  KUM      521.40   1.000   P
 MMRI      522.80   1.000   P
 SOEI      524.50   1.000   P
 LBFI      526.90   1.000   P
 TPRI      528.90   1.000   P
 BTDF      529.60   1.000   P
 BATI      530.40   1.000   P
 DBNI      532.30   1.000   P
  MTN      534.80   1.000   P
 PLAI      534.90   1.000   P
 DSRI      537.20   1.000   P
  WSI      537.20   1.000   P
 KMMI      538.20   1.000   P
 KLNI      539.80   1.000   P
  KHK      540.10   1.000   P
 PPBI      540.60   1.000   P
 SRBI      540.60   1.000   P
 RTBI      543.40   1.000   P
 GRJI      544.50   1.000   P
 LHMI      545.30   1.000   P
 BLJI      545.50   1.000   P
  DNP      547.00   1.000   P
 GMJI      547.00   1.000   P
  KRK      549.30   1.000   P
 JAGI      549.50   1.000   P
 SWJI      549.50   1.000   P
 BKNI      550.20   1.000   P
 PWJI      550.60   1.000   P
 IGBI      552.10   1.000   P
 MNSI      552.70   1.000   P
 CTJI      555.20   1.000   P
  UGM      556.10   1.000   P
 SLSI      558.50   1.000   P
 SMRI      558.50   1.000   P
 MDSI      559.70   1.000   P
 JCJI      559.90   1.000   P
 MKBI      561.50   1.000   P
 MASI      562.70   1.000   P
 BLSI      562.80   1.000   P
# 2012 04 13 10 10 01.6  036.97    141.19     10.0  5.9   0.0   0.0   1.094        22
 CBIJ      139.20   1.000   P
 KMNB      303.80   1.000   P
  ULN      343.10   1.000   P
 GLMI      429.20   1.000   P
  LDM      438.80   1.000   P
 SKNT      440.70   1.000   P
  KKM      442.60   1.000   P
 GENI      450.60   1.000   P
 LBMI      450.60   1.000   P
 KMSI      451.80   1.000   P
 SMSI      453.20   1.000   P
 OBMI      456.70   1.000   P
 MRSI      458.90   1.000   P
 FAKI      460.10   1.000   P
 CMMT      463.20   1.000   P
 CHTO      464.10   1.000   P
 SANI      464.60   1.000   P
 LUWI      465.50   1.000   P
 MPSI      466.80   1.000   P
 MHIT      467.40   1.000   P
 APSI      469.80   1.000   P
 MSAI      470.90   1.000   P
 NLAI      473.00   1.000   P
  AAI      473.90   1.000   P
  PCI      474.80   1.000   P
  SBM      484.30   1.000   P
  BKB      490.10   1.000   P
 TTSI      490.70   1.000   P
 MTKI      495.80   1.000   P
  KSM      499.60   1.000   P
 BNSI      500.80   1.000   P
 STKI      503.50   1.000   P
 KBKI      505.80   1.000   P
 SKLT      513.70   1.000   P
 ATNI      521.30   1.000   P
 PKDT      522.90   1.000   P
 MMRI      524.30   1.000   P
  IPM      526.60   1.000   P
 SOEI      527.30   1.000   P
  KOM      528.40   1.000   P
 LBFI      529.10   1.000   P
 TPRI      530.20   1.000   P
 BATI      531.90   1.000   P
 PLAI      537.40   1.000   P
# 2012 04 19 03 33 17.2  037.65    142.05     10.0  5.7   0.0   0.0   1.030        23
  JOW      222.80   1.000   P
  YOJ      283.40   1.000   P
 TATO      289.80   1.000   P
 TWGB      308.70   1.000   P
 KMNB      316.10   1.000   P
  SZP      347.20   1.000   P
 GLMI      438.50   1.000   P
  LDM      444.80   1.000   P
 MWPI      445.90   1.000   P
  MNI      448.00   1.000   P
 RKPI      450.40   1.000   P
 SIJI      450.50   1.000   P
  JAY      454.40   1.000   P
 GENI      456.40   1.000   P
 KMSI      457.30   1.000   P
 LBMI      459.20   1.000   P
 SMSI      459.80   1.000   P
 OBMI      462.60   1.000   P
 MRSI      465.90   1.000   P
 FAKI      466.30   1.000   P
 PBKT      468.50   1.000   P
 SANI      472.60   1.000   P
 MPSI      473.90   1.000   P
 LUWI      474.80   1.000   P
 MSAI      475.30   1.000   P
 APSI      477.00   1.000   P
  AAI      479.40   1.000   P
 NLAI      480.30   1.000   P
 CHBT      481.80   1.000   P
  PCI      482.70   1.000   P
 SGKI      489.20   1.000   P
  SBM      490.10   1.000   P
 SMKI      492.40   1.000   P
 PHET      494.30   1.000   P
  BKB      495.80   1.000   P
 TTSI      500.90   1.000   P
 MTKI      504.10   1.000   P
 PMSI      505.40   1.000   P
 BNSI      508.90   1.000   P
 SKLT      521.20   1.000   P
 PKDT      527.90   1.000   P
 ATNI      528.20   1.000   P
  IPM      532.30   1.000   P
 SOEI      535.60   1.000   P
 TPRI      537.40   1.000   P
 LBFI      538.10   1.000   P
  AAK      538.60   1.000   P
 BATI      539.70   1.000   P
 DBNI      541.80   1.000   P
  MTN      542.80   1.000   P
 KMMI      545.50   1.000   P
 PLAI      545.50   1.000   P
 COEN      546.00   1.000   P
 PPBI      546.50   1.000   P
  KHK      548.90   1.000   P
 KLNI      549.10   1.000   P
 SRBI      550.20   1.000   P
 TBJI      552.50   1.000   P
  TSI      552.80   1.000   P
 RTBI      553.70   1.000   P
 KCSI      553.80   1.000   P
 RGRI      553.90   1.000   P
 BYJI      554.30   1.000   P
  PSI      554.40   1.000   P
 BKNI      557.80   1.000   P
 MLSI      559.50   1.000   P
  KRK      560.00   1.000   P
 SWJI      560.90   1.000   P
 MNSI      561.20   1.000   P
 PWJI      562.20   1.000   P
 WOJI      562.40   1.000   P
  BJI      565.00   1.000   P
  GSI      567.50   1.000   P
 MDSI      568.70   1.000   P
  KLI      569.10   1.000   P
  LEM      569.20   1.000   P
 MKBI      573.00   1.000   P
 MASI      573.10   1.000   P
# 2012 04 24 20 22 09.5  035.63    140.53     40.0  5.4   0.0   0.0   0.822        24
 CBIJ      120.10   1.000   P
  JOW      191.70   1.000   P
  JMJ      235.60   1.000   P
 TATO      264.90   1.000   P
 TWGB      280.10   1.000   P
 KMNB      290.60   1.000   P
 GUMO      293.70   1.000   P
  SZP      322.90   1.000   P
 PATS      389.60   1.000   P
 GLMI      415.10   1.000   P
  LDM      421.00   1.000   P
 MWPI      424.80   1.000   P
 BAKI      424.90   1.000   P
  KKM      425.40   1.000   P
 UBPT      427.30   1.000   P
 SKNT      427.50   1.000   P
 SIJI      427.90   1.000   P
 RKPI      429.80   1.000   P
 LBMI      432.80   1.000   P
  JAY      432.90   1.000   P
 KMSI      433.70   1.000   P
 GENI      434.80   1.000   P
 SMSI      435.80   1.000   P
 OBMI      439.80   1.000   P
 MRSI      441.80   1.000   P
 FAKI      443.40   1.000   P
 SANI      447.70   1.000   P
 KMPI      448.00   1.000   P
 PBKT      448.50   1.000   P
 MPSI      449.00   1.000   P
 LUWI      451.80   1.000   P
 APSI      452.20   1.000   P
 MSAI      452.40   1.000   P
 CHTO      452.90   1.000   P
 MHIT      456.40   1.000   P
  AAI      456.90   1.000   P
 NLAI      456.90   1.000   P
  PCI      458.80   1.000   P
 BNDI      460.40   1.000   P
 CHBT      461.30   1.000   P
 SGKI      466.40   1.000   P
  SBM      467.90   1.000   P
 SMKI      468.10   1.000   P
 SRDT      471.70   1.000   P
  KDI      473.20   1.000   P
 TTSI      476.20   1.000   P
 PHET      477.30   1.000   P
 KKSI      478.80   1.000   P
 MTKI      479.20   1.000   P
 PMSI      481.90   1.000   P
  KSM      483.90   1.000   P
 BNSI      485.30   1.000   P
 SAUI      485.70   1.000   P
 STKI      488.00   1.000   P
 KBKI      491.00   1.000   P
 BKSI      492.30   1.000   P
 PKKI      492.90   1.000   P
 BSSI      494.30   1.000   P
 TARA      494.70   1.000   P
 SKLT      499.80   1.000   P
 PBKI      504.00   1.000   P
 ATNI      505.50   1.000   P
 PKDT      509.50   1.000   P
  KUM      511.20   1.000   P
  IPM      512.50   1.000   P
 SOEI      512.60   1.000   P
 LBFI      514.00   1.000   P
  KOM      514.70   1.000   P
 TPRI      515.70   1.000   P
 BTDF      516.50   1.000   P
 BATI      516.90   1.000   P
 DBNI      519.80   1.000   P
 BWJI      520.20   1.000   P
  MTN      522.10   1.000   P
 DSRI      522.20   1.000   P
 PLAI      522.20   1.000   P
 TWSI      524.10   1.000   P
 COEN      525.50   1.000   P
 BASI      525.50   1.000   P
 WBSI      525.70   1.000   P
 KLNI      526.10   1.000   P
 SRBI      526.90   1.000   P
  KHK      527.30   1.000   P
 GRJI      529.20   1.000   P
 ABJI      529.60   1.000   P
 LASI      530.50   1.000   P
 RTBI      530.60   1.000   P
 BYJI      531.50   1.000   P
 JAGI      532.90   1.000   P
  AAK      534.40   1.000   P
  KRK      536.30   1.000   P
 NGJI      536.30   1.000   P
 SWJI      536.40   1.000   P
 PWJI      538.00   1.000   P
 SMRI      538.30   1.000   P
 SBSI      538.40   1.000   P
 MLSI      538.40   1.000   P
  BSI      539.80   1.000   P
 MNSI      540.70   1.000   P
 WOJI      540.80   1.000   P
 SDSI      541.10   1.000   P
 PCJI      541.60   1.000   P
 CTJI      541.90   1.000   P
  BJI      542.00   1.000   P
  UGM      542.30   1.000   P
 KPJI      544.70   1.000   P
 SCJI      547.20   1.000   P
  LEM      547.30   1.000   P
 KRJI      547.40   1.000   P
  KLI      547.70   1.000   P
 MDSI      547.70   1.000   P
  GSI      548.00   1.000   P
 BLSI      548.50   1.000   P
 DBJI      549.00   1.000   P
 SBJI      549.60   1.000   P
 MASI      550.00   1.000   P
 KASI      551.20   1.000   P
 LWLI      552.40   1.000   P
 SKJI      553.20   1.000   P
 SISI      553.90   1.000   P
 MNAI      554.20   1.000   P
 EGSI      560.90   1.000   P
  NIL      562.60   1.000   P
  CTA      570.80   1.000   P
 WRAB      570.90   1.000   P
 CTAO      572.30   1.000   P
 XMIS      576.40   1.000   P
  KBL      583.40   1.000   P
 MBWA      601.60   1.000   P
 MALK      608.80   1.000   P
 PALK      612.50   1.000   P
# 2012 04 29 15 02 19.1  039.87    142.18     10.0  5.5   0.0   0.0   0.950        25
  JOW      240.40   1.000   P
 TWGB      321.40   1.000   P
 KMNB      324.80   1.000   P
  ULN      335.60   1.000   P
 SGSI      447.80   1.000   P
 SKNT      455.50   1.000   P
 GLMI      456.30   1.000   P
 UBPT      457.40   1.000   P
  LDM      461.80   1.000   P
  KKM      464.00   1.000   P
 MWPI      466.70   1.000   P
 SIJI      467.60   1.000   P
  JAY      472.90   1.000   P
 GENI      474.00   1.000   P
 PBKT      474.20   1.000   P
 KMSI      475.10   1.000   P
 CMMT      475.20   1.000   P
 LBMI      475.60   1.000   P
 CHTO      476.00   1.000   P
 SMSI      476.20   1.000   P
 MHIT      480.10   1.000   P
 OBMI      481.10   1.000   P
 MRSI      481.80   1.000   P
 FAKI      483.40   1.000   P
 KMPI      487.50   1.000   P
 SANI      488.40   1.000   P
 MPSI      489.70   1.000   P
 CHBT      490.20   1.000   P
 LUWI      490.30   1.000   P
 APSI      493.20   1.000   P
 MSAI      493.60   1.000   P
 NLAI      496.60   1.000   P
  AAI      497.50   1.000   P
 AAII      497.60   1.000   P
  PCI      497.80   1.000   P
 SRDT      497.90   1.000   P
 BNDI      502.40   1.000   P
 PHET      504.10   1.000   P
  SBM      504.40   1.000   P
 SMKI      506.00   1.000   P
  BKB      510.90   1.000   P
  KDI      512.70   1.000   P
 TTSI      514.80   1.000   P
 TARA      515.20   1.000   P
 MTKI      515.90   1.000   P
 KKSI      517.80   1.000   P
  KSM      519.70   1.000   P
 PMSI      520.30   1.000   P
 MMPI      522.00   1.000   P
 BNSI      522.30   1.000   P
 STKI      523.50   1.000   P
 KBKI      527.40   1.000   P
 SKLT      529.60   1.000   P
 PKKI      529.70   1.000   P
  PMG      529.70   1.000   P
  AAK      532.70   1.000   P
 BSSI      534.20   1.000   P
 PBKI      539.70   1.000   P
  KUM      539.80   1.000   P
 ATNI      543.30   1.000   P
  IPM      544.10   1.000   P
  KOM      545.90   1.000   P
 BTDF      548.30   1.000   P
 TPRI      548.40   1.000   P
 EDFI      548.50   1.000   P
 SOEI      549.30   1.000   P
 LBFI      551.30   1.000   P
 BATI      555.80   1.000   P
 DBNI      556.90   1.000   P
 DSRI      556.90   1.000   P
  TPI      557.00   1.000   P
  MTN      559.00   1.000   P
 PPBI      559.20   1.000   P
  TSI      560.00   1.000   P
 PLAI      560.20   1.000   P
 TWSI      560.30   1.000   P
 COEN      560.40   1.000   P
 KLNI      561.60   1.000   P
 WBSI      561.70   1.000   P
  KHK      561.90   1.000   P
 BASI      562.10   1.000   P
  PSI      562.30   1.000   P
 SRBI      563.50   1.000   P
 KCSI      565.30   1.000   P
 GRJI      565.60   1.000   P
 BKNI      567.10   1.000   P
 BLJI      567.10   1.000   P
 RTBI      567.30   1.000   P
 MLSI      567.30   1.000   P
 TBJI      567.40   1.000   P
 GMJI      570.40   1.000   P
 SWJI      570.60   1.000   P
 PWJI      571.10   1.000   P
 NGJI      571.50   1.000   P
 MNSI      571.70   1.000   P
 SMRI      572.60   1.000   P
  KRK      572.90   1.000   P
 SDSI      573.30   1.000   P
 WOJI      576.40   1.000   P
 PDSI      576.60   1.000   P
 PCJI      577.50   1.000   P
  GSI      577.70   1.000   P
  BJI      578.00   1.000   P
 CTJI      578.10   1.000   P
 KPJI      578.10   1.000   P
  UGM      578.30   1.000   P
 JCJI      578.50   1.000   P
  KLI      579.90   1.000   P
 KRJI      579.90   1.000   P
 MDSI      580.00   1.000   P
 MKBI      580.10   1.000   P
  LEM      580.40   1.000   P
 MASI      580.60   1.000   P
 SCJI      581.60   1.000   P
  TNG      581.90   1.000   P
 TNGI      582.00   1.000   P
 DBJI      583.20   1.000   P
 CMJI      584.00   1.000   P
 SBJI      584.60   1.000   P
  KBL      585.40   1.000   P
 SISI      585.50   1.000   P
 MNAI      585.70   1.000   P
 PPSI      589.20   1.000   P
 EGSI      592.90   1.000   P
 FITZ      603.30   1.000   P
  CTA      603.60   1.000   P
 MALK      627.00   1.000   P
 HALK      636.20   1.000   P
 EIDS      641.70   1.000   P
 MEEK      668.80   1.000   P
 ARMA      674.50   1.000   P
 CMSA      678.00   1.000   P
 STKA      678.80   1.000   P
 FORT      680.40   1.000   P
 BBOO      685.70   1.000   P
 MORW      688.10   1.000   P
  LHI      688.20   1.000   P
 KMBL      692.40   1.000   P
  YNG      695.50   1.000   P
 BLDU      695.80   1.000   P
 KAAM      696.10   1.000   P
  CNB      702.20   1.000   P
 NWAO      706.70   1.000   P
  TOO      713.80   1.000   P
# 2012 05 05 20 12 30.5  038.22    141.32     10.0  5.4   0.0   0.0   1.464        26
 CBIJ      157.00   1.000   P
  JOW      222.40   1.000   P
 TATO      288.60   1.000   P
 TWGB      305.90   1.000   P
 KMNB      312.40   1.000   P
  ULN      338.20   1.000   P
 SGSI      432.90   1.000   P
 GLMI      441.30   1.000   P
 UBPT      446.30   1.000   P
  LDM      446.40   1.000   P
  KKM      449.70   1.000   P
 SIJI      454.00   1.000   P
 GENI      461.00   1.000   P
 LBMI      461.10   1.000   P
 KMSI      461.20   1.000   P
 SMSI      463.20   1.000   P
 PBKT      465.70   1.000   P
 CMMT      466.80   1.000   P
 CHTO      467.50   1.000   P
 MRSI      467.80   1.000   P
 FAKI      470.30   1.000   P
 SANI      473.90   1.000   P
 MPSI      475.50   1.000   P
 LUWI      477.30   1.000   P
 APSI      478.50   1.000   P
 MSAI      479.70   1.000   P
  AAI      482.90   1.000   P
  PCI      484.00   1.000   P
 BNDI      487.00   1.000   P
 SRDT      489.00   1.000   P
  SBM      491.50   1.000   P
 SMKI      493.30   1.000   P
 TTSI      502.60   1.000   P
 MTKI      503.00   1.000   P
 KKSI      503.60   1.000   P
  KSM      506.70   1.000   P
 BNSI      509.10   1.000   P
 STKI      510.40   1.000   P
 KBKI      514.80   1.000   P
 PKKI      515.10   1.000   P
 SKLT      519.50   1.000   P
 BSSI      521.40   1.000   P
 PBKI      528.10   1.000   P
 ATNI      529.70   1.000   P
  KUM      530.30   1.000   P
  IPM      531.90   1.000   P
  AAK      533.60   1.000   P
  KOM      534.10   1.000   P
 MMRI      534.40   1.000   P
 TPRI      536.10   1.000   P
 SOEI      536.50   1.000   P
 BTDF      537.10   1.000   P
 LBFI      542.20   1.000   P
 DBNI      543.70   1.000   P
  MTN      546.00   1.000   P
 BATI      546.90   1.000   P
 TWSI      547.90   1.000   P
 KLNI      549.00   1.000   P
  KHK      549.60   1.000   P
 LHMI      552.60   1.000   P
 KCSI      552.80   1.000   P
 RGRI      554.60   1.000   P
 COEN      554.70   1.000   P
 MLSI      556.20   1.000   P
 BKNI      556.20   1.000   P
 TPTI      558.20   1.000   P
 SWJI      558.60   1.000   P
 MNSI      559.40   1.000   P
 PWJI      559.60   1.000   P
 PMBI      559.70   1.000   P
 SMRI      560.30   1.000   P
 SDSI      562.80   1.000   P
 CTJI      564.00   1.000   P
 NGJI      564.00   1.000   P
 PDSI      564.10   1.000   P
  UGM      564.20   1.000   P
 KPJI      566.20   1.000   P
  NIL      566.20   1.000   P
  GSI      566.70   1.000   P
  KLI      567.80   1.000   P
 KRJI      568.10   1.000   P
 MDSI      568.10   1.000   P
 MKBI      569.10   1.000   P
 BLSI      569.20   1.000   P
 MASI      569.40   1.000   P
 DBJI      571.00   1.000   P
 LWLI      571.30   1.000   P
 KASI      571.50   1.000   P
 SISI      573.40   1.000   P
 PPSI      577.70   1.000   P
 EGSI      581.00   1.000   P
  KBL      585.00   1.000   P
 FITZ      591.30   1.000   P
 WRAB      591.90   1.000   P
 MBWA      621.60   1.000   P
 PALK      625.60   1.000   P
 HALK      630.50   1.000   P
 CMSA      667.20   1.000   P
 FORT      668.50   1.000   P
 STKA      669.00   1.000   P
 UOSS      680.40   1.000   P
