# 2012 05 20 07 20 02.4  039.41    142.51     31.0  6.2   0.0   0.0   1.834        27
  JOW      237.70   1.000   P
  YOJ      294.10   1.000   P
 TWGB      315.80   1.000   P
 SGSI      448.60   1.000   P
  LDM      456.30   1.000   P
 SIJI      462.70   1.000   P
 GENI      467.70   1.000   P
 SMSI      470.80   1.000   P
 CMMT      473.20   1.000   P
 OBMI      473.20   1.000   P
 PBKT      473.70   1.000   P
 FAKI      476.30   1.000   P
 MRSI      477.20   1.000   P
 SANI      481.60   1.000   P
 MPSI      484.70   1.000   P
 APSI      486.50   1.000   P
 LUWI      487.60   1.000   P
 SRDT      495.70   1.000   P
  SBM      499.40   1.000   P
 SGKI      501.20   1.000   P
 MTKI      511.70   1.000   P
  KSM      514.60   1.000   P
 SPSI      514.80   1.000   P
 KBKI      523.40   1.000   P
 BKSI      523.80   1.000   P
 SKLT      526.70   1.000   P
  AAK      531.50   1.000   P
 ATNI      536.50   1.000   P
  IPM      539.20   1.000   P
  KOM      541.30   1.000   P
 MMRI      541.40   1.000   P
 EDFI      542.10   1.000   P
 SOEI      544.70   1.000   P
 BATI      546.40   1.000   P
 COEN      551.00   1.000   P
  MTN      551.10   1.000   P
 PPBI      552.90   1.000   P
  KHK      557.50   1.000   P
 TWSI      557.60   1.000   P
 KLNI      558.40   1.000   P
  PSI      559.90   1.000   P
 SRBI      562.70   1.000   P
 MLSI      564.40   1.000   P
 BKNI      565.20   1.000   P
 SWJI      566.00   1.000   P
 PWJI      567.20   1.000   P
 NGJI      568.20   1.000   P
  KRK      568.30   1.000   P
 SMRI      570.20   1.000   P
 CTJI      572.60   1.000   P
 PDSI      572.80   1.000   P
  BJI      573.00   1.000   P
 WOJI      573.20   1.000   P
  UGM      573.50   1.000   P
 KPJI      573.70   1.000   P
  GSI      575.00   1.000   P
 MDSI      575.60   1.000   P
  KLI      576.80   1.000   P
 MASI      577.10   1.000   P
 MKBI      578.00   1.000   P
 DBJI      578.90   1.000   P
 KASI      579.90   1.000   P
 LWLI      580.20   1.000   P
 SISI      582.30   1.000   P
  KBL      584.60   1.000   P
 FITZ      597.70   1.000   P
 PALK      631.00   1.000   P
 HALK      636.00   1.000   P
 EIDS      642.60   1.000   P
 COCO      649.10   1.000   P
 MEEK      662.80   1.000   P
 CMSA      669.50   1.000   P
 ARMA      670.10   1.000   P
 STKA      671.60   1.000   P
 BBOO      679.60   1.000   P
 MORW      681.40   1.000   P
 KMBL      683.90   1.000   P
 BLDU      689.90   1.000   P
  YNG      690.00   1.000   P
 NWAO      701.60   1.000   P
  TOO      705.60   1.000   P
# 2012 05 20 08 21 01.4  039.46    142.58     10.0  5.6   0.0   0.0   0.913        28
 TATO      302.50   1.000   P
 TWGB      320.30   1.000   P
  LDM      460.80   1.000   P
  KKM      463.20   1.000   P
 SMSI      474.90   1.000   P
 CMMT      478.10   1.000   P
 MRSI      480.50   1.000   P
 SANI      487.40   1.000   P
 MPSI      487.80   1.000   P
  SBM      503.60   1.000   P
  KSM      518.50   1.000   P
 SPSI      519.40   1.000   P
 STKI      522.20   1.000   P
 SKLT      530.80   1.000   P
  AAK      534.80   1.000   P
 ATNI      541.80   1.000   P
  IPM      542.60   1.000   P
 EDFI      546.70   1.000   P
 SOEI      549.20   1.000   P
  PSI      563.80   1.000   P
 KCSI      564.70   1.000   P
 MLSI      568.10   1.000   P
 BKNI      569.40   1.000   P
 SWJI      571.50   1.000   P
 PWJI      572.00   1.000   P
 PDSI      576.50   1.000   P
 CTJI      576.60   1.000   P
 KPJI      578.50   1.000   P
  GSI      579.20   1.000   P
  KLI      579.80   1.000   P
# 2012 05 21 10 17 07.4  039.12    143.35     10.0  5.6   0.0   0.0   0.627        29
 CBIJ      171.40   1.000   P
 TATO      304.90   1.000   P
 TWGB      323.60   1.000   P
 GUMO      327.30   1.000   P
  ULN      346.40   1.000   P
 PATS      410.10   1.000   P
 SGSI      443.70   1.000   P
  LDM      460.20   1.000   P
 BAKI      460.30   1.000   P
 MWPI      460.50   1.000   P
 SKNT      460.80   1.000   P
 UBPT      462.00   1.000   P
  KKM      464.20   1.000   P
 SRPI      464.80   1.000   P
  MNI      465.10   1.000   P
 RKPI      465.50   1.000   P
 SIJI      465.60   1.000   P
 GENI      468.50   1.000   P
  JAY      468.60   1.000   P
 LBMI      472.20   1.000   P
 KMSI      473.30   1.000   P
 SMSI      476.30   1.000   P
 OBMI      478.00   1.000   P
 MRSI      481.10   1.000   P
 PBKT      481.80   1.000   P
 WAMI      481.80   1.000   P
 CHTO      482.30   1.000   P
 KMPI      483.10   1.000   P
 MHIT      485.30   1.000   P
 SANI      487.00   1.000   P
 MPSI      489.10   1.000   P
 LUWI      489.60   1.000   P
 MSAI      489.70   1.000   P
 APSI      491.90   1.000   P
 CHBT      493.30   1.000   P
 AAII      493.50   1.000   P
 NLAI      493.60   1.000   P
  AAI      493.80   1.000   P
 BNDI      496.90   1.000   P
  PCI      497.40   1.000   P
 SRDT      503.20   1.000   P
 SMKI      504.40   1.000   P
  SBM      505.30   1.000   P
 TARA      505.80   1.000   P
  BKB      508.00   1.000   P
 TTSI      511.00   1.000   P
  KDI      511.30   1.000   P
 MTKI      516.50   1.000   P
 PMSI      519.40   1.000   P
 SPSI      519.80   1.000   P
  KSM      520.10   1.000   P
 SAUI      520.60   1.000   P
  PMG      522.30   1.000   P
 STKI      523.80   1.000   P
 KBKI      527.50   1.000   P
 BKSI      528.10   1.000   P
 PKKI      528.70   1.000   P
 SKLT      533.30   1.000   P
 PBKI      540.70   1.000   P
  AAK      540.80   1.000   P
 ATNI      541.60   1.000   P
  IPM      546.10   1.000   P
 EDFI      547.40   1.000   P
  KOM      547.50   1.000   P
 SOEI      547.80   1.000   P
 TPRI      549.40   1.000   P
 LBFI      550.60   1.000   P
 BATI      552.40   1.000   P
 DBNI      555.40   1.000   P
 COEN      555.50   1.000   P
  MTN      556.50   1.000   P
 BWJI      557.00   1.000   P
 DSRI      557.30   1.000   P
  TPI      557.40   1.000   P
  WSI      557.50   1.000   P
 PLAI      559.20   1.000   P
 WBSI      559.80   1.000   P
 PPBI      560.30   1.000   P
 BASI      560.40   1.000   P
 LASI      560.70   1.000   P
 TWSI      561.30   1.000   P
 KLNI      561.70   1.000   P
 SRBI      562.40   1.000   P
 LHMI      562.70   1.000   P
  KHK      562.90   1.000   P
  TSI      563.60   1.000   P
 GRJI      564.40   1.000   P
 BLJI      565.70   1.000   P
  PSI      566.20   1.000   P
 RPSI      566.20   1.000   P
  DNP      566.30   1.000   P
 IGBI      567.40   1.000   P
 KCSI      567.50   1.000   P
 JAGI      568.40   1.000   P
 BKNI      569.00   1.000   P
 GMJI      569.60   1.000   P
 MLSI      570.40   1.000   P
 NGJI      570.70   1.000   P
 SWJI      571.50   1.000   P
 TPTI      571.90   1.000   P
  KRK      572.40   1.000   P
 SMRI      572.60   1.000   P
 PWJI      574.00   1.000   P
  NIL      574.50   1.000   P
 WOJI      575.70   1.000   P
  PPI      576.30   1.000   P
 PCJI      577.10   1.000   P
  BJI      577.10   1.000   P
 CTJI      577.10   1.000   P
 PDSI      577.80   1.000   P
 JCJI      578.90   1.000   P
 KPJI      579.70   1.000   P
 KRJI      580.00   1.000   P
  GSI      580.20   1.000   P
 SCJI      581.20   1.000   P
  KLI      581.30   1.000   P
 MDSI      583.20   1.000   P
 MASI      583.40   1.000   P
 SBJI      583.80   1.000   P
 DBJI      584.10   1.000   P
 CMJI      584.60   1.000   P
 MKBI      584.80   1.000   P
 MNAI      585.10   1.000   P
 LWLI      585.50   1.000   P
 CISI      586.00   1.000   P
 SKJI      586.20   1.000   P
 KASI      586.80   1.000   P
 SISI      588.70   1.000   P
 CGJI      589.20   1.000   P
 PPSI      591.10   1.000   P
  KBL      591.60   1.000   P
 EGSI      594.60   1.000   P
 CTAO      599.00   1.000   P
  CTA      600.30   1.000   P
 FITZ      602.70   1.000   P
 WRAB      603.80   1.000   P
 MBWA      632.50   1.000   P
 MALK      633.50   1.000   P
 PALK      635.10   1.000   P
 HALK      641.40   1.000   P
 ARMA      669.40   1.000   P
 CMSA      674.20   1.000   P
 STKA      675.50   1.000   P
  LHI      682.10   1.000   P
 BBOO      683.00   1.000   P
 MORW      686.00   1.000   P
 NIUE      687.10   1.000   P
 UOSS      689.10   1.000   P
 KMBL      689.20   1.000   P
  YNG      691.40   1.000   P
 BLDU      694.60   1.000   P
  CNB      697.80   1.000   P
 KAAM      699.20   1.000   P
 NWAO      704.90   1.000   P
  TOO      709.00   1.000   P
 DGAR      729.20   1.000   P
  MOO      734.40   1.000   P
 RAYN      736.50   1.000   P
  EIL      753.20   1.000   P
# 2012 05 22 07 18 30.1  039.53    143.10     10.0  5.0   0.0   0.0   0.506        30
 TATO      306.70   1.000   P
 TWGB      325.60   1.000   P
  ULN      343.40   1.000   P
 PBKT      480.30   1.000   P
 CHTO      481.30   1.000   P
  SBM      506.50   1.000   P
  AAK      538.00   1.000   P
  KHK      564.70   1.000   P
  PSI      566.50   1.000   P
 SWJI      573.60   1.000   P
 PWJI      575.40   1.000   P
# 2012 05 23 15 02 23.1  041.21    141.81     10.0  6.1   0.0   0.0   1.061        31
 CBIJ      198.10   1.000   P
  JOW      252.40   1.000   P
  JMJ      288.30   1.000   P
  YOJ      302.00   1.000   P
 TATO      309.20   1.000   P
 TWGB      326.70   1.000   P
  ULN      326.90   1.000   P
 KMNB      331.40   1.000   P
 SKNT      459.00   1.000   P
 UBPT      460.20   1.000   P
 MWPI      476.80   1.000   P
 PBKT      477.90   1.000   P
 CHTO      478.50   1.000   P
 SIJI      479.20   1.000   P
 RKPI      480.20   1.000   P
 SRPI      481.80   1.000   P
  JAY      485.00   1.000   P
 LBMI      485.10   1.000   P
 KMSI      485.20   1.000   P
 SMSI      485.30   1.000   P
 GENI      486.00   1.000   P
 OBMI      489.60   1.000   P
 CHBT      493.90   1.000   P
 FAKI      494.10   1.000   P
 KMPI      495.70   1.000   P
 MPSI      497.60   1.000   P
 WAMI      497.90   1.000   P
 SANI      498.10   1.000   P
 SRDT      500.60   1.000   P
 APSI      501.10   1.000   P
 MSAI      504.80   1.000   P
 NLAI      506.30   1.000   P
 PHET      506.70   1.000   P
  PCI      507.00   1.000   P
  AAI      507.30   1.000   P
 AAII      507.60   1.000   P
 BNDI      510.60   1.000   P
 TTSI      521.60   1.000   P
  KDI      521.80   1.000   P
 MTKI      524.00   1.000   P
 SPSI      527.50   1.000   P
 SKLT      533.50   1.000   P
 KBKI      534.70   1.000   P
 PKKI      535.00   1.000   P
 BKSI      536.60   1.000   P
 PKDT      541.30   1.000   P
 PBKI      547.20   1.000   P
 ATNI      551.80   1.000   P
 TPRI      553.40   1.000   P
 MMRI      554.70   1.000   P
 EDFI      555.10   1.000   P
 LBFI      558.10   1.000   P
 DSRI      561.60   1.000   P
 BATI      562.00   1.000   P
 DBNI      562.50   1.000   P
 PLAI      565.10   1.000   P
 PPBI      565.20   1.000   P
 KCSI      566.40   1.000   P
  PSI      566.40   1.000   P
 RPSI      566.90   1.000   P
 KLNI      568.80   1.000   P
 MLSI      569.60   1.000   P
  KHK      570.00   1.000   P
 SRBI      570.20   1.000   P
 GRJI      570.90   1.000   P
 RTBI      572.80   1.000   P
 GMJI      575.20   1.000   P
  PPI      580.60   1.000   P
# 2012 05 28 16 36 33.7  036.63    140.88     22.0  5.5   0.0   0.0   1.094        32
 CBIJ      134.60   1.000   P
  JOW      205.00   1.000   P
  JMJ      247.20   1.000   P
 TATO      273.40   1.000   P
 TWGB      290.80   1.000   P
 KMNB      301.80   1.000   P
 GUMO      305.50   1.000   P
  ULN      343.60   1.000   P
 GLMI      426.50   1.000   P
 BAKI      434.20   1.000   P
 SKNT      435.30   1.000   P
 MWPI      435.80   1.000   P
 SIJI      439.30   1.000   P
 RKPI      440.40   1.000   P
 SRPI      441.70   1.000   P
  JAY      444.80   1.000   P
 LBMI      445.40   1.000   P
 GENI      445.70   1.000   P
 OBMI      450.10   1.000   P
 FAKI      453.40   1.000   P
 PBKT      456.20   1.000   P
 WAMI      458.60   1.000   P
 CHTO      460.40   1.000   P
 SANI      461.10   1.000   P
 MSAI      465.50   1.000   P
 NLAI      467.00   1.000   P
  AAI      469.40   1.000   P
 AAII      469.60   1.000   P
 CHBT      470.70   1.000   P
  PCI      471.20   1.000   P
 BNDI      471.60   1.000   P
  SBM      476.20   1.000   P
 SGKI      477.60   1.000   P
 SMKI      478.90   1.000   P
 SRDT      479.50   1.000   P
  BKB      483.70   1.000   P
 PHET      485.70   1.000   P
  KDI      485.90   1.000   P
 TTSI      488.10   1.000   P
 KKSI      489.00   1.000   P
 MTKI      489.90   1.000   P
  KSM      492.10   1.000   P
 SPSI      494.50   1.000   P
 STKI      496.40   1.000   P
 SAUI      498.00   1.000   P
 TARA      500.40   1.000   P
 KBKI      502.20   1.000   P
 SKLT      507.70   1.000   P
 ATNI      515.80   1.000   P
  KUM      519.60   1.000   P
 MMRI      520.00   1.000   P
  IPM      520.50   1.000   P
 EDFI      521.60   1.000   P
  KOM      521.90   1.000   P
 SOEI      523.10   1.000   P
 TPRI      524.40   1.000   P
 LBFI      525.10   1.000   P
 BATI      527.10   1.000   P
 DBNI      530.30   1.000   P
 DSRI      532.50   1.000   P
 BWJI      533.60   1.000   P
 TWSI      534.20   1.000   P
 KLNI      534.90   1.000   P
  KHK      536.30   1.000   P
 GRJI      539.40   1.000   P
 RTBI      540.50   1.000   P
  PSI      541.70   1.000   P
 GMJI      544.10   1.000   P
 BKNI      544.40   1.000   P
  KRK      545.90   1.000   P
 SWJI      545.90   1.000   P
 PWJI      547.20   1.000   P
 PMBI      547.50   1.000   P
 MNSI      549.00   1.000   P
 CTJI      551.90   1.000   P
  UGM      552.10   1.000   P
 PDSI      553.90   1.000   P
 BLSI      557.20   1.000   P
 KRJI      558.00   1.000   P
# 2012 06 01 08 48 04.4  036.27    140.40     42.0  5.5   0.0   0.0   0.841        33
 CBIJ      129.40   1.000   P
  JOW      195.30   1.000   P
 TWGB      283.80   1.000   P
 GUMO      300.00   1.000   P
  ULN      338.40   1.000   P
 UBPT      429.80   1.000   P
 SIJI      433.60   1.000   P
  JAY      438.80   1.000   P
 PBKT      449.70   1.000   P
 CHTO      451.20   1.000   P
 SANI      453.80   1.000   P
  KSM      487.10   1.000   P
 ATNI      509.00   1.000   P
  IPM      515.50   1.000   P
 SOEI      516.70   1.000   P
  MTN      527.30   1.000   P
 KLNI      529.70   1.000   P
 COEN      530.10   1.000   P
  AAK      530.60   1.000   P
  KHK      531.60   1.000   P
 SWJI      540.60   1.000   P
 PWJI      541.20   1.000   P
 MNSI      542.90   1.000   P
 KPJI      547.40   1.000   P
 MDSI      549.20   1.000   P
 WRAB      575.50   1.000   P
  KBL      580.70   1.000   P
# 2012 06 05 19 31 35.9  034.69    140.86     10.0  6.1   0.0   0.0   1.802        34
 GUMO      288.00   1.000   P
 PATS      388.30   1.000   P
 SGSI      404.20   1.000   P
 MWPI      421.20   1.000   P
 BAKI      421.80   1.000   P
 SIJI      424.60   1.000   P
 RKPI      425.00   1.000   P
  LDM      425.40   1.000   P
 SRPI      426.20   1.000   P
  KKM      427.20   1.000   P
  JAY      429.30   1.000   P
 SKNT      430.50   1.000   P
 GENI      430.60   1.000   P
 UBPT      430.80   1.000   P
 KMSI      432.40   1.000   P
 LBMI      432.70   1.000   P
 SMSI      434.40   1.000   P
 OBMI      438.60   1.000   P
 FAKI      440.50   1.000   P
 MRSI      441.20   1.000   P
 KMPI      443.60   1.000   P
 SANI      446.30   1.000   P
 WAMI      446.30   1.000   P
 MPSI      448.70   1.000   P
 APSI      451.10   1.000   P
 MSAI      451.30   1.000   P
 PBKT      452.40   1.000   P
  AAI      453.20   1.000   P
 AAII      453.30   1.000   P
 NLAI      454.90   1.000   P
 CHTO      456.20   1.000   P
  PCI      457.90   1.000   P
 BNDI      459.10   1.000   P
 CHBT      464.40   1.000   P
  SBM      467.30   1.000   P
  KDI      473.70   1.000   P
  BKB      473.80   1.000   P
 KKSI      476.20   1.000   P
 TTSI      476.40   1.000   P
 SRDT      476.60   1.000   P
 PHET      480.10   1.000   P
 MTKI      480.40   1.000   P
 SPSI      480.50   1.000   P
  KSM      482.60   1.000   P
 SAUI      483.20   1.000   P
 STKI      488.40   1.000   P
  PMG      488.80   1.000   P
 BKSI      491.40   1.000   P
 SKLT      502.30   1.000   P
 ATNI      503.00   1.000   P
 PBKI      506.30   1.000   P
 MMRI      507.10   1.000   P
 EDFI      508.90   1.000   P
 SOEI      509.20   1.000   P
 LBFI      511.90   1.000   P
  IPM      513.90   1.000   P
  KUM      513.90   1.000   P
 BATI      514.40   1.000   P
  KOM      515.20   1.000   P
 DBNI      517.00   1.000   P
  WSI      517.70   1.000   P
 PLAI      519.00   1.000   P
  MTN      519.60   1.000   P
 COEN      521.90   1.000   P
 KLNI      525.60   1.000   P
  KHK      526.90   1.000   P
 SRBI      527.90   1.000   P
 PPBI      528.30   1.000   P
 IGBI      529.60   1.000   P
 RTBI      530.10   1.000   P
 JAGI      531.50   1.000   P
 GRJI      532.00   1.000   P
  DNP      532.80   1.000   P
  PSI      533.60   1.000   P
 BYJI      533.70   1.000   P
 BLJI      534.00   1.000   P
 GMJI      534.30   1.000   P
 SWJI      536.00   1.000   P
  KRK      536.30   1.000   P
 KCSI      536.70   1.000   P
 PWJI      536.90   1.000   P
 NGJI      537.30   1.000   P
 RPSI      538.70   1.000   P
 RGRI      539.20   1.000   P
 BKNI      539.50   1.000   P
 PCJI      540.30   1.000   P
 SMRI      540.50   1.000   P
 PMBI      540.80   1.000   P
 MLSI      540.90   1.000   P
  UGM      541.90   1.000   P
  AAK      542.50   1.000   P
 MNSI      543.00   1.000   P
 KPJI      544.80   1.000   P
 CTJI      544.90   1.000   P
  PPI      545.20   1.000   P
  LEM      547.90   1.000   P
  KLI      548.70   1.000   P
 MDSI      548.70   1.000   P
 JCJI      548.80   1.000   P
 BLSI      549.40   1.000   P
 CISI      549.60   1.000   P
 MKBI      550.90   1.000   P
 DBJI      551.60   1.000   P
 LWLI      551.70   1.000   P
 PDSI      551.80   1.000   P
 MASI      552.20   1.000   P
  GSI      552.30   1.000   P
 KASI      553.50   1.000   P
 KRJI      553.50   1.000   P
 CGJI      554.20   1.000   P
 SKJI      555.10   1.000   P
 SBJI      556.10   1.000   P
 SISI      561.40   1.000   P
 PPSI      563.50   1.000   P
 WRAB      567.60   1.000   P
  CTA      568.70   1.000   P
 CTAO      568.80   1.000   P
 MBWA      599.70   1.000   P
 EIDS      609.70   1.000   P
 MALK      615.30   1.000   P
 PALK      618.80   1.000   P
 HALK      622.50   1.000   P
 MEEK      636.80   1.000   P
 ARMA      645.80   1.000   P
 CMSA      646.60   1.000   P
 STKA      647.20   1.000   P
 BBOO      654.30   1.000   P
 MORW      656.90   1.000   P
 KMBL      659.20   1.000   P
 BLDU      664.20   1.000   P
  YNG      665.50   1.000   P
  CNB      675.30   1.000   P
 NWAO      676.40   1.000   P
 UOSS      683.90   1.000   P
  TOO      685.80   1.000   P
 KAAM      686.60   1.000   P
  MOO      716.10   1.000   P
 LBTB     1136.30   1.000   P
 BOSA     1138.30   1.000   P
# 2012 06 08 05 23 00.6  038.18    137.89     10.0  5.0   0.0   0.0   1.495        35
  JMJ      237.80   1.000   P
  ULN      320.30   1.000   P
  LDM      431.80   1.000   P
 CHTO      447.80   1.000   P
  SBM      476.90   1.000   P
  KSM      492.10   1.000   P
  AAK      513.40   1.000   P
  KBL      564.70   1.000   P
