# 2012 10 25 10 32 20.9  038.48    141.90     10.0  5.6   0.0   0.0   1.689        49
 CBIJ      159.40   1.000   P
  JOW      230.50   1.000   P
 SGSI      428.20   1.000   P
 SKNT      450.80   1.000   P
  LDM      451.40   1.000   P
 TNTI      454.70   1.000   P
 SIJI      458.10   1.000   P
 MWPI      463.10   1.000   P
 GENI      463.20   1.000   P
 LBMI      465.20   1.000   P
 KMSI      465.70   1.000   P
 SMSI      467.60   1.000   P
 OBMI      468.90   1.000   P
 CHTO      471.70   1.000   P
 MRSI      471.80   1.000   P
 CMMT      472.10   1.000   P
 FAKI      472.90   1.000   P
 SANI      477.80   1.000   P
 MPSI      479.60   1.000   P
 LUWI      481.70   1.000   P
 APSI      482.40   1.000   P
 CHBT      483.90   1.000   P
  AAI      486.50   1.000   P
 BNDI      489.60   1.000   P
 SRDT      493.20   1.000   P
  SBM      495.20   1.000   P
 SMKI      496.50   1.000   P
 PHET      498.50   1.000   P
 TTSI      503.00   1.000   P
 MMSI      504.70   1.000   P
 MTKI      506.00   1.000   P
 KKSI      507.90   1.000   P
 SPSI      510.00   1.000   P
  KSM      510.30   1.000   P
 BNSI      513.00   1.000   P
 STKI      514.60   1.000   P
 BKSI      519.20   1.000   P
 ATNI      533.10   1.000   P
  IPM      536.00   1.000   P
 EDFI      538.10   1.000   P
 MMRI      538.70   1.000   P
 SOEI      539.50   1.000   P
 TPRI      540.00   1.000   P
 LBFI      540.60   1.000   P
 BTDF      541.40   1.000   P
 BATI      544.90   1.000   P
 DBNI      545.80   1.000   P
 WBSI      548.50   1.000   P
  MTN      548.90   1.000   P
 COEN      551.40   1.000   P
 PPBI      551.50   1.000   P
 TWSI      551.60   1.000   P
 KLNI      552.80   1.000   P
 SRBI      553.80   1.000   P
 LHMI      554.40   1.000   P
  PSI      555.70   1.000   P
 KCSI      555.80   1.000   P
 RPSI      556.00   1.000   P
 BKNI      560.10   1.000   P
 MLSI      560.30   1.000   P
 SWJI      562.40   1.000   P
  KRK      562.70   1.000   P
 NGJI      563.00   1.000   P
 PWJI      563.20   1.000   P
 MNSI      563.40   1.000   P
 SDSI      565.30   1.000   P
 PDSI      567.80   1.000   P
  UGM      568.10   1.000   P
 SLSI      568.20   1.000   P
 KPJI      569.80   1.000   P
  GSI      570.30   1.000   P
  KLI      571.80   1.000   P
 MDSI      572.60   1.000   P
  LEM      573.00   1.000   P
 BLSI      573.00   1.000   P
 MKBI      573.60   1.000   P
 MASI      573.70   1.000   P
 MBWA      625.50   1.000   P
# 2012 11 05 04 30 27.6  037.61    143.89     23.0  5.6   0.0   0.0   1.745        50
 CBIJ      146.80   1.000   P
 TWGB      317.70   1.000   P
 KMNB      325.00   1.000   P
  ULN      354.00   1.000   P
  JAY      452.40   1.000   P
 TNTI      452.40   1.000   P
 SIJI      453.00   1.000   P
  SWI      454.40   1.000   P
 LBMI      455.90   1.000   P
 GENI      457.10   1.000   P
 UBPT      458.60   1.000   P
 SMSI      459.00   1.000   P
 KMSI      463.30   1.000   P
 OBMI      467.10   1.000   P
 FAKI      467.20   1.000   P
TOLI2      467.90   1.000   P
 MRSI      471.10   1.000   P
 SANI      475.50   1.000   P
 CHTO      478.40   1.000   P
 PBKT      478.70   1.000   P
 CMMT      479.10   1.000   P
 MSAI      479.70   1.000   P
 MPSI      480.20   1.000   P
 MHIT      480.80   1.000   P
 KRAI      480.90   1.000   P
 APSI      482.10   1.000   P
  AAI      482.80   1.000   P
 BNDI      484.90   1.000   P
 CHBT      487.30   1.000   P
 SRDT      500.40   1.000   P
 TTSI      502.10   1.000   P
 PHET      505.60   1.000   P
 MTKI      508.90   1.000   P
 SPSI      510.60   1.000   P
 BNSI      512.20   1.000   P
 BKSI      515.80   1.000   P
 STKI      517.40   1.000   P
 ATNI      529.00   1.000   P
 SKLT      529.60   1.000   P
 EDFI      537.30   1.000   P
 SOEI      538.20   1.000   P
  MTN      543.80   1.000   P
 BTDF      546.00   1.000   P
 DBNI      547.60   1.000   P
  MTN      547.90   1.000   S
 PLAI      550.80   1.000   P
 TWSI      551.80   1.000   P
 KLNI      553.50   1.000   P
 SRBI      553.70   1.000   P
 GRJI      555.20   1.000   P
 PPBI      555.20   1.000   P
 RTBI      557.50   1.000   P
 SWJI      563.70   1.000   P
  KRK      564.30   1.000   P
 PWJI      564.90   1.000   P
 BKNI      565.80   1.000   P
 SMRI      566.00   1.000   P
 MNSI      568.00   1.000   P
 SDSI      568.90   1.000   P
 SLSI      572.00   1.000   P
  LEM      574.40   1.000   P
 MDSI      575.10   1.000   P
  GSI      575.90   1.000   P
 MKBI      577.60   1.000   P
 MASI      577.70   1.000   P
 WRAB      589.60   1.000   P
 FITZ      591.40   1.000   P
 PALK      645.90   1.000   P
  EIL      754.90   1.000   P
# 2012 11 16 08 25 59.2  034.91    139.81     10.0  5.4   0.0   0.0   1.340        51
 GUMO      292.40   1.000   P
  ULN      347.20   1.000   P
 MWPI      422.70   1.000   P
 SIJI      424.90   1.000   P
 SMPI      425.70   1.000   P
 RKPI      426.40   1.000   P
 SMSI      431.60   1.000   P
 GENI      431.80   1.000   P
 FAKI      439.30   1.000   P
 SANI      446.60   1.000   P
 MPSI      448.20   1.000   P
 CMMT      450.00   1.000   P
 CHTO      450.50   1.000   P
 KRAI      452.40   1.000   P
 APSI      452.50   1.000   P
  AAI      456.00   1.000   P
 BNDI      459.20   1.000   P
 SPSI      479.40   1.000   P
 BNSI      482.00   1.000   P
 SKLT      500.70   1.000   P
 ATNI      502.90   1.000   P
 EDFI      505.60   1.000   P
 LBFI      511.30   1.000   P
# 2012 11 23 20 21 22.9  038.37    141.99     10.0  4.9   0.0   0.0   1.334        52
 CBIJ      158.80   1.000   P
  ULN      342.70   1.000   P
 SKNT      451.70   1.000   P
  KKM      454.10   1.000   P
 OBMI      469.30   1.000   P
 PBKT      469.50   1.000   P
 SMSI      469.50   1.000   P
TOLI2      469.70   1.000   P
 CHTO      470.70   1.000   P
 FAKI      471.80   1.000   P
 MRSI      473.80   1.000   P
 SANI      477.30   1.000   P
 MPSI      479.90   1.000   P
 APSI      484.40   1.000   P
 SRDT      494.30   1.000   P
  SBM      494.90   1.000   P
 PHET      499.40   1.000   P
  KSM      509.80   1.000   P
 BNSI      513.00   1.000   P
 BKSI      519.80   1.000   P
 PKDT      531.20   1.000   P
  KUM      531.30   1.000   P
  IPM      535.10   1.000   P
  AAK      536.40   1.000   P
 MDSI      571.90   1.000   P
  KBL      587.90   1.000   P
 WRAB      593.60   1.000   P
 FITZ      594.20   1.000   P
 MBWA      623.60   1.000   P
 EIDS      633.70   1.000   P
 ARMA      666.90   1.000   P
 CMSA      669.40   1.000   P
 STKA      670.50   1.000   P
 FORT      671.30   1.000   P
 UOSS      681.70   1.000   P
  YNG      687.20   1.000   P
  EIL      752.30   1.000   P
# 2012 12 07 08 18 20.9  037.80    144.08     10.0  7.7   0.0   0.0   1.327        53
 CBIJ      151.90   1.000   P
  JOW      243.20   1.000   P
  JMJ      279.10   1.000   P
 TATO      304.40   1.000   P
 GUMO      315.90   1.000   P
 TWGB      320.10   1.000   P
 KMNB      328.90   1.000   P
  ULN      356.30   1.000   P
 PATS      401.90   1.000   P
  DAV      412.10   1.000   P
 MWPI      452.10   1.000   P
 TNTI      455.00   1.000   P
 SRPI      455.60   1.000   P
 RKPI      455.80   1.000   P
  JAY      455.80   1.000   P
 SIJI      456.50   1.000   P
  MNI      456.80   1.000   P
  SWI      457.90   1.000   P
 GENI      457.90   1.000   P
  KKM      460.40   1.000   P
 SKNT      461.80   1.000   P
 KMSI      467.20   1.000   P
 SMSI      469.20   1.000   P
 OBMI      470.00   1.000   P
TOLI2      474.10   1.000   P
 MRSI      475.00   1.000   P
 SANI      478.30   1.000   P
 MPSI      483.60   1.000   P
 CMMT      484.00   1.000   P
 CHTO      484.10   1.000   P
 LUWI      484.40   1.000   P
 APSI      485.10   1.000   P
 NLAI      486.40   1.000   P
 BNDI      488.30   1.000   P
 SGKI      494.80   1.000   P
 TARA      496.50   1.000   P
  SBM      501.70   1.000   P
 TTSI      507.20   1.000   P
  BKB      507.40   1.000   P
 MMSI      507.50   1.000   P
 MMPI      508.00   1.000   P
 MTKI      512.20   1.000   P
 SPSI      512.70   1.000   P
 PMSI      513.90   1.000   P
 SAUI      514.00   1.000   P
 STKI      520.50   1.000   P
 KAPI      521.30   1.000   P
 BKSI      521.40   1.000   P
 KBKI      522.60   1.000   P
 ATNI      532.80   1.000   P
 SKLT      533.50   1.000   P
 MMRI      538.30   1.000   P
 PBKI      539.00   1.000   P
 EDFI      539.30   1.000   P
 SOEI      539.50   1.000   P
  KUM      542.90   1.000   P
 LBFI      543.10   1.000   P
  IPM      544.40   1.000   P
 BATI      545.30   1.000   P
 COEN      545.60   1.000   P
  KOM      546.10   1.000   P
  AAK      547.80   1.000   P
 DBNI      548.40   1.000   P
 BTDF      548.80   1.000   P
 TPRI      550.30   1.000   P
 PLAI      551.30   1.000   P
 WBSI      551.90   1.000   P
 BASI      553.20   1.000   P
 KLNI      555.70   1.000   P
 KMMI      557.20   1.000   P
 PPBI      557.60   1.000   P
 SRBI      557.70   1.000   P
 RTBI      559.40   1.000   P
 GRJI      559.70   1.000   P
 IGBI      560.80   1.000   P
  DNP      561.20   1.000   P
 TBJI      563.20   1.000   P
 BLJI      563.60   1.000   P
 JAGI      563.60   1.000   P
 RPSI      564.20   1.000   P
 BYJI      564.30   1.000   P
 LHMI      564.70   1.000   P
 KCSI      565.00   1.000   P
  TSI      565.50   1.000   P
  KRK      566.20   1.000   P
 SWJI      566.30   1.000   P
 PWJI      567.10   1.000   P
 BKNI      567.70   1.000   P
 NGJI      567.80   1.000   P
 SMRI      568.20   1.000   P
 TPTI      569.70   1.000   P
 WOJI      570.50   1.000   P
 MNSI      570.70   1.000   P
 PCJI      571.10   1.000   P
 PMBI      571.30   1.000   P
  UGM      571.90   1.000   P
 CTJI      572.30   1.000   P
 SDSI      572.40   1.000   P
 KPJI      574.50   1.000   P
 SLSI      575.00   1.000   P
 PDSI      575.60   1.000   P
 JCJI      576.00   1.000   P
  LEM      577.80   1.000   P
 MDSI      578.00   1.000   P
  GSI      578.60   1.000   P
  KLI      578.70   1.000   P
 CMJI      579.00   1.000   P
 BLSI      579.10   1.000   P
 CISI      579.50   1.000   P
 CBJI      579.60   1.000   P
 SNSI      579.90   1.000   P
 MKBI      580.00   1.000   P
 MASI      580.20   1.000   P
  NIL      580.60   1.000   P
 DBJI      580.80   1.000   P
 KRJI      581.50   1.000   P
 LWLI      581.90   1.000   P
 CGJI      582.20   1.000   P
 SBJI      582.30   1.000   P
 PBSI      582.60   1.000   P
 KASI      582.80   1.000   P
 SKJI      585.10   1.000   P
 MNAI      585.20   1.000   P
 SISI      586.80   1.000   P
 PPSI      588.20   1.000   P
  CTA      589.70   1.000   P
 CTAO      589.70   1.000   P
 WRAB      591.80   1.000   P
 MBWA      625.70   1.000   P
 EIDS      627.80   1.000   P
 MALK      634.50   1.000   P
 HALK      643.20   1.000   P
 COCO      653.20   1.000   P
 MEEK      660.60   1.000   P
 ARMA      660.90   1.000   P
 CMSA      664.20   1.000   P
 STKA      665.90   1.000   P
 FORT      669.90   1.000   P
  LHI      674.50   1.000   P
 MORW      680.10   1.000   P
 NIUE      681.00   1.000   P
 BLDU      687.40   1.000   P
  CNB      689.00   1.000   P
 UOSS      691.60   1.000   P
 NWAO      699.20   1.000   P
  TOO      700.90   1.000   P
  MOO      729.10   1.000   P
  EIL      758.40   1.000   P
 DAMY      773.60   1.000   P
  MCQ      791.60   1.000   P
 FURI      810.40   1.000   P
  SBV      832.70   1.000   P
 KMBO      843.10   1.000   P
 ABPO      855.10   1.000   P
# 2012 12 07 08 48 06.8  037.84    144.58     10.0  5.4   0.0   0.0   1.177        54
  JOW      243.30   1.000   P
 TWGB      323.40   1.000   P
  ULN      359.40   1.000   P
 GENI      456.00   1.000   P
 MRSI      478.10   1.000   P
 SANI      482.30   1.000   P
 CMMT      486.30   1.000   P
 CHTO      486.70   1.000   P
 APSI      488.90   1.000   P
  SBM      504.80   1.000   P
 PHET      512.10   1.000   P
 ATNI      537.50   1.000   P
 SOEI      542.30   1.000   P
 EDFI      542.80   1.000   P
  IPM      547.90   1.000   P
  AAK      551.80   1.000   P
 CTJI      576.20   1.000   P
 KPJI      578.40   1.000   P
 CBJI      582.10   1.000   P
 MKBI      583.40   1.000   P
 CTAO      588.10   1.000   P
# 2012 12 07 12 05 28.6  037.79    143.91     49.0  5.0   0.0   0.0   0.760        55
  JOW      236.30   1.000   P
 TWGB      314.40   1.000   P
  ULN      350.80   1.000   P
 OBMI      463.70   1.000   P
 SANI      473.30   1.000   P
 CMMT      477.40   1.000   P
 CHTO      477.60   1.000   P
 BNDI      483.40   1.000   P
  SBM      496.50   1.000   P
 SRDT      499.50   1.000   P
 ATNI      529.00   1.000   P
 SOEI      535.50   1.000   P
  IPM      539.60   1.000   P
 COEN      540.30   1.000   P
  AAK      543.10   1.000   P
 KLNI      550.50   1.000   P
 SWJI      561.60   1.000   P
 PWJI      562.50   1.000   P
 CTJI      568.00   1.000   P
 KPJI      569.30   1.000   P
 MDSI      573.90   1.000   P
 MKBI      573.90   1.000   P
 MASI      574.80   1.000   P
  NIL      575.60   1.000   P
 WRAB      587.70   1.000   P
 EIDS      623.20   1.000   P
 CMSA      660.40   1.000   P
 STKA      661.40   1.000   P
 FORT      665.20   1.000   P
  TOO      696.70   1.000   P
# 2012 12 07 12 58 03.6  037.72    143.81     10.0  5.1   0.0   0.0   0.827        56
  JOW      238.10   1.000   P
 TWGB      317.40   1.000   P
  ULN      355.50   1.000   P
 TNTI      452.40   1.000   P
  JAY      455.70   1.000   P
 SIJI      456.40   1.000   P
 GENI      457.80   1.000   P
 SKNT      460.70   1.000   P
 KMSI      465.20   1.000   P
 OBMI      467.80   1.000   P
 SMSI      468.20   1.000   P
 MRSI      473.40   1.000   P
 SANI      477.70   1.000   P
 CMMT      482.70   1.000   P
 CHTO      483.10   1.000   P
 APSI      484.50   1.000   P
  SBM      500.50   1.000   P
  IPM      543.40   1.000   P
  AAK      547.90   1.000   P
  NIL      580.90   1.000   P
 WRAB      592.70   1.000   P
 UOSS      692.10   1.000   P
# 2012 12 07 16 01 50.4  037.65    144.00     10.0  5.2   0.0   0.0   0.529        57
 TWGB      319.80   1.000   P
  ULN      357.40   1.000   P
 TNTI      453.50   1.000   P
 SIJI      456.20   1.000   P
 GENI      456.90   1.000   P
 OBMI      468.80   1.000   P
 MRSI      473.00   1.000   P
 SANI      478.20   1.000   P
 CHTO      483.60   1.000   P
 BNDI      487.50   1.000   P
  SBM      499.60   1.000   P
 SKLT      530.70   1.000   P
 ATNI      532.20   1.000   P
 EDFI      539.20   1.000   P
 SOEI      539.30   1.000   P
  KUM      542.00   1.000   P
  IPM      544.10   1.000   P
 BATI      544.10   1.000   P
 COEN      544.10   1.000   P
  AAK      549.10   1.000   P
 KLNI      555.40   1.000   P
 SRBI      556.90   1.000   P
 SWJI      565.60   1.000   P
 CTJI      572.10   1.000   P
  UGM      572.30   1.000   P
 SLSI      574.00   1.000   P
 KPJI      574.20   1.000   P
  GSI      578.00   1.000   P
 MDSI      578.10   1.000   P
 MKBI      579.70   1.000   P
 WRAB      592.40   1.000   P
 EIDS      628.10   1.000   P
 ARMA      658.80   1.000   P
 CMSA      663.70   1.000   P
 STKA      666.50   1.000   P
 UOSS      693.50   1.000   P
  TOO      701.40   1.000   P
# 2012 12 07 22 59 57.9  037.51    144.05     10.0  5.3   0.0   0.0   0.646        58
 CBIJ      148.90   1.000   P
  JOW      239.20   1.000   P
 TWGB      319.50   1.000   P
  ULN      357.50   1.000   P
  JAY      455.10   1.000   P
 SIJI      455.20   1.000   P
  SWI      455.40   1.000   P
 SKNT      461.00   1.000   P
 SMSI      466.50   1.000   P
 OBMI      468.40   1.000   P
TOLI2      472.40   1.000   P
 MRSI      473.00   1.000   P
 SANI      477.30   1.000   P
 LUWI      479.80   1.000   P
 MPSI      480.30   1.000   P
 APSI      483.50   1.000   P
 BNDI      486.70   1.000   P
 MMSI      505.70   1.000   P
 MTKI      510.80   1.000   P
 PMSI      510.90   1.000   P
 SPSI      512.40   1.000   P
 BBSI      513.50   1.000   P
 STKI      519.00   1.000   P
 BKSI      519.70   1.000   P
 ATNI      532.10   1.000   P
 MMRI      536.10   1.000   P
 SOEI      538.60   1.000   P
 EDFI      538.80   1.000   P
 LBFI      542.20   1.000   P
 BATI      543.80   1.000   P
 DBNI      546.70   1.000   P
 WBSI      550.80   1.000   P
 KLNI      555.30   1.000   P
# 2012 12 08 13 53 34.3  037.80    144.17     10.0  5.3   0.0   0.0   0.350        59
  ULN      357.80   1.000   P
  MNI      457.40   1.000   P
 MRSI      475.00   1.000   P
 CHTO      483.80   1.000   P
 CMMT      483.90   1.000   P
  SBM      501.70   1.000   P
 SRDT      505.10   1.000   P
  AAK      549.90   1.000   P
  GSI      579.70   1.000   P
 CBJI      581.10   1.000   P
  NIL      581.60   1.000   P
 WRAB      593.50   1.000   P
# 2012 12 09 02 34 16.8  037.64    143.69     10.0  5.4   0.0   0.0   0.743        60
 CBIJ      149.90   1.000   P
  JOW      238.20   1.000   P
 TWGB      319.10   1.000   P
  ULN      355.20   1.000   P
 SIJI      454.00   1.000   P
  JAY      456.00   1.000   P
 GENI      457.80   1.000   P
 SMSI      466.50   1.000   P
 OBMI      467.60   1.000   P
TOLI2      471.70   1.000   P
 MRSI      472.40   1.000   P
 SANI      476.90   1.000   P
 MPSI      480.50   1.000   P
 CHTO      481.00   1.000   P
 CMMT      481.10   1.000   P
 APSI      482.90   1.000   P
 NLAI      484.70   1.000   P
 BNDI      486.70   1.000   P
 TARA      496.80   1.000   P
  SBM      498.90   1.000   P
 SRDT      501.90   1.000   P
 SPSI      511.00   1.000   P
 STKI      518.50   1.000   P
 KAPI      519.20   1.000   P
 BKSI      519.40   1.000   P
 SOEI      537.80   1.000   P
 EDFI      537.90   1.000   P
 LBFI      540.90   1.000   P
  IPM      542.00   1.000   P
 BATI      543.00   1.000   P
 COEN      544.70   1.000   P
  AAK      547.00   1.000   P
 KLNI      553.50   1.000   P
 SRBI      554.60   1.000   P
 SMRI      565.10   1.000   P
  UGM      569.90   1.000   P
 MNSI      570.00   1.000   P
 SDSI      570.40   1.000   P
 CTJI      571.00   1.000   P
 KPJI      573.10   1.000   P
 SLSI      573.10   1.000   P
 MDSI      576.00   1.000   P
 MASI      578.10   1.000   P
# 2012 12 10 09 09 31.7  037.86    143.85     11.0  5.3   0.0   0.0   0.976        61
 TWGB      321.20   1.000   P
  ULN      354.50   1.000   P
  JAY      458.10   1.000   P
 CMMT      481.10   1.000   P
 CHTO      482.40   1.000   P
 SRDT      502.00   1.000   P
 EDFI      539.30   1.000   P
 COEN      545.80   1.000   P
  AAK      548.10   1.000   P
 SDSI      571.90   1.000   P
 KPJI      574.50   1.000   P
 SLSI      575.90   1.000   P
 MDSI      577.10   1.000   P
  NIL      580.70   1.000   P
 WRAB      592.40   1.000   P
 CMSA      665.80   1.000   P
