# 2012 01 08 15 37 25.5  034.09    135.75     37.0  5.0   0.0   0.0   0.602         1
  JOW      136.80   1.000   P
  ULN      324.40   1.000   P
 SGSI      381.80   1.000   P
 PBKT      415.00   1.000   P
 MRSI      416.90   1.000   P
 CHTO      419.00   1.000   P
 FAKI      426.00   1.000   P
 PHET      443.10   1.000   P
  IPM      480.20   1.000   P
  KOM      482.40   1.000   P
 RGRI      503.70   1.000   P
 KCSI      504.10   1.000   P
  MTN      505.90   1.000   P
  AAK      514.60   1.000   P
  GSI      517.00   1.000   P
 BLSI      520.50   1.000   P
 MASI      520.90   1.000   P
 WRAB      557.80   1.000   P
  KBL      561.40   1.000   P
 MALK      579.90   1.000   P
 PALK      583.60   1.000   P
# 2012 01 12 03 20 48.4  037.05    141.23     10.0  6.1   0.0   0.0   0.962         2
 CBIJ      140.30   1.000   P
  JOW      214.60   1.000   P
 TATO      278.80   1.000   P
 TWGB      299.50   1.000   P
 KMNB      304.50   1.000   P
 GUMO      311.40   1.000   P
  ULN      343.40   1.000   P
 PATS      403.10   1.000   P
 SGSI      423.10   1.000   P
 GLMI      431.10   1.000   P
  LDM      438.80   1.000   P
 SKNT      441.50   1.000   P
 MWPI      441.50   1.000   P
 UBPT      442.10   1.000   P
  KKM      442.50   1.000   P
  SWI      445.10   1.000   P
  JAY      450.60   1.000   P
 GENI      451.40   1.000   P
 LBMI      452.20   1.000   P
 KMSI      452.80   1.000   P
 MRSI      459.70   1.000   P
 FAKI      459.80   1.000   P
 PBKT      462.70   1.000   P
 KMPI      463.80   1.000   P
 CMMT      464.40   1.000   P
 CHTO      464.50   1.000   P
 SANI      465.30   1.000   P
 MPSI      467.30   1.000   P
 LUWI      468.80   1.000   P
 APSI      470.40   1.000   P
 MSAI      470.60   1.000   P
 NLAI      473.80   1.000   P
 AAII      474.40   1.000   P
  AAI      474.60   1.000   P
 SGKI      476.50   1.000   P
 BNDI      477.10   1.000   P
 SMKI      483.80   1.000   P
  SBM      484.60   1.000   P
 SRDT      485.20   1.000   P
 PHET      489.50   1.000   P
  BKB      489.60   1.000   P
 TTSI      491.90   1.000   P
 MTKI      496.30   1.000   P
 SPSI      498.40   1.000   P
 MMPI      498.70   1.000   P
 PMSI      499.20   1.000   P
  KSM      500.40   1.000   P
 SAUI      502.40   1.000   P
 TARA      502.60   1.000   P
 STKI      503.80   1.000   P
 KBKI      507.10   1.000   P
 KAPI      507.40   1.000   P
  PMG      508.80   1.000   P
 BBKI      513.60   1.000   P
 RNTT      514.80   1.000   P
 PBKI      521.10   1.000   P
 PKDT      523.50   1.000   P
 MMRI      526.20   1.000   P
  IPM      527.10   1.000   P
 EDFI      528.40   1.000   P
  KOM      528.60   1.000   P
 SOEI      529.20   1.000   P
 LBFI      530.00   1.000   P
 BTDF      531.40   1.000   P
 DBNI      534.90   1.000   P
  AAK      536.60   1.000   P
 BWJI      537.70   1.000   P
  MTN      537.80   1.000   P
 PLAI      537.80   1.000   P
 WBSI      538.50   1.000   P
 BASI      539.90   1.000   P
 COEN      540.40   1.000   P
 KMMI      540.50   1.000   P
 PPBI      541.30   1.000   P
 KLNI      542.80   1.000   P
 SRBI      543.00   1.000   P
  KHK      544.00   1.000   P
 ABJI      544.50   1.000   P
 LHMI      545.00   1.000   P
 GRJI      545.20   1.000   P
 BLJI      545.60   1.000   P
 RTBI      545.80   1.000   P
 IGBI      545.90   1.000   P
  DNP      546.20   1.000   P
 TBJI      546.50   1.000   P
 JAGI      546.80   1.000   P
 RPSI      547.40   1.000   P
 UWJI      547.80   1.000   P
 KCSI      548.00   1.000   P
 GMJI      549.60   1.000   P
 BKNI      550.70   1.000   P
 TPTI      551.40   1.000   P
  KRK      552.10   1.000   P
 MLSI      552.10   1.000   P
 SWJI      552.20   1.000   P
 PMBI      552.20   1.000   P
 PWJI      553.20   1.000   P
 SMRI      553.80   1.000   P
 SDSI      555.90   1.000   P
 PCJI      556.60   1.000   P
  UGM      558.20   1.000   P
  BJI      558.30   1.000   P
 JCJI      560.10   1.000   P
 KPJI      560.30   1.000   P
 PDSI      560.40   1.000   P
  GSI      562.20   1.000   P
  KLI      562.40   1.000   P
 SCJI      562.60   1.000   P
 SNSI      563.00   1.000   P
 TNGI      563.00   1.000   P
  TNG      563.30   1.000   P
 BLSI      563.50   1.000   P
 DBJI      564.60   1.000   P
 MASI      564.60   1.000   P
 SBJI      565.10   1.000   P
 KASI      566.60   1.000   P
 CISI      567.00   1.000   P
 LWLI      567.40   1.000   P
 SKJI      568.70   1.000   P
 SISI      568.90   1.000   P
 WRAB      585.10   1.000   P
  CTA      585.50   1.000   P
 CTAO      585.50   1.000   P
  KBL      587.50   1.000   P
 MBWA      616.20   1.000   P
 MALK      618.50   1.000   P
 PALK      622.30   1.000   P
 EIDS      625.80   1.000   P
 HALK      627.30   1.000   P
 ARMA      659.00   1.000   P
 CMSA      662.00   1.000   P
 STKA      662.50   1.000   P
 FORT      662.90   1.000   P
 BBOO      669.50   1.000   P
 MORW      670.90   1.000   P
 KMBL      673.80   1.000   P
 BLDU      678.50   1.000   P
  YNG      680.10   1.000   P
 UOSS      681.90   1.000   P
  CNB      686.90   1.000   P
 NWAO      690.50   1.000   P
  TOO      698.00   1.000   P
  EIL      752.60   1.000   P
 MSEY      777.30   1.000   P
 FURI      803.40   1.000   P
  SBV      819.40   1.000   P
# 2012 01 12 05 37 24.8  038.36    142.63     10.0  5.6   0.0   0.0   0.873         3
  JOW      232.30   1.000   P
 TATO      295.40   1.000   P
 TWGB      315.60   1.000   P
 KMNB      320.70   1.000   P
  ULN      346.30   1.000   P
 GLMI      445.80   1.000   P
  LDM      453.70   1.000   P
 MWPI      453.80   1.000   P
 SKNT      454.10   1.000   P
  KKM      457.30   1.000   P
  SWI      458.80   1.000   P
 GENI      461.30   1.000   P
 LBMI      464.30   1.000   P
 KMSI      465.70   1.000   P
 FAKI      472.50   1.000   P
 MRSI      473.60   1.000   P
 PBKT      474.70   1.000   P
 CMMT      475.90   1.000   P
 CHTO      476.10   1.000   P
 KMPI      477.70   1.000   P
 SANI      479.50   1.000   P
 LUWI      480.30   1.000   P
 MPSI      482.10   1.000   P
 APSI      484.50   1.000   P
 MSAI      484.70   1.000   P
  AAI      485.80   1.000   P
 NLAI      486.40   1.000   P
 BNDI      490.00   1.000   P
 SRDT      498.20   1.000   P
  SBM      498.60   1.000   P
 PHET      502.70   1.000   P
 TTSI      505.90   1.000   P
 MTKI      510.20   1.000   P
  KSM      513.60   1.000   P
 SPSI      513.60   1.000   P
  PMG      518.30   1.000   P
 STKI      518.30   1.000   P
 KBKI      519.40   1.000   P
 KAPI      520.70   1.000   P
 BBKI      527.40   1.000   P
 PKDT      536.40   1.000   P
  KUM      537.80   1.000   P
  IPM      539.30   1.000   P
  AAK      539.90   1.000   P
 EDFI      540.00   1.000   P
 SOEI      541.20   1.000   P
  KOM      541.40   1.000   P
 LBFI      543.30   1.000   P
 BTDF      544.60   1.000   P
 DBNI      547.70   1.000   P
  MTN      549.40   1.000   P
 COEN      550.00   1.000   P
 PLAI      550.50   1.000   P
 KLNI      554.20   1.000   P
 PPBI      554.20   1.000   P
  KHK      555.80   1.000   P
 ABJI      558.10   1.000   P
 RTBI      558.50   1.000   P
 KCSI      559.10   1.000   P
  PSI      559.90   1.000   P
 BKNI      562.80   1.000   P
 MLSI      564.10   1.000   P
 SWJI      565.10   1.000   P
  KRK      566.00   1.000   P
 PWJI      566.10   1.000   P
 SDSI      568.90   1.000   P
  BJI      571.10   1.000   P
 PDSI      571.20   1.000   P
 KPJI      572.80   1.000   P
  GSI      573.80   1.000   P
  KLI      574.40   1.000   P
 MASI      575.70   1.000   P
 BLSI      576.00   1.000   P
  KBL      591.20   1.000   P
 CTAO      594.00   1.000   P
  CTA      594.10   1.000   P
 WRAB      596.00   1.000   P
 MBWA      626.50   1.000   P
 EIDS      633.00   1.000   P
 HALK      636.20   1.000   P
 CMSA      668.00   1.000   P
 STKA      670.30   1.000   P
 FORT      672.40   1.000   P
 BBOO      677.70   1.000   P
 MORW      680.60   1.000   P
 KMBL      683.50   1.000   P
 UOSS      685.90   1.000   P
 BLDU      687.60   1.000   P
# 2012 01 14 09 57 51.2  040.21    142.39     10.0  4.8   0.0   0.0   0.813         4
  JOW      246.30   1.000   P
 KMNB      327.60   1.000   P
  ULN      335.80   1.000   P
 SKNT      459.00   1.000   P
 UBPT      460.70   1.000   P
  LDM      464.90   1.000   P
 PBKT      478.40   1.000   P
 CMMT      478.80   1.000   P
 CHTO      478.90   1.000   P
 MHIT      481.70   1.000   P
 PHET      506.60   1.000   P
 SOEI      552.00   1.000   P
 COEN      563.10   1.000   P
  KBL      585.50   1.000   P
# 2012 01 20 13 30 49.9  037.79    143.83     39.0  5.0   0.0   0.0   1.389         5
  ULN      354.00   1.000   P
 SMPI      450.40   1.000   P
  SWI      452.30   1.000   P
 SKNT      455.30   1.000   P
 UBPT      456.40   1.000   P
 SMPI      462.40   1.000   S
 SKNT      463.90   1.000   S
 MRSI      470.20   1.000   P
 SANI      475.90   1.000   P
 CHTO      475.90   1.000   P
 CMMT      476.80   1.000   P
 PBKT      477.40   1.000   P
 PBKT      488.50   1.000   S
  SBM      496.00   1.000   P
 SRDT      499.60   1.000   P
  PMG      508.50   1.000   P
  KSM      512.60   1.000   P
 STKI      515.00   1.000   P
 COEN      539.20   1.000   P
  IPM      540.40   1.000   P
  MTN      541.00   1.000   P
  AAK      543.90   1.000   P
  GSI      575.30   1.000   P
 WRAB      590.10   1.000   P
  KBL      594.20   1.000   P
 CMSA      660.50   1.000   P
# 2012 01 23 11 45 17.7  038.61    143.78     16.0  5.4   0.0   0.0   0.280         6
  LDM      457.70   1.000   P
 SKNT      460.70   1.000   P
 UBPT      461.20   1.000   P
 PBKT      481.40   1.000   P
 CMMT      482.70   1.000   P
 CHTO      482.80   1.000   P
 SANI      484.20   1.000   P
 LUWI      485.30   1.000   P
 MPSI      486.60   1.000   P
 APSI      489.20   1.000   P
  SBM      503.50   1.000   P
  KSM      518.50   1.000   P
  KUM      543.10   1.000   P
  PSI      565.50   1.000   P
 KCSI      566.60   1.000   P
 BKNI      568.00   1.000   P
 MLSI      570.00   1.000   P
 TPTI      571.30   1.000   P
 MNSI      572.40   1.000   P
# 2012 01 25 20 42 51.4  038.12    141.40     10.0  5.3   0.0   0.0   0.537         7
 TWGB      305.90   1.000   P
  ULN      339.40   1.000   P
  LDM      445.10   1.000   P
 UBPT      447.20   1.000   P
 LBMI      459.70   1.000   P
 KMSI      461.30   1.000   P
 SMSI      461.90   1.000   P
 OBMI      465.20   1.000   P
 PBKT      466.80   1.000   P
 CHTO      468.00   1.000   P
 CMMT      468.00   1.000   P
 MRSI      468.20   1.000   P
 SANI      474.10   1.000   P
 MPSI      476.00   1.000   P
 APSI      478.40   1.000   P
 CHBT      479.00   1.000   P
 MSAI      479.20   1.000   P
  AAI      482.80   1.000   P
 MTKI      502.50   1.000   P
 KKSI      503.50   1.000   P
 SPSI      506.20   1.000   P
 ATNI      530.20   1.000   P
 EDFI      535.00   1.000   P
# 2012 01 28 00 22 16.1  039.98    141.86     10.0  5.9   0.0   0.0   1.465         8
 CBIJ      180.50   1.000   P
  JOW      240.50   1.000   P
  YOJ      293.50   1.000   P
 TATO      302.10   1.000   P
 TWGB      320.10   1.000   P
 KMNB      324.40   1.000   P
  ULN      332.90   1.000   P
 UBPT      456.70   1.000   P
  LDM      460.70   1.000   P
  KKM      463.40   1.000   P
 SMPI      469.50   1.000   P
  SWI      469.60   1.000   P
 LBMI      474.70   1.000   P
 PBKT      475.20   1.000   P
 CHTO      475.40   1.000   P
 CMMT      475.50   1.000   P
 SMSI      475.90   1.000   P
 GENI      478.80   1.000   P
 MRSI      480.90   1.000   P
 FAKI      482.40   1.000   P
 SANI      487.10   1.000   P
 MPSI      488.30   1.000   P
 CHBT      489.50   1.000   P
 APSI      491.30   1.000   P
 LUWI      491.60   1.000   P
 MSAI      497.20   1.000   P
 SRDT      497.80   1.000   P
 BNDI      502.10   1.000   P
  SBM      504.80   1.000   P
 MTKI      516.50   1.000   P
 KKSI      520.10   1.000   P
 SPSI      520.10   1.000   P
 STKI      523.40   1.000   P
 BBSI      526.40   1.000   P
 KAPI      528.40   1.000   P
 KBKI      528.60   1.000   P
  AAK      529.10   1.000   P
  KUM      539.90   1.000   P
  IPM      541.90   1.000   P
 ATNI      543.60   1.000   P
  KOM      545.40   1.000   P
 TPRI      547.60   1.000   P
 BTDF      547.90   1.000   P
 EDFI      548.50   1.000   P
 SOEI      549.20   1.000   P
 DBNI      557.60   1.000   P
  MTN      559.20   1.000   P
 PPBI      559.40   1.000   P
 LHMI      560.20   1.000   P
 KCSI      561.80   1.000   P
 RPSI      561.80   1.000   P
 KLNI      562.00   1.000   P
  KHK      562.10   1.000   P
 MLSI      565.10   1.000   P
 COEN      565.20   1.000   P
 RGRI      565.70   1.000   P
 TPTI      566.20   1.000   P
 BKNI      566.60   1.000   P
 MNSI      569.10   1.000   P
 SWJI      570.60   1.000   P
 PWJI      571.40   1.000   P
 SDSI      571.70   1.000   P
  GSI      576.60   1.000   P
 KPJI      577.80   1.000   P
 MDSI      579.30   1.000   P
 MASI      580.40   1.000   P
  KBL      582.20   1.000   P
 SISI      583.00   1.000   P
 MALK      625.40   1.000   P
 PALK      629.70   1.000   P
 MBWA      633.60   1.000   P
 HALK      634.70   1.000   P
 COCO      653.00   1.000   P
 MEEK      670.10   1.000   P
 FORT      680.40   1.000   P
 MORW      686.70   1.000   P
 KMBL      690.80   1.000   P
 BLDU      693.70   1.000   P
 NWAO      705.60   1.000   P
 FURI      801.70   1.000   P
 KMBO      832.60   1.000   P
# 2012 02 08 12 01 39.3  037.63    137.94     16.0  5.6   0.0   0.0   1.555         9
 TWGB      282.20   1.000   P
 KMNB      287.10   1.000   P
 GUMO      322.20   1.000   P
 GLMI      428.70   1.000   P
  LDM      430.40   1.000   P
  SWI      442.60   1.000   P
 MWPI      443.10   1.000   P
 CHTO      443.60   1.000   P
 PBKT      444.10   1.000   P
 CMMT      445.60   1.000   P
 KMSI      447.50   1.000   P
 SMSI      448.50   1.000   P
 LBMI      449.40   1.000   P
 SMPI      450.70   1.000   P
 OBMI      450.90   1.000   P
 MRSI      451.90   1.000   P
  JAY      453.80   1.000   P
 GENI      454.70   1.000   P
 MPSI      459.50   1.000   P
 FAKI      459.80   1.000   P
 SANI      461.00   1.000   P
 LUWI      461.70   1.000   P
 APSI      464.50   1.000   P
 KMPI      465.60   1.000   P
 SRDT      465.60   1.000   P
 SGKI      467.00   1.000   P
 MSAI      469.80   1.000   P
 NLAI      470.10   1.000   P
  AAI      470.70   1.000   P
  SBM      472.90   1.000   P
  BKB      480.30   1.000   P
 TTSI      483.70   1.000   P
  KSM      485.10   1.000   P
 MTKI      486.10   1.000   P
 KKSI      487.10   1.000   P
 PMSI      488.60   1.000   P
 STKI      491.40   1.000   P
 SPSI      491.50   1.000   P
 KBKI      497.90   1.000   P
 PKKI      497.90   1.000   P
 SAUI      501.30   1.000   P
  KUM      509.10   1.000   P
  IPM      512.60   1.000   P
  PMG      518.10   1.000   P
 ATNI      518.20   1.000   P
 MMRI      519.40   1.000   P
 TPRI      519.50   1.000   P
 LBFI      522.80   1.000   P
 SOEI      524.30   1.000   P
 DBNI      527.70   1.000   P
 PPBI      529.80   1.000   P
 KMMI      530.10   1.000   P
 PLAI      530.70   1.000   P
 WBSI      531.60   1.000   P
  PSI      531.70   1.000   P
 KCSI      533.10   1.000   P
 BASI      534.00   1.000   P
 KLNI      534.80   1.000   P
 SRBI      535.30   1.000   P
 MLSI      535.70   1.000   P
 RGRI      536.00   1.000   P
  KHK      536.50   1.000   P
 ABJI      536.60   1.000   P
 BKNI      536.90   1.000   P
 BLJI      537.30   1.000   P
 RTBI      537.50   1.000   P
 SBSI      537.50   1.000   P
  MTN      538.00   1.000   P
 JMBI      538.60   1.000   P
 JAGI      539.40   1.000   P
 MNSI      540.90   1.000   P
 PMBI      540.90   1.000   P
 SWJI      541.40   1.000   P
 PWJI      542.40   1.000   P
  KRK      542.90   1.000   P
 SMRI      543.30   1.000   P
 COEN      543.80   1.000   P
  GSI      547.10   1.000   P
  BJI      547.50   1.000   P
  UGM      547.70   1.000   P
 KRJI      549.40   1.000   P
  KLI      550.70   1.000   P
 BLSI      551.70   1.000   P
 MASI      552.60   1.000   P
 DBJI      553.10   1.000   P
 MDSI      553.10   1.000   P
 KASI      555.30   1.000   P
  CTA      591.20   1.000   P
 CTAO      591.30   1.000   P
 MALK      602.60   1.000   P
 HALK      608.60   1.000   P
 MBWA      612.40   1.000   P
 EIDS      632.70   1.000   P
 EIDS      636.60   1.000   S
 MEEK      648.10   1.000   P
 CMSA      662.00   1.000   P
 FORT      662.70   1.000   P
 ARMA      665.40   1.000   P
 STKA      665.50   1.000   P
 MORW      666.00   1.000   P
 KMBL      671.80   1.000   P
 BBOO      672.20   1.000   P
  YNG      685.40   1.000   P
 NWAO      688.30   1.000   P
  TOO      703.10   1.000   P
  EIL      737.30   1.000   P
 FURI      788.30   1.000   P
 KMBO      818.50   1.000   P
 MSNA     1124.50   1.000   P
# 2012 02 14 10 48 18.3  039.17    144.54     10.0  5.2   0.0   0.0   0.876        10
 CBIJ      172.80   1.000   P
  JOW      254.70   1.000   P
 TWGB      331.20   1.000   P
  ULN      354.70   1.000   P
  LDM      465.00   1.000   P
  SWI      468.60   1.000   P
 UBPT      468.60   1.000   P
 SMSI      481.20   1.000   P
 MRSI      484.80   1.000   P
 PBKT      487.90   1.000   P
 CMMT      488.50   1.000   P
 CHTO      489.70   1.000   P
 SANI      490.30   1.000   P
 MHIT      492.90   1.000   P
 MPSI      494.20   1.000   P
 APSI      497.10   1.000   P
 BNDI      501.90   1.000   P
 SRDT      510.90   1.000   P
  AAK      546.00   1.000   P
 EDFI      550.30   1.000   P
  IPM      552.10   1.000   P
  MTN      558.00   1.000   P
 SWJI      576.30   1.000   P
 PWJI      576.80   1.000   P
 MDSI      587.40   1.000   P
  KBL      598.50   1.000   P
 FITZ      604.70   1.000   P
 CMSA      674.50   1.000   P
# 2012 02 29 09 00 03.4  037.02    141.15     10.0  5.5   0.0   0.0   1.305        11
 CBIJ      140.90   1.000   P
  JOW      211.90   1.000   P
  JMJ      253.10   1.000   P
  YOJ      271.80   1.000   P
 TATO      278.90   1.000   P
 TWGB      296.30   1.000   P
 KMNB      306.10   1.000   P
 GUMO      311.20   1.000   P
  ULN      342.60   1.000   P
  LDM      433.70   1.000   P
 GLMI      436.80   1.000   P
 SIJI      445.00   1.000   P
 LBMI      450.20   1.000   P
 KMSI      451.90   1.000   P
 SMSI      452.20   1.000   P
 OBMI      456.90   1.000   P
 FAKI      459.10   1.000   P
 MRSI      459.60   1.000   P
 CMMT      464.30   1.000   P
 SANI      466.70   1.000   P
 MPSI      467.70   1.000   P
 MHIT      468.10   1.000   P
 MSAI      469.90   1.000   P
  AAI      473.50   1.000   P
 BNDI      477.20   1.000   P
 SRDT      485.40   1.000   P
 MTKI      495.20   1.000   P
  KSM      499.40   1.000   P
 BSSI      512.40   1.000   P
  KUM      523.70   1.000   P
  IPM      527.20   1.000   P
 SOEI      528.50   1.000   P
 LBFI      528.70   1.000   P
 BATI      533.20   1.000   P
  MTN      536.70   1.000   P
 PLAI      539.30   1.000   P
 COEN      539.60   1.000   P
 KLNI      541.40   1.000   P
 SRBI      542.50   1.000   P
 JAGI      548.50   1.000   P
 PWJI      552.50   1.000   P
 SLSI      557.80   1.000   P
  UGM      557.80   1.000   P
 CTJI      558.00   1.000   P
  GSI      562.50   1.000   P
  KLI      562.50   1.000   P
 MDSI      562.50   1.000   P
 MASI      564.90   1.000   P
 KASI      566.50   1.000   P
