# 2012 02 29 22 32 29.8  036.52    140.58     24.0  5.6   0.0   0.0   0.965        12
 CBIJ      134.70   1.000   P
  JOW      201.10   1.000   P
 TWGB      288.10   1.000   P
 KMNB      298.40   1.000   P
  ULN      340.70   1.000   P
  LDM      430.60   1.000   P
  SWI      436.60   1.000   P
 SIJI      437.00   1.000   P
 LBMI      443.50   1.000   P
 KMSI      443.90   1.000   P
 SMSI      445.90   1.000   P
 OBMI      449.60   1.000   P
 MRSI      452.00   1.000   P
 FAKI      452.80   1.000   P
 CMMT      456.50   1.000   P
 CHTO      456.90   1.000   P
 KMPI      457.70   1.000   P
 SANI      457.70   1.000   P
 MHIT      459.30   1.000   P
 LUWI      460.90   1.000   P
 MPSI      460.90   1.000   P
 NLAI      466.30   1.000   P
  AAI      466.60   1.000   P
 BNDI      470.20   1.000   P
 SMKI      477.10   1.000   P
 SRDT      477.20   1.000   P
  BKB      483.00   1.000   P
 MTKI      488.40   1.000   P
  KSM      491.30   1.000   P
 PMSI      491.60   1.000   P
 BBSI      495.70   1.000   P
 STKI      495.90   1.000   P
 KAPI      499.30   1.000   P
 PKKI      500.20   1.000   P
 KBKI      501.20   1.000   P
 BSSI      506.30   1.000   P
 ATNI      513.90   1.000   P
 MMRI      517.50   1.000   P
  KUM      517.80   1.000   P
  IPM      518.90   1.000   P
 EDFI      519.30   1.000   P
 SOEI      520.70   1.000   P
  KOM      521.50   1.000   P
 LBFI      521.90   1.000   P
 TPRI      523.10   1.000   P
 BATI      525.60   1.000   P
 DBNI      527.20   1.000   P
 PLAI      530.20   1.000   P
 WBSI      531.00   1.000   P
  MTN      531.10   1.000   P
 KMMI      532.70   1.000   P
 BASI      533.80   1.000   P
  AAK      534.00   1.000   P
 PPBI      534.00   1.000   P
 KLNI      534.10   1.000   P
 COEN      534.50   1.000   P
 SRBI      535.10   1.000   P
 ABJI      536.50   1.000   P
 GRJI      537.30   1.000   P
 RTBI      537.80   1.000   P
 BLJI      538.40   1.000   P
 IGBI      538.50   1.000   P
  DNP      538.90   1.000   P
 BYJI      539.80   1.000   P
 JAGI      540.10   1.000   P
 RPSI      541.00   1.000   P
 GMJI      541.40   1.000   P
 BKNI      543.40   1.000   P
  KRK      543.80   1.000   P
 SWJI      543.90   1.000   P
 MLSI      544.00   1.000   P
 MNSI      546.50   1.000   P
 PMBI      546.50   1.000   P
 SDSI      548.20   1.000   P
  UGM      549.70   1.000   P
 CTJI      549.80   1.000   P
 JCJI      552.60   1.000   P
 PDSI      553.20   1.000   P
 SCJI      554.20   1.000   P
  KLI      554.30   1.000   P
  GSI      554.70   1.000   P
 MDSI      554.80   1.000   P
 BLSI      555.30   1.000   P
 MKBI      556.20   1.000   P
 MASI      556.70   1.000   P
 CISI      558.10   1.000   P
 KASI      558.50   1.000   P
 LWLI      559.40   1.000   P
 CGJI      559.70   1.000   P
 SKJI      562.10   1.000   P
 SISI      563.30   1.000   P
 FITZ      577.40   1.000   P
 WRAB      578.70   1.000   P
  KBL      583.30   1.000   P
 MBWA      609.20   1.000   P
 MALK      612.30   1.000   P
 PALK      616.00   1.000   P
 EIDS      621.10   1.000   P
 HALK      621.20   1.000   P
 COCO      630.80   1.000   P
 ARMA      654.40   1.000   P
 CMSA      656.60   1.000   P
 FORT      656.60   1.000   P
 STKA      657.00   1.000   P
 BBOO      664.30   1.000   P
 MORW      665.50   1.000   P
 UOSS      677.90   1.000   P
  EIL      749.30   1.000   P
# 2012 03 02 10 11 42.1  035.40    141.54     41.0  5.3   0.0   0.0   1.619        13
 CBIJ      114.80   1.000   P
  JOW      201.70   1.000   P
  JMJ      244.70   1.000   P
 TWGB      284.10   1.000   P
 GUMO      288.00   1.000   P
  ULN      352.00   1.000   P
  DAV      380.50   1.000   P
 MWPI      425.40   1.000   P
 SIJI      427.90   1.000   P
  SWI      428.50   1.000   P
 RKPI      429.20   1.000   P
 SKNT      432.70   1.000   P
 GENI      434.10   1.000   P
 LBMI      436.80   1.000   P
 OBMI      439.90   1.000   P
 FAKI      442.40   1.000   P
 MRSI      444.80   1.000   P
 SANI      448.20   1.000   P
 LUWI      452.40   1.000   P
 MPSI      452.70   1.000   P
 MSAI      455.40   1.000   P
 APSI      455.60   1.000   P
  AAI      457.10   1.000   P
 CHTO      457.80   1.000   P
 NLAI      459.50   1.000   P
 BNDI      460.20   1.000   P
 MHIT      462.20   1.000   P
 CHBT      466.40   1.000   P
 SGKI      468.90   1.000   P
 SMKI      469.10   1.000   P
  SBM      472.40   1.000   P
  BKB      475.00   1.000   P
 SRDT      476.40   1.000   P
 MMPI      481.60   1.000   P
 PHET      482.00   1.000   P
 KKSI      482.50   1.000   P
 ATNI      505.60   1.000   P
 EDFI      512.40   1.000   P
 SOEI      513.20   1.000   P
 BATI      517.40   1.000   P
  MTN      523.30   1.000   P
 COEN      525.80   1.000   P
# 2012 03 09 17 25 31.2  036.65    140.92     24.0  5.4   0.0   0.0   1.491        14
 CBIJ      134.00   1.000   P
  JOW      205.90   1.000   P
 CBIJ      239.40   1.000   S
 TWGB      294.70   1.000   P
  ULN      339.00   1.000   P
  LDM      432.40   1.000   P
 SKNT      434.80   1.000   P
 MWPI      435.50   1.000   P
  SWI      439.40   1.000   P
 LBMI      445.10   1.000   P
 GENI      446.00   1.000   P
 KMSI      446.30   1.000   P
 MRSI      454.00   1.000   P
 FAKI      454.70   1.000   P
 CMMT      456.30   1.000   P
 CHTO      457.70   1.000   P
 SANI      460.50   1.000   P
 MHIT      462.00   1.000   P
 MSAI      466.70   1.000   P
 NLAI      468.60   1.000   P
  AAI      469.40   1.000   P
 BNDI      471.70   1.000   P
  SBM      476.90   1.000   P
 SRDT      478.80   1.000   P
 PHET      484.20   1.000   P
 KKSI      488.90   1.000   P
 MTKI      489.90   1.000   P
  KSM      494.00   1.000   P
 BNSI      495.70   1.000   P
 SAUI      498.00   1.000   P
 STKI      498.80   1.000   P
 KAPI      499.80   1.000   P
 ATNI      516.50   1.000   P
 PKDT      517.30   1.000   P
  IPM      520.80   1.000   P
 SOEI      523.00   1.000   P
 TPRI      524.90   1.000   P
 LBFI      525.10   1.000   P
 BATI      528.70   1.000   P
 DBNI      530.10   1.000   P
 SOEI      530.80   1.000   S
  AAK      533.90   1.000   P
 KLNI      536.70   1.000   P
  KHK      538.40   1.000   P
  AAK      541.70   1.000   S
  KHK      544.00   1.000   S
# 2012 03 14 10 49 25.9  040.62    144.43     10.0  6.2   0.0   0.0   1.099        15
 CBIJ      189.20   1.000   P
  JOW      263.50   1.000   P
 TWGB      339.20   1.000   P
 KMNB      341.80   1.000   P
  ULN      347.50   1.000   P
 SKNT      472.20   1.000   P
 UBPT      473.30   1.000   P
  LDM      475.50   1.000   P
 MWPI      476.70   1.000   P
  SWI      480.60   1.000   P
  JAY      480.90   1.000   P
 GENI      481.50   1.000   P
 LBMI      487.40   1.000   P
 CMMT      490.20   1.000   P
 SMSI      490.50   1.000   P
 CHTO      493.00   1.000   P
 OBMI      493.20   1.000   P
 MRSI      494.60   1.000   P
 SANI      500.90   1.000   P
 LUWI      502.00   1.000   P
 MPSI      502.80   1.000   P
 APSI      504.60   1.000   P
  AAI      508.30   1.000   P
 BNDI      510.70   1.000   P
 SRDT      512.10   1.000   P
  SBM      517.60   1.000   P
  KDI      524.80   1.000   P
 TTSI      526.50   1.000   P
 MTKI      527.60   1.000   P
 KKSI      529.70   1.000   P
  PMG      532.00   1.000   P
  KSM      532.10   1.000   P
 BNSI      535.00   1.000   P
 STKI      538.00   1.000   P
 ATNI      552.70   1.000   P
  KUM      553.60   1.000   P
  IPM      557.80   1.000   P
 SOEI      558.60   1.000   P
 BTDF      562.30   1.000   P
 BATI      566.70   1.000   P
 KCSI      576.20   1.000   P
  PSI      576.50   1.000   P
 SLSI      587.90   1.000   P
  KLI      593.60   1.000   P
 MKBI      594.40   1.000   P
 MASI      594.70   1.000   P
  KBL      596.30   1.000   P
  CTA      608.80   1.000   P
 MALK      638.40   1.000   P
 PALK      642.40   1.000   P
 MBWA      643.20   1.000   P
 EIDS      645.10   1.000   P
 HALK      647.90   1.000   P
 ARMA      677.60   1.000   P
 MEEK      678.70   1.000   P
 CMSA      681.90   1.000   P
 STKA      685.00   1.000   P
 UOSS      688.50   1.000   P
 BBOO      693.30   1.000   P
 MORW      696.30   1.000   P
 KMBL      698.50   1.000   P
  YNG      699.70   1.000   P
 BLDU      704.30   1.000   P
 NWAO      714.90   1.000   P
  TOO      718.70   1.000   P
  MOO      744.90   1.000   P
  EIL      753.20   1.000   P
 KMBO      842.30   1.000   P
 MSNA     1133.70   1.000   P
 MSNA     1134.30   1.000   S
 MSNA     1134.70   1.000   S
# 2012 03 14 13 43 16.9  040.92    144.65     39.0  5.2   0.0   0.0   1.336        16
  JOW      264.30   1.000   P
  ULN      344.10   1.000   P
 CMMT      488.80   1.000   P
 CHTO      489.90   1.000   P
 MHIT      492.30   1.000   P
 MRSI      493.40   1.000   P
 SANI      498.40   1.000   P
 APSI      501.40   1.000   P
 PHET      517.20   1.000   P
 MTKI      529.00   1.000   P
  KUM      552.90   1.000   P
  IPM      553.70   1.000   P
 COEN      565.30   1.000   P
 MNSI      583.20   1.000   P
  KBL      587.70   1.000   P
  GSI      590.10   1.000   P
 MDSI      590.90   1.000   P
 MKBI      591.90   1.000   P
 MASI      592.50   1.000   P
 WRAB      610.20   1.000   P
 UOSS      685.90   1.000   P
 MORW      696.40   1.000   P
  EIL      749.10   1.000   P
# 2012 03 21 12 01 34.8  036.71    142.14     35.0  5.1   0.0   0.0   0.963        17
  ULN      347.90   1.000   P
  LDM      438.10   1.000   P
 MRSI      456.00   1.000   P
 SANI      461.90   1.000   P
 CMMT      464.90   1.000   P
 CHTO      465.60   1.000   P
 APSI      467.50   1.000   P
  SBM      482.50   1.000   P
 SRDT      486.40   1.000   P
 SRDT      496.20   1.000   S
  KSM      498.90   1.000   P
 BNSI      499.60   1.000   P
 STKI      502.50   1.000   P
 SOEI      524.60   1.000   P
  IPM      526.90   1.000   P
  AAK      539.90   1.000   P
  KHK      542.60   1.000   P
  PSI      547.50   1.000   P
 PWJI      550.80   1.000   P
 MDSI      561.00   1.000   P
  GSI      561.70   1.000   P
 WRAB      580.20   1.000   P
  KBL      589.40   1.000   P
 UOSS      683.30   1.000   P
# 2012 03 27 11 00 43.4  039.83    142.21     10.0  6.1   0.0   0.0   1.194        18
 CBIJ      176.80   1.000   P
  JOW      240.20   1.000   P
  JMJ      280.40   1.000   P
  YOJ      296.50   1.000   P
 TATO      302.00   1.000   P
 TWGB      319.20   1.000   P
 KMNB      325.70   1.000   P
 GUMO      330.70   1.000   P
  ULN      336.00   1.000   P
 PATS      417.20   1.000   P
 SGSI      446.70   1.000   P
 GLMI      454.70   1.000   P
 SKNT      455.60   1.000   P
  LDM      461.40   1.000   P
  KKM      464.10   1.000   P
 MWPI      465.70   1.000   P
  SWI      468.60   1.000   P
 RKPI      469.50   1.000   P
  JAY      473.00   1.000   P
 GENI      473.80   1.000   P
 LBMI      474.90   1.000   P
 CMMT      475.50   1.000   P
 KMSI      475.60   1.000   P
 CHTO      476.50   1.000   P
 SMSI      476.60   1.000   P
 MHIT      478.50   1.000   P
 OBMI      479.90   1.000   P
 MRSI      481.80   1.000   P
 FAKI      483.10   1.000   P
 KMPI      486.30   1.000   P
 SANI      488.30   1.000   P
 MPSI      488.80   1.000   P
 LUWI      489.20   1.000   P
 APSI      492.90   1.000   P
 MSAI      495.60   1.000   P
 NLAI      496.50   1.000   P
  AAI      497.50   1.000   P
 SRDT      498.00   1.000   P
  PCI      498.20   1.000   P
 SGKI      498.70   1.000   P
 PHET      503.60   1.000   P
  SBM      504.00   1.000   P
 SMKI      506.50   1.000   P
  BKB      511.80   1.000   P
  KDI      512.90   1.000   P
 TTSI      513.30   1.000   P
 TARA      515.60   1.000   P
 MTKI      516.30   1.000   P
 KKSI      517.80   1.000   P
 PMSI      519.00   1.000   P
  KSM      519.20   1.000   P
 BNSI      523.40   1.000   P
 SAUI      524.50   1.000   P
 BBSI      524.70   1.000   P
 KBKI      527.20   1.000   P
 PKKI      528.00   1.000   P
  PMG      528.10   1.000   P
 KAPI      528.10   1.000   P
 SKLT      528.90   1.000   P
  AAK      531.90   1.000   P
 BSSI      532.70   1.000   P
 PBKI      539.70   1.000   P
  KUM      540.10   1.000   P
  IPM      541.80   1.000   P
 ATNI      542.90   1.000   P
  KOM      545.70   1.000   P
 TPRI      548.00   1.000   P
 BTDF      548.00   1.000   P
 SOEI      548.80   1.000   P
 LBFI      550.10   1.000   P
 BATI      553.20   1.000   P
 DBNI      554.60   1.000   P
 PLAI      557.70   1.000   P
 WBSI      557.70   1.000   P
 BASI      558.10   1.000   P
  MTN      558.40   1.000   P
 KMMI      559.70   1.000   P
 COEN      559.90   1.000   P
 LHMI      560.00   1.000   P
 KLNI      561.00   1.000   P
  KHK      561.80   1.000   P
 SRBI      562.30   1.000   P
 ABJI      563.60   1.000   P
 GRJI      564.10   1.000   P
 RTBI      564.90   1.000   P
 TBJI      565.40   1.000   P
 MLSI      566.10   1.000   P
 TPTI      566.20   1.000   P
  DNP      566.20   1.000   P
 BLJI      566.60   1.000   P
 BKNI      566.90   1.000   P
 IGBI      567.60   1.000   P
 GMJI      568.30   1.000   P
 JAGI      568.80   1.000   P
 MNSI      570.00   1.000   P
 SWJI      570.80   1.000   P
  KRK      570.90   1.000   P
 PWJI      571.60   1.000   P
 SMRI      572.40   1.000   P
  UGM      575.80   1.000   P
 CTJI      576.10   1.000   P
 PDSI      576.50   1.000   P
  GSI      576.80   1.000   P
 PCJI      576.90   1.000   P
 KPJI      578.20   1.000   P
  KLI      579.40   1.000   P
 MDSI      580.00   1.000   P
 MKBI      580.20   1.000   P
 CMJI      580.40   1.000   P
 MASI      580.80   1.000   P
 CISI      583.00   1.000   P
 LWLI      583.00   1.000   P
 KASI      583.10   1.000   P
 SISI      583.30   1.000   P
 CGJI      583.60   1.000   P
  KBL      585.80   1.000   P
 PPSI      588.60   1.000   P
  CTA      603.80   1.000   P
 CTAO      603.90   1.000   P
 WRAB      604.80   1.000   P
 XMIS      607.60   1.000   P
 MALK      626.90   1.000   P
 PALK      630.70   1.000   P
 MBWA      634.30   1.000   P
 HALK      635.90   1.000   P
 EIDS      642.50   1.000   P
 COCO      651.60   1.000   P
 MEEK      668.60   1.000   P
 ARMA      674.40   1.000   P
 CMSA      678.30   1.000   P
 STKA      678.80   1.000   P
 UOSS      680.80   1.000   P
 BBOO      686.30   1.000   P
 MORW      687.50   1.000   P
  LHI      688.50   1.000   P
 KMBL      690.10   1.000   P
 BLDU      694.10   1.000   P
  YNG      695.30   1.000   P
 NIUE      695.40   1.000   P
  CNB      701.30   1.000   P
 NWAO      706.40   1.000   P
  TOO      713.10   1.000   P
 DGAR      727.10   1.000   P
  MOO      740.20   1.000   P
  EIL      746.80   1.000   P
 SGSI      811.30   1.000   S
 GLMI      822.50   1.000   S
# 2012 04 01 14 04 21.5  037.09    140.82     10.0  5.9   0.0   0.0   1.096        19
 CBIJ      141.20   1.000   P
  JOW      210.50   1.000   P
  JMJ      250.40   1.000   P
 TWGB      294.40   1.000   P
 KMNB      301.70   1.000   P
 GUMO      311.80   1.000   P
  ULN      340.90   1.000   P
 GLMI      430.50   1.000   P
  LDM      437.90   1.000   P
  KKM      440.70   1.000   P
 MWPI      441.50   1.000   P
  SWI      445.10   1.000   P
  JAY      449.40   1.000   P
 KMSI      450.10   1.000   P
 GENI      451.00   1.000   P
 LBMI      451.30   1.000   P
 SMSI      453.00   1.000   P
 OBMI      456.60   1.000   P
 MRSI      459.00   1.000   P
 FAKI      459.90   1.000   P
 CMMT      461.40   1.000   P
 CHTO      462.20   1.000   P
 SANI      464.40   1.000   P
 LUWI      465.60   1.000   P
 MPSI      466.90   1.000   P
 APSI      470.20   1.000   P
 MSAI      470.50   1.000   P
 CHBT      472.80   1.000   P
 NLAI      472.80   1.000   P
  AAI      474.50   1.000   P
  SBM      482.40   1.000   P
 SMKI      482.90   1.000   P
 PHET      487.90   1.000   P
  BKB      489.50   1.000   P
 MTKI      495.30   1.000   P
 KKSI      495.80   1.000   P
 PMSI      498.50   1.000   P
  KSM      498.80   1.000   P
 BNSI      500.40   1.000   P
 SAUI      502.00   1.000   P
 STKI      502.20   1.000   P
 BBSI      502.80   1.000   P
 KBKI      505.70   1.000   P
 KAPI      506.00   1.000   P
  PMG      509.40   1.000   P
 BSSI      511.80   1.000   P
 SKLT      512.20   1.000   P
 ATNI      520.80   1.000   P
  KUM      522.90   1.000   P
  IPM      525.40   1.000   P
 SOEI      527.60   1.000   P
  KOM      527.60   1.000   P
 TPRI      528.40   1.000   P
 LBFI      528.40   1.000   P
 BTDF      531.10   1.000   P
 BATI      531.90   1.000   P
 DBNI      534.00   1.000   P
 DSRI      536.60   1.000   P
 PLAI      536.90   1.000   P
  MTN      537.10   1.000   P
 KMMI      538.70   1.000   P
 KLNI      540.70   1.000   P
 COEN      540.90   1.000   P
 SRBI      542.00   1.000   P
 LHMI      543.80   1.000   P
 RTBI      544.00   1.000   P
  DNP      544.90   1.000   P
 IGBI      544.90   1.000   P
 GRJI      545.00   1.000   P
 JAGI      546.00   1.000   P
 BYJI      546.40   1.000   P
 RGRI      547.60   1.000   P
 BKNI      548.80   1.000   P
 TPTI      549.60   1.000   P
 MLSI      550.40   1.000   P
 SWJI      550.70   1.000   P
  KRK      550.80   1.000   P
 PWJI      551.80   1.000   P
 MNSI      552.50   1.000   P
 PCJI      555.90   1.000   P
  UGM      556.20   1.000   P
 SLSI      557.10   1.000   P
 SCJI      558.40   1.000   P
 KPJI      558.60   1.000   P
 PDSI      559.10   1.000   P
  GSI      560.30   1.000   P
  KLI      560.70   1.000   P
  LEM      560.70   1.000   P
 MDSI      561.20   1.000   P
 BLSI      561.90   1.000   P
 MKBI      562.60   1.000   P
 CISI      562.70   1.000   P
 MASI      563.00   1.000   P
 CGJI      564.90   1.000   P
 KASI      564.90   1.000   P
 SISI      565.80   1.000   P
  NIL      565.90   1.000   P
 LWLI      567.00   1.000   P
  KBL      585.00   1.000   P
 CTAO      587.80   1.000   P
  CTA      587.90   1.000   P
 MBWA      614.50   1.000   P
 MALK      616.60   1.000   P
 PALK      620.40   1.000   P
 HALK      625.70   1.000   P
 EIDS      626.90   1.000   P
 MEEK      650.40   1.000   P
 ARMA      660.10   1.000   P
 CMSA      661.60   1.000   P
 FORT      661.80   1.000   P
 STKA      662.10   1.000   P
 BBOO      668.90   1.000   P
 MORW      669.80   1.000   P
 KMBL      673.70   1.000   P
 BLDU      678.00   1.000   P
  YNG      679.50   1.000   P
 UOSS      679.90   1.000   P
 NWAO      690.90   1.000   P
  EIL      749.80   1.000   P
# 2012 04 12 11 20 00.5  036.91    140.97     10.0  5.5   0.0   0.0   1.931        20
 CBIJ      139.50   1.000   P
  JOW      207.50   1.000   P
  YOJ      267.70   1.000   P
 TWGB      295.50   1.000   P
  ULN      341.70   1.000   P
  LDM      438.50   1.000   P
 GENI      447.70   1.000   P
 LBMI      448.10   1.000   P
 SMSI      450.80   1.000   P
  JAY      451.00   1.000   P
 OBMI      454.50   1.000   P
 KMSI      455.30   1.000   P
 MRSI      456.00   1.000   P
 FAKI      457.70   1.000   P
 SANI      461.50   1.000   P
 MPSI      463.40   1.000   P
 APSI      466.80   1.000   P
 MSAI      468.30   1.000   P
  AAI      471.60   1.000   P
  PCI      473.40   1.000   P
  KDI      487.50   1.000   P
 KKSI      493.40   1.000   P
 PMSI      495.70   1.000   P
 BNSI      497.70   1.000   P
 KBKI      507.80   1.000   P
 ATNI      518.20   1.000   P
 MMRI      526.00   1.000   P
 LBFI      527.00   1.000   P
